{"type": "FeatureCollection", "features": [{"type": "Feature", "properties": {"name": "SOUTH SALINA STREET", "id": "477447265", "fcc": "A21", "role": "source"}, "geometry": {"type": "LineString", "coordinates": [[-76.143799260105, 42.9861645623285], [-76.1437822460135, 42.9860606345069]]}}, {"type": "Feature", "properties": {"name": "SOUTH SALINA STREET", "id": "477447296", "fcc": "A21", "role": "source"}, "geometry": {"type": "LineString", "coordinates": [[-76.1437822460135, 42.9860606345069], [-76.1437222951464, 42.985711570505394], [-76.1436492297745, 42.9853695707768]]}}, {"type": "Feature", "properties": {"name": "SOUTH SALINA STREET", "id": "477447414", "fcc": "A21", "role": "source"}, "geometry": {"type": "LineString", "coordinates": [[-76.1435440361564, 42.984949233315895], [-76.1433123381867, 42.9840616307794]]}}, {"type": "Feature", "properties": {"name": "SOUTH SALINA STREET", "id": "477447335", "fcc": "A21", "role": "source"}, "geometry": {"type": "LineString", "coordinates": [[-76.1436492297745, 42.9853695707768], [-76.1435440361564, 42.984949233315895]]}}, {"type": "Feature", "properties": {"name": "SOUTH SALINA STREET", "id": "477447171", "fcc": "A21", "role": "source"}, "geometry": {"type": "LineString", "coordinates": [[-76.14411529999842, 42.98813259430959], [-76.1439482636612, 42.98708257185059]]}}, {"type": "Feature", "properties": {"name": "SOUTH SALINA STREET", "id": "477447254", "fcc": "A21", "role": "source"}, "geometry": {"type": "LineString", "coordinates": [[-76.1439482636612, 42.98708257185059], [-76.143799260105, 42.9861645623285]]}}, {"type": "Feature", "properties": {"name": "SOUTH SALINA STREET", "id": "477447082", "fcc": "A21", "role": "source"}, "geometry": {"type": "LineString", "coordinates": [[-76.144242231948, 42.98891160679731], [-76.14411529999842, 42.98813259430959]]}}, {"type": "Feature", "properties": {"name": "SOUTH SALINA STREET", "id": "800048270", "fcc": "A21", "role": "source"}, "geometry": {"type": "LineString", "coordinates": [[-76.1441492922487, 42.9905866517748], [-76.144157704073, 42.99052436122359]]}}, {"type": "Feature", "properties": {"name": "SOUTH SALINA STREET", "id": "800048271", "fcc": "A21", "role": "source"}, "geometry": {"type": "LineString", "coordinates": [[-76.144157704073, 42.99052436122359], [-76.1443092381833, 42.9894026086273], [-76.1442992489174, 42.98924764268259], [-76.144242231948, 42.98891160679731]]}}, {"type": "Feature", "properties": {"name": "SOUTH SALINA STREET", "id": "477446821", "fcc": "A21", "role": "source"}, "geometry": {"type": "LineString", "coordinates": [[-76.1438942740143, 42.99233958797289], [-76.143998292636, 42.99168460716021], [-76.1440333251354, 42.99143058665219]]}}, {"type": "Feature", "properties": {"name": "SOUTH SALINA STREET", "id": "477446918", "fcc": "A21", "role": "source"}, "geometry": {"type": "LineString", "coordinates": [[-76.1440333251354, 42.99143058665219], [-76.1441492922487, 42.9905866517748]]}}, {"type": "Feature", "properties": {"name": "SOUTH SALINA STREET", "id": "477446605", "fcc": "A21", "role": "source"}, "geometry": {"type": "LineString", "coordinates": [[-76.1436213442714, 42.9942916228887], [-76.1437363358143, 42.99351361423669]]}}, {"type": "Feature", "properties": {"name": "SOUTH SALINA STREET", "id": "477446518", "fcc": "A21", "role": "source"}, "geometry": {"type": "LineString", "coordinates": [[-76.1435933285126, 42.99448758034609], [-76.1436213442714, 42.9942916228887]]}}, {"type": "Feature", "properties": {"name": "SOUTH SALINA STREET", "id": "477446618", "fcc": "A21", "role": "source"}, "geometry": {"type": "LineString", "coordinates": [[-76.1437363358143, 42.99351361423669], [-76.1437572306278, 42.993363652948894]]}}, {"type": "Feature", "properties": {"name": "SOUTH SALINA STREET", "id": "477446655", "fcc": "A21", "role": "source"}, "geometry": {"type": "LineString", "coordinates": [[-76.1437572306278, 42.993363652948894], [-76.1438402879606, 42.99280856657819]]}}, {"type": "Feature", "properties": {"name": "SOUTH SALINA STREET", "id": "477446709", "fcc": "A21", "role": "source"}, "geometry": {"type": "LineString", "coordinates": [[-76.1438402879606, 42.99280856657819], [-76.1438942740143, 42.99233958797289]]}}, {"type": "Feature", "properties": {"name": "SOUTH SALINA STREET", "id": "477446498", "fcc": "A21", "role": "source"}, "geometry": {"type": "LineString", "coordinates": [[-76.1435013275528, 42.9951626123401], [-76.1435933285126, 42.99448758034609]]}}, {"type": "Feature", "properties": {"name": "SOUTH SALINA STREET", "id": "477446276", "fcc": "A21", "role": "source"}, "geometry": {"type": "LineString", "coordinates": [[-76.1431892447383, 42.997465599486496], [-76.1433052962932, 42.99659861240719]]}}, {"type": "Feature", "properties": {"name": "SOUTH SALINA STREET", "id": "477446333", "fcc": "A21", "role": "source"}, "geometry": {"type": "LineString", "coordinates": [[-76.1433052962932, 42.99659861240719], [-76.1433812937662, 42.996019644012684]]}}, {"type": "Feature", "properties": {"name": "SOUTH SALINA STREET", "id": "477446431", "fcc": "A21", "role": "source"}, "geometry": {"type": "LineString", "coordinates": [[-76.1433812937662, 42.996019644012684], [-76.1435013275528, 42.9951626123401]]}}, {"type": "Feature", "properties": {"name": "SOUTH SALINA STREET", "id": "800034275", "fcc": "A21", "role": "source"}, "geometry": {"type": "LineString", "coordinates": [[-76.14299039905691, 42.998805462338595], [-76.1430398935341, 42.99852443629479]]}}, {"type": "Feature", "properties": {"name": "SOUTH SALINA STREET", "id": "800049634", "fcc": "A21", "role": "source"}, "geometry": {"type": "LineString", "coordinates": [[-76.1429729277229, 42.998904628370795], [-76.14299039905691, 42.998805462338595]]}}, {"type": "Feature", "properties": {"name": "SOUTH SALINA STREET", "id": "800034271", "fcc": "A21", "role": "source"}, "geometry": {"type": "LineString", "coordinates": [[-76.1427103501654, 43.0006985717962], [-76.14272424800112, 43.00048861745709], [-76.1429642284377, 42.9989535760104], [-76.1429729277229, 42.998904628370795]]}}, {"type": "Feature", "properties": {"name": "SOUTH SALINA STREET", "id": "477446215", "fcc": "A21", "role": "source"}, "geometry": {"type": "LineString", "coordinates": [[-76.1430398935341, 42.99852443629479], [-76.1430442683295, 42.99849964694789], [-76.1431892447383, 42.997465599486496]]}}, {"type": "Feature", "properties": {"name": "SOUTH SALINA STREET", "id": "477445897", "fcc": "A21", "role": "source"}, "geometry": {"type": "LineString", "coordinates": [[-76.142786335062, 43.001746621329495], [-76.1427103501654, 43.0006985717962]]}}, {"type": "Feature", "properties": {"name": "SOUTH SALINA STREET", "id": "477445783", "fcc": "A21", "role": "source"}, "geometry": {"type": "LineString", "coordinates": [[-76.1428133150632, 43.002083587593006], [-76.142786335062, 43.001746621329495]]}}, {"type": "Feature", "properties": {"name": "SOUTH SALINA STREET", "id": "477445744", "fcc": "A21", "role": "source"}, "geometry": {"type": "LineString", "coordinates": [[-76.1428423153755, 43.002509593061596], [-76.1428133150632, 43.002083587593006]]}}, {"type": "Feature", "properties": {"name": "SOUTH SALINA STREET", "id": "477445706", "fcc": "A21", "role": "source"}, "geometry": {"type": "LineString", "coordinates": [[-76.142876233964, 43.003015602766695], [-76.1428423153755, 43.002509593061596]]}}, {"type": "Feature", "properties": {"name": "SOUTH SALINA STREET", "id": "477445661", "fcc": "A21", "role": "source"}, "geometry": {"type": "LineString", "coordinates": [[-76.1429693048173, 43.003846641937294], [-76.142876233964, 43.003015602766695]]}}, {"type": "Feature", "properties": {"name": "SOUTH SALINA STREET", "id": "477445547", "fcc": "A21", "role": "source"}, "geometry": {"type": "LineString", "coordinates": [[-76.1430172613788, 43.004229593736596], [-76.1429693048173, 43.003846641937294]]}}, {"type": "Feature", "properties": {"name": "SOUTH SALINA STREET", "id": "477445280", "fcc": "A21", "role": "source"}, "geometry": {"type": "LineString", "coordinates": [[-76.1430373234541, 43.006985629911895], [-76.143123344329, 43.0064435730481], [-76.1431763287611, 43.005767582371696], [-76.1431891854495, 43.00561198368649]]}}, {"type": "Feature", "properties": {"name": "SOUTH SALINA STREET", "id": "477445325", "fcc": "A21", "role": "source"}, "geometry": {"type": "LineString", "coordinates": [[-76.1431891854495, 43.00561198368649], [-76.143177263009, 43.005513633216], [-76.1431673339302, 43.0054016211055]]}}, {"type": "Feature", "properties": {"name": "SOUTH SALINA STREET", "id": "477445496", "fcc": "A21", "role": "source"}, "geometry": {"type": "LineString", "coordinates": [[-76.1431673339302, 43.0054016211055], [-76.1430172613788, 43.004229593736596]]}}, {"type": "Feature", "properties": {"name": "SOUTH SALINA STREET", "id": "477435057", "fcc": "A31", "role": "source"}, "geometry": {"type": "LineString", "coordinates": [[-76.1521773526866, 43.050911635780395], [-76.15218424276482, 43.0505516408576]]}}, {"type": "Feature", "properties": {"name": "SOUTH SALINA STREET", "id": "800066542", "fcc": "A31", "role": "source"}, "geometry": {"type": "LineString", "coordinates": [[-76.15218424276482, 43.0505516408576], [-76.1521865990458, 43.0504584347279]]}}, {"type": "Feature", "properties": {"name": "SOUTH SALINA STREET", "id": "477435349", "fcc": "A31", "role": "source"}, "geometry": {"type": "LineString", "coordinates": [[-76.1521865990458, 43.0504584347279], [-76.1522022908172, 43.04983665144079], [-76.15220528669872, 43.049596641226]]}}, {"type": "Feature", "properties": {"name": "SOUTH SALINA STREET", "id": "477435621", "fcc": "A31", "role": "source"}, "geometry": {"type": "LineString", "coordinates": [[-76.15220528669872, 43.049596641226], [-76.1522183221517, 43.04869259930819]]}}, {"type": "Feature", "properties": {"name": "SOUTH SALINA STREET", "id": "477436196", "fcc": "A31", "role": "source"}, "geometry": {"type": "LineString", "coordinates": [[-76.1522183221517, 43.04869259930819], [-76.152233270118, 43.0470446437613]]}}, {"type": "Feature", "properties": {"name": "SOUTH SALINA STREET", "id": "477436842", "fcc": "A31", "role": "source"}, "geometry": {"type": "LineString", "coordinates": [[-76.152233270118, 43.0470446437613], [-76.152248239644, 43.04648664056288], [-76.1522762212667, 43.04458061681749], [-76.1522598854033, 43.0443329941324]]}}, {"type": "Feature", "properties": {"name": "SOUTH SALINA STREET", "id": "477437367", "fcc": "A31", "role": "source"}, "geometry": {"type": "LineString", "coordinates": [[-76.1522598854033, 43.0443329941324], [-76.152094678036, 43.044031705606294], [-76.151838244955, 43.0434596306986], [-76.1515423201375, 43.042774634854794]]}}, {"type": "Feature", "properties": {"name": "SOUTH SALINA STREET", "id": "477437870", "fcc": "A31", "role": "source"}, "geometry": {"type": "LineString", "coordinates": [[-76.1515423201375, 43.042774634854794], [-76.1510242491367, 43.0415346497997]]}}, {"type": "Feature", "properties": {"name": "SOUTH SALINA STREET", "id": "477438074", "fcc": "A31", "role": "source"}, "geometry": {"type": "LineString", "coordinates": [[-76.1510242491367, 43.0415346497997], [-76.150711330889, 43.0407276257951]]}}, {"type": "Feature", "properties": {"name": "SOUTH SALINA STREET", "id": "477438495", "fcc": "A33", "role": "source"}, "geometry": {"type": "LineString", "coordinates": [[-76.15030823885472, 43.03944361745499], [-76.1502863253517, 43.03937459018591]]}}, {"type": "Feature", "properties": {"name": "SOUTH SALINA STREET", "id": "477438584", "fcc": "A31", "role": "source"}, "geometry": {"type": "LineString", "coordinates": [[-76.1502863253517, 43.03937459018591], [-76.1502202542625, 43.03916958200858]]}}, {"type": "Feature", "properties": {"name": "SOUTH SALINA STREET", "id": "477438964", "fcc": "A31", "role": "source"}, "geometry": {"type": "LineString", "coordinates": [[-76.1502202542625, 43.03916958200858], [-76.149887249685, 43.03812061563879]]}}, {"type": "Feature", "properties": {"name": "SOUTH SALINA STREET", "id": "477438459", "fcc": "A31", "role": "source"}, "geometry": {"type": "LineString", "coordinates": [[-76.1505763284748, 43.04033564941939], [-76.15030823885472, 43.03944361745499]]}}, {"type": "Feature", "properties": {"name": "SOUTH SALINA STREET", "id": "477438228", "fcc": "A31", "role": "source"}, "geometry": {"type": "LineString", "coordinates": [[-76.150711330889, 43.0407276257951], [-76.1505763284748, 43.04033564941939]]}}, {"type": "Feature", "properties": {"name": "SOUTH SALINA STREET", "id": "477439020", "fcc": "A31", "role": "source"}, "geometry": {"type": "LineString", "coordinates": [[-76.149887249685, 43.03812061563879], [-76.1498182375116, 43.037902579993506]]}}, {"type": "Feature", "properties": {"name": "SOUTH SALINA STREET", "id": "477439482", "fcc": "A31", "role": "source"}, "geometry": {"type": "LineString", "coordinates": [[-76.1498182375116, 43.037902579993506], [-76.1497082441949, 43.03737662830029], [-76.149578276838, 43.036339578072095]]}}, {"type": "Feature", "properties": {"name": "SOUTH SALINA STREET", "id": "477439764", "fcc": "A31", "role": "source"}, "geometry": {"type": "LineString", "coordinates": [[-76.149578276838, 43.036339578072095], [-76.1494583095267, 43.035410576179494]]}}, {"type": "Feature", "properties": {"name": "SOUTH SALINA STREET", "id": "477440429", "fcc": "A21", "role": "source"}, "geometry": {"type": "LineString", "coordinates": [[-76.1494583095267, 43.035410576179494], [-76.1493092682413, 43.0342455773899], [-76.1492693695679, 43.03404472687949]]}}, {"type": "Feature", "properties": {"name": "SOUTH SALINA STREET", "id": "800048983", "fcc": "A21", "role": "source"}, "geometry": {"type": "LineString", "coordinates": [[-76.1492693695679, 43.03404472687949], [-76.1492683526751, 43.0340395953779], [-76.1492213159885, 43.033893647806785], [-76.1490733023757, 43.03352665317019], [-76.1488433453411, 43.033050621263186]]}}, {"type": "Feature", "properties": {"name": "SOUTH SALINA STREET", "id": "477440749", "fcc": "A21", "role": "source"}, "geometry": {"type": "LineString", "coordinates": [[-76.1488433453411, 43.033050621263186], [-76.1482623266934, 43.03183061382149]]}}, {"type": "Feature", "properties": {"name": "SOUTH SALINA STREET", "id": "477441050", "fcc": "A21", "role": "source"}, "geometry": {"type": "LineString", "coordinates": [[-76.1482623266934, 43.03183061382149], [-76.147713345562, 43.030668634021595]]}}, {"type": "Feature", "properties": {"name": "SOUTH SALINA STREET", "id": "477441093", "fcc": "A21", "role": "source"}, "geometry": {"type": "LineString", "coordinates": [[-76.147713345562, 43.030668634021595], [-76.1476483506546, 43.0305335816114]]}}, {"type": "Feature", "properties": {"name": "SOUTH SALINA STREET", "id": "477441299", "fcc": "A21", "role": "source"}, "geometry": {"type": "LineString", "coordinates": [[-76.1476483506546, 43.0305335816114], [-76.1472232867268, 43.02963762211041]]}}, {"type": "Feature", "properties": {"name": "SOUTH SALINA STREET", "id": "477443978", "fcc": "A21", "role": "source"}, "geometry": {"type": "LineString", "coordinates": [[-76.1411133270499, 43.01528560057459], [-76.1411373497972, 43.01502556849909], [-76.1411973267155, 43.0146925977804], [-76.1412383437913, 43.0145816080155], [-76.1413642929841, 43.0143256026297]]}}, {"type": "Feature", "properties": {"name": "SOUTH SALINA STREET", "id": "509994533", "fcc": "A21", "role": "source"}, "geometry": {"type": "LineString", "coordinates": [[-76.141184258923, 43.016299570189595], [-76.1411732356962, 43.0162145832694]]}}, {"type": "Feature", "properties": {"name": "SOUTH SALINA STREET", "id": "477443848", "fcc": "A21", "role": "source"}, "geometry": {"type": "LineString", "coordinates": [[-76.1411732356962, 43.0162145832694], [-76.1411153240048, 43.0155856253032], [-76.1411133270499, 43.01528560057459]]}}, {"type": "Feature", "properties": {"name": "SOUTH SALINA STREET", "id": "509994532", "fcc": "A21", "role": "source"}, "geometry": {"type": "LineString", "coordinates": [[-76.1412242384447, 43.01660957148499], [-76.141184258923, 43.016299570189595]]}}, {"type": "Feature", "properties": {"name": "SOUTH SALINA STREET", "id": "509994537", "fcc": "A21", "role": "source"}, "geometry": {"type": "LineString", "coordinates": [[-76.1412392825308, 43.01669965074509], [-76.1412242384447, 43.01660957148499]]}}, {"type": "Feature", "properties": {"name": "SOUTH SALINA STREET", "id": "509994539", "fcc": "A21", "role": "source"}, "geometry": {"type": "LineString", "coordinates": [[-76.1413992554149, 43.0172135880739], [-76.14127530048212, 43.01686858471539], [-76.1412503479785, 43.0167736512441], [-76.1412392825308, 43.01669965074509]]}}, {"type": "Feature", "properties": {"name": "SOUTH SALINA STREET", "id": "477443374", "fcc": "A21", "role": "source"}, "geometry": {"type": "LineString", "coordinates": [[-76.1424913130513, 43.01965464511409], [-76.1420953482505, 43.01883059389309]]}}, {"type": "Feature", "properties": {"name": "SOUTH SALINA STREET", "id": "477443240", "fcc": "A21", "role": "source"}, "geometry": {"type": "LineString", "coordinates": [[-76.1429822764901, 43.02068359892489], [-76.1424913130513, 43.01965464511409]]}}, {"type": "Feature", "properties": {"name": "SOUTH SALINA STREET", "id": "477443087", "fcc": "A21", "role": "source"}, "geometry": {"type": "LineString", "coordinates": [[-76.1433223310459, 43.0214166250721], [-76.1429822764901, 43.02068359892489]]}}, {"type": "Feature", "properties": {"name": "SOUTH SALINA STREET", "id": "477443464", "fcc": "A21", "role": "source"}, "geometry": {"type": "LineString", "coordinates": [[-76.1420953482505, 43.01883059389309], [-76.14190123579232, 43.018428569333196], [-76.1417352783318, 43.01805561969259]]}}, {"type": "Feature", "properties": {"name": "SOUTH SALINA STREET", "id": "477443567", "fcc": "A21", "role": "source"}, "geometry": {"type": "LineString", "coordinates": [[-76.1417352783318, 43.01805561969259], [-76.1414582540678, 43.0173776103909]]}}, {"type": "Feature", "properties": {"name": "SOUTH SALINA STREET", "id": "477443597", "fcc": "A21", "role": "source"}, "geometry": {"type": "LineString", "coordinates": [[-76.1414582540678, 43.0173776103909], [-76.1413992554149, 43.0172135880739]]}}, {"type": "Feature", "properties": {"name": "SOUTH SALINA STREET", "id": "477442795", "fcc": "A21", "role": "source"}, "geometry": {"type": "LineString", "coordinates": [[-76.1441633436964, 43.02316562197309], [-76.143824242253, 43.02245861269089]]}}, {"type": "Feature", "properties": {"name": "SOUTH SALINA STREET", "id": "477442832", "fcc": "A21", "role": "source"}, "geometry": {"type": "LineString", "coordinates": [[-76.143824242253, 43.02245861269089], [-76.1437432941645, 43.02228958902039]]}}, {"type": "Feature", "properties": {"name": "SOUTH SALINA STREET", "id": "477442962", "fcc": "A21", "role": "source"}, "geometry": {"type": "LineString", "coordinates": [[-76.1437432941645, 43.02228958902039], [-76.1433223310459, 43.0214166250721]]}}, {"type": "Feature", "properties": {"name": "SOUTH SALINA STREET", "id": "477442649", "fcc": "A21", "role": "source"}, "geometry": {"type": "LineString", "coordinates": [[-76.1445473186831, 43.0239886148132], [-76.1441633436964, 43.02316562197309]]}}, {"type": "Feature", "properties": {"name": "SOUTH SALINA STREET", "id": "477442517", "fcc": "A21", "role": "source"}, "geometry": {"type": "LineString", "coordinates": [[-76.144966473493, 43.0248621411193], [-76.1445473186831, 43.0239886148132]]}}, {"type": "Feature", "properties": {"name": "SOUTH SALINA STREET", "id": "477442363", "fcc": "A21", "role": "source"}, "geometry": {"type": "LineString", "coordinates": [[-76.1452833371415, 43.0255526109912], [-76.144966473493, 43.0248621411193]]}}, {"type": "Feature", "properties": {"name": "SOUTH SALINA STREET", "id": "477442118", "fcc": "A21", "role": "source"}, "geometry": {"type": "LineString", "coordinates": [[-76.14598334034352, 43.0270325856747], [-76.1455680258314, 43.02613222635739]]}}, {"type": "Feature", "properties": {"name": "SOUTH SALINA STREET", "id": "477442227", "fcc": "A21", "role": "source"}, "geometry": {"type": "LineString", "coordinates": [[-76.1455680258314, 43.02613222635739], [-76.1452833371415, 43.0255526109912]]}}, {"type": "Feature", "properties": {"name": "SOUTH SALINA STREET", "id": "477441916", "fcc": "A21", "role": "source"}, "geometry": {"type": "LineString", "coordinates": [[-76.1463962464722, 43.02789058134099], [-76.14598334034352, 43.0270325856747]]}}, {"type": "Feature", "properties": {"name": "SOUTH SALINA STREET", "id": "477441709", "fcc": "A21", "role": "source"}, "geometry": {"type": "LineString", "coordinates": [[-76.1464482688086, 43.0280016311052], [-76.1463962464722, 43.02789058134099]]}}, {"type": "Feature", "properties": {"name": "SOUTH SALINA STREET", "id": "477441681", "fcc": "A21", "role": "source"}, "geometry": {"type": "LineString", "coordinates": [[-76.1468033476877, 43.02875259570849], [-76.1464482688086, 43.0280016311052]]}}, {"type": "Feature", "properties": {"name": "SOUTH SALINA STREET", "id": "477441509", "fcc": "A21", "role": "source"}, "geometry": {"type": "LineString", "coordinates": [[-76.1472232867268, 43.02963762211041], [-76.1468033476877, 43.02875259570849]]}}, {"type": "Feature", "properties": {"name": "SOUTH SALINA STREET", "id": "477443997", "fcc": "A21", "role": "source"}, "geometry": {"type": "LineString", "coordinates": [[-76.1413642929841, 43.0143256026297], [-76.1414203289931, 43.01421059040549]]}}, {"type": "Feature", "properties": {"name": "SOUTH SALINA STREET", "id": "477444124", "fcc": "A21", "role": "source"}, "geometry": {"type": "LineString", "coordinates": [[-76.1414203289931, 43.01421059040549], [-76.141672308227, 43.0136965964153], [-76.1417323354509, 43.013399645021494], [-76.1417362521056, 43.01337259096969]]}}, {"type": "Feature", "properties": {"name": "SOUTH SALINA STREET", "id": "477444224", "fcc": "A21", "role": "source"}, "geometry": {"type": "LineString", "coordinates": [[-76.1417362521056, 43.01337259096969], [-76.1418453066827, 43.0127216158404]]}}, {"type": "Feature", "properties": {"name": "SOUTH SALINA STREET", "id": "477444265", "fcc": "A21", "role": "source"}, "geometry": {"type": "LineString", "coordinates": [[-76.1418453066827, 43.0127216158404], [-76.1418862303338, 43.01246663790119]]}}, {"type": "Feature", "properties": {"name": "SOUTH SALINA STREET", "id": "477444359", "fcc": "A21", "role": "source"}, "geometry": {"type": "LineString", "coordinates": [[-76.1418862303338, 43.01246663790119], [-76.1419772880626, 43.011877616041396]]}}, {"type": "Feature", "properties": {"name": "SOUTH SALINA STREET", "id": "509998054", "fcc": "A21", "role": "source"}, "geometry": {"type": "LineString", "coordinates": [[-76.1421563357734, 43.01073958512819], [-76.14220634678192, 43.010511620783696], [-76.1422273466983, 43.01035364440249], [-76.1423622934169, 43.0097495964685]]}}, {"type": "Feature", "properties": {"name": "SOUTH SALINA STREET", "id": "477444468", "fcc": "A21", "role": "source"}, "geometry": {"type": "LineString", "coordinates": [[-76.1420192429796, 43.0115856171336], [-76.1421193476416, 43.010948598612195], [-76.1421563357734, 43.01073958512819]]}}, {"type": "Feature", "properties": {"name": "SOUTH SALINA STREET", "id": "477444388", "fcc": "A21", "role": "source"}, "geometry": {"type": "LineString", "coordinates": [[-76.1419772880626, 43.011877616041396], [-76.1420192429796, 43.0115856171336]]}}, {"type": "Feature", "properties": {"name": "SOUTH SALINA STREET", "id": "800034262", "fcc": "A21", "role": "source"}, "geometry": {"type": "LineString", "coordinates": [[-76.1429175295176, 43.0075082402079], [-76.1429433084714, 43.0074076408961], [-76.1429962695473, 43.00717361339201]]}}, {"type": "Feature", "properties": {"name": "SOUTH SALINA STREET", "id": "477445041", "fcc": "A21", "role": "source"}, "geometry": {"type": "LineString", "coordinates": [[-76.1427882664399, 43.008012611158485], [-76.1429175295176, 43.0075082402079]]}}, {"type": "Feature", "properties": {"name": "SOUTH SALINA STREET", "id": "477444880", "fcc": "A21", "role": "source"}, "geometry": {"type": "LineString", "coordinates": [[-76.1425752992422, 43.0088356290866], [-76.1427882664399, 43.008012611158485]]}}, {"type": "Feature", "properties": {"name": "SOUTH SALINA STREET", "id": "800034248", "fcc": "A21", "role": "source"}, "geometry": {"type": "LineString", "coordinates": [[-76.1424898200513, 43.00918887290881], [-76.1425752992422, 43.0088356290866]]}}, {"type": "Feature", "properties": {"name": "SOUTH SALINA STREET", "id": "477444786", "fcc": "A21", "role": "source"}, "geometry": {"type": "LineString", "coordinates": [[-76.1423622934169, 43.0097495964685], [-76.1424632640549, 43.0092986111972], [-76.1424898200513, 43.00918887290881]]}}, {"type": "Feature", "properties": {"name": "SOUTH SALINA STREET", "id": "477445073", "fcc": "A21", "role": "source"}, "geometry": {"type": "LineString", "coordinates": [[-76.1429962695473, 43.00717361339201], [-76.1430373234541, 43.006985629911895]]}}, {"type": "Feature", "properties": {"name": "SOUTH SALINA STREET", "role": "end_to_end"}, "geometry": {"type": "MultiLineString", "coordinates": [[[-76.1435440361564, 42.984949233315895], [-76.14354178868267, 42.984940623688985]], [[-76.1436492297745, 42.9853695707768], [-76.1435440361564, 42.984949233315895]], [[-76.1437822460135, 42.9860606345069], [-76.1437222951464, 42.985711570505394], [-76.1436492297745, 42.9853695707768]], [[-76.143799260105, 42.9861645623285], [-76.1437822460135, 42.9860606345069]], [[-76.1439482636612, 42.98708257185059], [-76.143799260105, 42.9861645623285]], [[-76.14411529999842, 42.98813259430959], [-76.1439482636612, 42.98708257185059]], [[-76.144242231948, 42.98891160679731], [-76.14411529999842, 42.98813259430959]], [[-76.144157704073, 42.99052436122359], [-76.1443092381833, 42.9894026086273], [-76.1442992489174, 42.98924764268259], [-76.144242231948, 42.98891160679731]], [[-76.1441492922487, 42.9905866517748], [-76.144157704073, 42.99052436122359]], [[-76.1440333251354, 42.99143058665219], [-76.1441492922487, 42.9905866517748]], [[-76.1438942740143, 42.99233958797289], [-76.143998292636, 42.99168460716021], [-76.1440333251354, 42.99143058665219]], [[-76.1438402879606, 42.99280856657819], [-76.1438942740143, 42.99233958797289]], [[-76.1437572306278, 42.993363652948894], [-76.1438402879606, 42.99280856657819]], [[-76.1437363358143, 42.99351361423669], [-76.1437572306278, 42.993363652948894]], [[-76.1436213442714, 42.9942916228887], [-76.1437363358143, 42.99351361423669]], [[-76.1435933285126, 42.99448758034609], [-76.1436213442714, 42.9942916228887]], [[-76.1435013275528, 42.9951626123401], [-76.1435933285126, 42.99448758034609]], [[-76.1433812937662, 42.996019644012684], [-76.1435013275528, 42.9951626123401]], [[-76.1433052962932, 42.99659861240719], [-76.1433812937662, 42.996019644012684]], [[-76.1431892447383, 42.997465599486496], [-76.1433052962932, 42.99659861240719]], [[-76.1430398935341, 42.99852443629479], [-76.1430442683295, 42.99849964694789], [-76.1431892447383, 42.997465599486496]], [[-76.14299039905691, 42.998805462338595], [-76.1430398935341, 42.99852443629479]], [[-76.1429729277229, 42.998904628370795], [-76.14299039905691, 42.998805462338595]], [[-76.1427103501654, 43.0006985717962], [-76.14272424800112, 43.00048861745709], [-76.1429642284377, 42.9989535760104], [-76.1429729277229, 42.998904628370795]], [[-76.142786335062, 43.001746621329495], [-76.1427103501654, 43.0006985717962]], [[-76.1428133150632, 43.002083587593006], [-76.142786335062, 43.001746621329495]], [[-76.1428423153755, 43.002509593061596], [-76.1428133150632, 43.002083587593006]], [[-76.142876233964, 43.003015602766695], [-76.1428423153755, 43.002509593061596]], [[-76.1429693048173, 43.003846641937294], [-76.142876233964, 43.003015602766695]], [[-76.1430172613788, 43.004229593736596], [-76.1429693048173, 43.003846641937294]], [[-76.1431673339302, 43.0054016211055], [-76.1430172613788, 43.004229593736596]], [[-76.1431891854495, 43.00561198368649], [-76.143177263009, 43.005513633216], [-76.1431673339302, 43.0054016211055]], [[-76.1430373234541, 43.006985629911895], [-76.143123344329, 43.0064435730481], [-76.1431763287611, 43.005767582371696], [-76.1431891854495, 43.00561198368649]], [[-76.1429962695473, 43.00717361339201], [-76.1430373234541, 43.006985629911895]], [[-76.1429175295176, 43.0075082402079], [-76.1429433084714, 43.0074076408961], [-76.1429962695473, 43.00717361339201]], [[-76.1427882664399, 43.008012611158485], [-76.1429175295176, 43.0075082402079]], [[-76.1425752992422, 43.0088356290866], [-76.1427882664399, 43.008012611158485]], [[-76.1424898200513, 43.00918887290881], [-76.1425752992422, 43.0088356290866]], [[-76.1423622934169, 43.0097495964685], [-76.1424632640549, 43.0092986111972], [-76.1424898200513, 43.00918887290881]], [[-76.1421563357734, 43.01073958512819], [-76.14220634678192, 43.010511620783696], [-76.1422273466983, 43.01035364440249], [-76.1423622934169, 43.0097495964685]], [[-76.1420192429796, 43.0115856171336], [-76.1421193476416, 43.010948598612195], [-76.1421563357734, 43.01073958512819]], [[-76.1419772880626, 43.011877616041396], [-76.1420192429796, 43.0115856171336]], [[-76.1418862303338, 43.01246663790119], [-76.1419772880626, 43.011877616041396]], [[-76.1418453066827, 43.0127216158404], [-76.1418862303338, 43.01246663790119]], [[-76.1417362521056, 43.01337259096969], [-76.1418453066827, 43.0127216158404]], [[-76.1414203289931, 43.01421059040549], [-76.141672308227, 43.0136965964153], [-76.1417323354509, 43.013399645021494], [-76.1417362521056, 43.01337259096969]], [[-76.1413642929841, 43.0143256026297], [-76.1414203289931, 43.01421059040549]], [[-76.1411133270499, 43.01528560057459], [-76.1411373497972, 43.01502556849909], [-76.1411973267155, 43.0146925977804], [-76.1412383437913, 43.0145816080155], [-76.1413642929841, 43.0143256026297]], [[-76.1411732356962, 43.0162145832694], [-76.1411153240048, 43.0155856253032], [-76.1411133270499, 43.01528560057459]], [[-76.141184258923, 43.016299570189595], [-76.1411732356962, 43.0162145832694]], [[-76.1412242384447, 43.01660957148499], [-76.141184258923, 43.016299570189595]], [[-76.1412392825308, 43.01669965074509], [-76.1412242384447, 43.01660957148499]], [[-76.1413992554149, 43.0172135880739], [-76.14127530048212, 43.01686858471539], [-76.1412503479785, 43.0167736512441], [-76.1412392825308, 43.01669965074509]], [[-76.1414582540678, 43.0173776103909], [-76.1413992554149, 43.0172135880739]], [[-76.1417352783318, 43.01805561969259], [-76.1414582540678, 43.0173776103909]], [[-76.1420953482505, 43.01883059389309], [-76.14190123579232, 43.018428569333196], [-76.1417352783318, 43.01805561969259]], [[-76.1424913130513, 43.01965464511409], [-76.1420953482505, 43.01883059389309]], [[-76.1429822764901, 43.02068359892489], [-76.1424913130513, 43.01965464511409]], [[-76.1433223310459, 43.0214166250721], [-76.1429822764901, 43.02068359892489]], [[-76.1437432941645, 43.02228958902039], [-76.1433223310459, 43.0214166250721]], [[-76.143824242253, 43.02245861269089], [-76.1437432941645, 43.02228958902039]], [[-76.1441633436964, 43.02316562197309], [-76.143824242253, 43.02245861269089]], [[-76.1445473186831, 43.0239886148132], [-76.1441633436964, 43.02316562197309]], [[-76.144966473493, 43.0248621411193], [-76.1445473186831, 43.0239886148132]], [[-76.1452833371415, 43.0255526109912], [-76.144966473493, 43.0248621411193]], [[-76.1455680258314, 43.02613222635739], [-76.1452833371415, 43.0255526109912]], [[-76.14598334034352, 43.0270325856747], [-76.1455680258314, 43.02613222635739]], [[-76.1463962464722, 43.02789058134099], [-76.14598334034352, 43.0270325856747]], [[-76.1464482688086, 43.0280016311052], [-76.1463962464722, 43.02789058134099]], [[-76.1468033476877, 43.02875259570849], [-76.1464482688086, 43.0280016311052]], [[-76.1472232867268, 43.02963762211041], [-76.1468033476877, 43.02875259570849]], [[-76.1476483506546, 43.0305335816114], [-76.1472232867268, 43.02963762211041]], [[-76.147713345562, 43.030668634021595], [-76.1476483506546, 43.0305335816114]], [[-76.1482623266934, 43.03183061382149], [-76.147713345562, 43.030668634021595]], [[-76.1488433453411, 43.033050621263186], [-76.1482623266934, 43.03183061382149]], [[-76.1492693695679, 43.03404472687949], [-76.1492683526751, 43.0340395953779], [-76.1492213159885, 43.033893647806785], [-76.1490733023757, 43.03352665317019], [-76.1488433453411, 43.033050621263186]], [[-76.1494583095267, 43.035410576179494], [-76.1493092682413, 43.0342455773899], [-76.1492693695679, 43.03404472687949]], [[-76.149578276838, 43.036339578072095], [-76.1494583095267, 43.035410576179494]], [[-76.1498182375116, 43.037902579993506], [-76.1497082441949, 43.03737662830029], [-76.149578276838, 43.036339578072095]], [[-76.149887249685, 43.03812061563879], [-76.1498182375116, 43.037902579993506]], [[-76.1502202542625, 43.03916958200858], [-76.149887249685, 43.03812061563879]], [[-76.1502863253517, 43.03937459018591], [-76.1502202542625, 43.03916958200858]], [[-76.15030823885472, 43.03944361745499], [-76.1502863253517, 43.03937459018591]], [[-76.1505763284748, 43.04033564941939], [-76.15030823885472, 43.03944361745499]], [[-76.150711330889, 43.0407276257951], [-76.1505763284748, 43.04033564941939]], [[-76.1510242491367, 43.0415346497997], [-76.150711330889, 43.0407276257951]], [[-76.1515423201375, 43.042774634854794], [-76.1510242491367, 43.0415346497997]], [[-76.1522598854033, 43.0443329941324], [-76.152094678036, 43.044031705606294], [-76.151838244955, 43.0434596306986], [-76.1515423201375, 43.042774634854794]], [[-76.152233270118, 43.0470446437613], [-76.152248239644, 43.04648664056288], [-76.1522762212667, 43.04458061681749], [-76.1522598854033, 43.0443329941324]], [[-76.1522183221517, 43.04869259930819], [-76.152233270118, 43.0470446437613]], [[-76.15220528669872, 43.049596641226], [-76.1522183221517, 43.04869259930819]], [[-76.1521865990458, 43.0504584347279], [-76.1522022908172, 43.04983665144079], [-76.15220528669872, 43.049596641226]], [[-76.15218424276482, 43.0505516408576], [-76.1521865990458, 43.0504584347279]], [[-76.1521773526866, 43.050911635780395], [-76.15218424276482, 43.0505516408576]]]}}, {"type": "Feature", "properties": {"name": "SOUTH SALINA STREET", "role": "endpoint", "end": 0}, "geometry": {"type": "Point", "coordinates": [-76.14354178868267, 42.984940623688985]}}, {"type": "Feature", "properties": {"name": "SOUTH SALINA STREET", "role": "endpoint", "end": 1}, "geometry": {"type": "Point", "coordinates": [-76.1521773526866, 43.050911635780395]}}, {"type": "Feature", "properties": {"name": "ONONDAGA CREEK BOULEVARD EAST", "id": "477444490", "fcc": "A41", "role": "source"}, "geometry": {"type": "LineString", "coordinates": [[-76.1533403421961, 43.01268964036619], [-76.1529852552323, 43.012468635390796], [-76.1501292701956, 43.01088864022599], [-76.1500282699132, 43.010815635019796], [-76.1499243006989, 43.010721587507206], [-76.1498932890587, 43.01070361878319], [-76.1497032630367, 43.010666626382815]]}}, {"type": "Feature", "properties": {"name": "ONONDAGA CREEK BOULEVARD EAST", "id": "477444231", "fcc": "A41", "role": "source"}, "geometry": {"type": "LineString", "coordinates": [[-76.1540982930222, 43.0131925795426], [-76.1533403421961, 43.01268964036619]]}}, {"type": "Feature", "properties": {"name": "ONONDAGA CREEK BOULEVARD EAST", "id": "477444151", "fcc": "A41", "role": "source"}, "geometry": {"type": "LineString", "coordinates": [[-76.1551662623342, 43.01395262675569], [-76.1548883092122, 43.01374264546139], [-76.1546812969466, 43.0135856173303], [-76.1540982930222, 43.0131925795426]]}}, {"type": "Feature", "properties": {"name": "ONONDAGA CREEK BOULEVARD EAST", "id": "477444013", "fcc": "A41", "role": "source"}, "geometry": {"type": "LineString", "coordinates": [[-76.1563923405261, 43.01496257495828], [-76.1563833492884, 43.0149216034403], [-76.1562513247895, 43.01479164555568], [-76.15540434912221, 43.01413059254109], [-76.1551662623342, 43.01395262675569]]}}, {"type": "Feature", "properties": {"name": "ONONDAGA CREEK BOULEVARD EAST", "role": "end_to_end"}, "geometry": {"type": "MultiLineString", "coordinates": [[[-76.1533403421961, 43.01268964036619], [-76.1529852552323, 43.012468635390796], [-76.1501292701956, 43.01088864022599], [-76.1500282699132, 43.010815635019796], [-76.1499243006989, 43.010721587507206], [-76.1498932890587, 43.01070361878319], [-76.1497032630367, 43.010666626382815]], [[-76.1540982930222, 43.0131925795426], [-76.1533403421961, 43.01268964036619]], [[-76.1551662623342, 43.01395262675569], [-76.1548883092122, 43.01374264546139], [-76.1546812969466, 43.0135856173303], [-76.1540982930222, 43.0131925795426]], [[-76.1563923405261, 43.01496257495828], [-76.1563833492884, 43.0149216034403], [-76.1562513247895, 43.01479164555568], [-76.15540434912221, 43.01413059254109], [-76.1551662623342, 43.01395262675569]]]}}, {"type": "Feature", "properties": {"name": "ONONDAGA CREEK BOULEVARD EAST", "role": "endpoint", "end": 0}, "geometry": {"type": "Point", "coordinates": [-76.1497032630367, 43.010666626382815]}}, {"type": "Feature", "properties": {"name": "ONONDAGA CREEK BOULEVARD EAST", "role": "endpoint", "end": 1}, "geometry": {"type": "Point", "coordinates": [-76.1563923405261, 43.01496257495828]}}, {"type": "Feature", "properties": {"name": "GENANT TO NORTH CLINTON CONNECTOR", "id": "477430853", "fcc": "A41", "role": "source"}, "geometry": {"type": "LineString", "coordinates": [[-76.1610553190962, 43.064656626223496], [-76.1615302835398, 43.0642686486663], [-76.1617582445178, 43.064074620901486]]}}, {"type": "Feature", "properties": {"name": "GENANT TO NORTH CLINTON CONNECTOR", "role": "end_to_end"}, "geometry": {"type": "LineString", "coordinates": [[-76.1610553190962, 43.064656626223496], [-76.1615302835398, 43.0642686486663], [-76.1617582445178, 43.064074620901486]]}}, {"type": "Feature", "properties": {"name": "GENANT TO NORTH CLINTON CONNECTOR", "role": "endpoint", "end": 0}, "geometry": {"type": "Point", "coordinates": [-76.1610553190962, 43.064656626223496]}}, {"type": "Feature", "properties": {"name": "GENANT TO NORTH CLINTON CONNECTOR", "role": "endpoint", "end": 1}, "geometry": {"type": "Point", "coordinates": [-76.1617582445178, 43.064074620901486]}}, {"type": "Feature", "properties": {"name": "ERIE BOULEVARD EAST", "id": "477433571", "fcc": "A25", "role": "source"}, "geometry": {"type": "LineString", "coordinates": [[-76.0831578391652, 43.05549772479979], [-76.082902177737, 43.05549909994199], [-76.081349076849, 43.05553525468459], [-76.080673479975, 43.055526302152394], [-76.0803321022007, 43.055497323744], [-76.0800010775101, 43.0554621148412], [-76.0796446466666, 43.055408738263594], [-76.0787841908801, 43.05525100146849]]}}, {"type": "Feature", "properties": {"name": "ERIE BOULEVARD EAST", "id": "800048346", "fcc": "A25", "role": "source"}, "geometry": {"type": "LineString", "coordinates": [[-76.0831787806911, 43.05565217703699], [-76.0829246005848, 43.0556519262958], [-76.0825591524525, 43.05566200255049], [-76.0812682922538, 43.05569683653959], [-76.0809531668454, 43.055698625203306], [-76.080680067321, 43.0556881026091], [-76.0804100957303, 43.05567039975639], [-76.0800423299446, 43.05563455622289], [-76.0795258777079, 43.055550083236184], [-76.0787237171935, 43.0554039163972]]}}, {"type": "Feature", "properties": {"name": "ERIE BOULEVARD EAST", "id": "477433098", "fcc": "A25", "role": "source"}, "geometry": {"type": "LineString", "coordinates": [[-76.083798241843, 43.0556265909174], [-76.0831787806911, 43.05565217703699]]}}, {"type": "Feature", "properties": {"name": "ERIE BOULEVARD EAST", "id": "477433119", "fcc": "A25", "role": "source"}, "geometry": {"type": "LineString", "coordinates": [[-76.0862369854814, 43.05556536732001], [-76.083798241843, 43.0556265909174]]}}, {"type": "Feature", "properties": {"name": "ERIE BOULEVARD EAST", "id": "509997124", "fcc": "A25", "role": "source"}, "geometry": {"type": "LineString", "coordinates": [[-76.0864332368283, 43.05531560843671], [-76.0852949033783, 43.0553862567845], [-76.0846302605609, 43.05542876744939], [-76.0831578391652, 43.05549772479979]]}}, {"type": "Feature", "properties": {"name": "ERIE BOULEVARD EAST", "id": "477434996", "fcc": "A25", "role": "source"}, "geometry": {"type": "LineString", "coordinates": [[-76.1160713431157, 43.0507355844648], [-76.1158202370444, 43.05080962205079]]}}, {"type": "Feature", "properties": {"name": "ERIE BOULEVARD EAST", "id": "477434943", "fcc": "A25", "role": "source"}, "geometry": {"type": "LineString", "coordinates": [[-76.1158202370444, 43.05080962205079], [-76.115025273832, 43.051037631075296]]}}, {"type": "Feature", "properties": {"name": "ERIE BOULEVARD EAST", "id": "477434314", "fcc": "A25", "role": "source"}, "geometry": {"type": "LineString", "coordinates": [[-76.1120124177939, 43.052338484853585], [-76.1104682362784, 43.052899582352595], [-76.1100812555287, 43.05301157542821], [-76.1097442875841, 43.05309165587889], [-76.1087255225935, 43.05323451529411]]}}, {"type": "Feature", "properties": {"name": "ERIE BOULEVARD EAST", "id": "477434431", "fcc": "A25", "role": "source"}, "geometry": {"type": "LineString", "coordinates": [[-76.1134413346786, 43.0518255840258], [-76.1130203014915, 43.05196862559559], [-76.1127412596114, 43.05207363465289]]}}, {"type": "Feature", "properties": {"name": "ERIE BOULEVARD EAST", "id": "800052293", "fcc": "A25", "role": "source"}, "geometry": {"type": "LineString", "coordinates": [[-76.1127412596114, 43.05207363465289], [-76.1120124177939, 43.052338484853585]]}}, {"type": "Feature", "properties": {"name": "ERIE BOULEVARD EAST", "id": "477434419", "fcc": "A25", "role": "source"}, "geometry": {"type": "LineString", "coordinates": [[-76.1125592806978, 43.051835603799695], [-76.1113222376695, 43.052341633074], [-76.1105242606094, 43.052649602556905], [-76.1100862259071, 43.0527765894166], [-76.1096933207682, 43.0528596437601], [-76.109204333623, 43.05293264163859], [-76.1086583097456, 43.0529886309511]]}}, {"type": "Feature", "properties": {"name": "ERIE BOULEVARD EAST", "id": "477434678", "fcc": "A25", "role": "source"}, "geometry": {"type": "LineString", "coordinates": [[-76.1150982817118, 43.051346597669585], [-76.1138093160601, 43.051702598126106], [-76.1134413346786, 43.0518255840258]]}}, {"type": "Feature", "properties": {"name": "ERIE BOULEVARD EAST", "id": "477434833", "fcc": "A25", "role": "source"}, "geometry": {"type": "LineString", "coordinates": [[-76.115025273832, 43.051037631075296], [-76.1132662844708, 43.0515566000107], [-76.1125592806978, 43.051835603799695]]}}, {"type": "Feature", "properties": {"name": "ERIE BOULEVARD EAST", "id": "477434835", "fcc": "A25", "role": "source"}, "geometry": {"type": "LineString", "coordinates": [[-76.1162242507501, 43.05103557707388], [-76.1150982817118, 43.051346597669585]]}}, {"type": "Feature", "properties": {"name": "ERIE BOULEVARD EAST", "id": "800074809", "fcc": "A25", "role": "source"}, "geometry": {"type": "LineString", "coordinates": [[-76.1087255225935, 43.05323451529411], [-76.1067062850063, 43.0534996433959], [-76.1057582264116, 43.05362362081339], [-76.1040512674716, 43.0538206512531]]}}, {"type": "Feature", "properties": {"name": "ERIE BOULEVARD EAST", "id": "477433977", "fcc": "A25", "role": "source"}, "geometry": {"type": "LineString", "coordinates": [[-76.1086583097456, 43.0529886309511], [-76.1066763082252, 43.05322564447819], [-76.1063953223909, 43.05325762772179]]}}, {"type": "Feature", "properties": {"name": "ERIE BOULEVARD EAST", "id": "477433881", "fcc": "A25", "role": "source"}, "geometry": {"type": "LineString", "coordinates": [[-76.1063953223909, 43.05325762772179], [-76.104086336802, 43.053523601184395]]}}, {"type": "Feature", "properties": {"name": "ERIE BOULEVARD EAST", "id": "477433664", "fcc": "A25", "role": "source"}, "geometry": {"type": "LineString", "coordinates": [[-76.1010243312397, 43.0538835839142], [-76.0996003074783, 43.0540486490836], [-76.0992513254651, 43.05408964240519]]}}, {"type": "Feature", "properties": {"name": "ERIE BOULEVARD EAST", "id": "477433566", "fcc": "A25", "role": "source"}, "geometry": {"type": "LineString", "coordinates": [[-76.1010722348006, 43.0541726299861], [-76.0996152608345, 43.0543426049424], [-76.0972182538225, 43.05462063245939]]}}, {"type": "Feature", "properties": {"name": "ERIE BOULEVARD EAST", "id": "477433621", "fcc": "A25", "role": "source"}, "geometry": {"type": "LineString", "coordinates": [[-76.1023293192429, 43.054024643582494], [-76.1010722348006, 43.0541726299861]]}}, {"type": "Feature", "properties": {"name": "ERIE BOULEVARD EAST", "id": "800074810", "fcc": "A25", "role": "source"}, "geometry": {"type": "LineString", "coordinates": [[-76.1040512674716, 43.0538206512531], [-76.1028612692148, 43.0539635975853], [-76.1023293192429, 43.054024643582494]]}}, {"type": "Feature", "properties": {"name": "ERIE BOULEVARD EAST", "id": "477433759", "fcc": "A25", "role": "source"}, "geometry": {"type": "LineString", "coordinates": [[-76.104086336802, 43.053523601184395], [-76.1010243312397, 43.0538835839142]]}}, {"type": "Feature", "properties": {"name": "ERIE BOULEVARD EAST", "id": "477433595", "fcc": "A25", "role": "source"}, "geometry": {"type": "LineString", "coordinates": [[-76.0992513254651, 43.05408964240519], [-76.097168245509, 43.05432962387891]]}}, {"type": "Feature", "properties": {"name": "ERIE BOULEVARD EAST", "id": "477433394", "fcc": "A25", "role": "source"}, "geometry": {"type": "LineString", "coordinates": [[-76.0972182538225, 43.05462063245939], [-76.0957482965057, 43.05479365383929]]}}, {"type": "Feature", "properties": {"name": "ERIE BOULEVARD EAST", "id": "477433496", "fcc": "A25", "role": "source"}, "geometry": {"type": "LineString", "coordinates": [[-76.097168245509, 43.05432962387891], [-76.0942382276148, 43.0546725807373]]}}, {"type": "Feature", "properties": {"name": "ERIE BOULEVARD EAST", "id": "477433342", "fcc": "A25", "role": "source"}, "geometry": {"type": "LineString", "coordinates": [[-76.0957482965057, 43.05479365383929], [-76.0935352482942, 43.05505363364129], [-76.0926332867484, 43.055148606370196], [-76.0908823058679, 43.05528462726839]]}}, {"type": "Feature", "properties": {"name": "ERIE BOULEVARD EAST", "id": "477433333", "fcc": "A25", "role": "source"}, "geometry": {"type": "LineString", "coordinates": [[-76.0929462202675, 43.0548196413667], [-76.0922612683381, 43.0548885849613], [-76.0908542380069, 43.05499664848941]]}}, {"type": "Feature", "properties": {"name": "ERIE BOULEVARD EAST", "id": "477433383", "fcc": "A25", "role": "source"}, "geometry": {"type": "LineString", "coordinates": [[-76.0942382276148, 43.0546725807373], [-76.0929462202675, 43.0548196413667]]}}, {"type": "Feature", "properties": {"name": "ERIE BOULEVARD EAST", "id": "477433192", "fcc": "A25", "role": "source"}, "geometry": {"type": "LineString", "coordinates": [[-76.0908823058679, 43.05528462726839], [-76.08850227701481, 43.0554716312242]]}}, {"type": "Feature", "properties": {"name": "ERIE BOULEVARD EAST", "id": "477433274", "fcc": "A25", "role": "source"}, "geometry": {"type": "LineString", "coordinates": [[-76.0908542380069, 43.05499664848941], [-76.0904802792356, 43.055021644113985], [-76.0895982737637, 43.05509965363391], [-76.0879012636656, 43.055225660016994]]}}, {"type": "Feature", "properties": {"name": "ERIE BOULEVARD EAST", "id": "477433221", "fcc": "A25", "role": "source"}, "geometry": {"type": "LineString", "coordinates": [[-76.0879012636656, 43.055225660016994], [-76.0865142819349, 43.0553086257124], [-76.0864332368283, 43.05531560843671]]}}, {"type": "Feature", "properties": {"name": "ERIE BOULEVARD EAST", "id": "477433134", "fcc": "A25", "role": "source"}, "geometry": {"type": "LineString", "coordinates": [[-76.08850227701481, 43.0554716312242], [-76.0878462912617, 43.0555196515866], [-76.0869108027928, 43.0555437234545]]}}, {"type": "Feature", "properties": {"name": "ERIE BOULEVARD EAST", "id": "800048345", "fcc": "A25", "role": "source"}, "geometry": {"type": "LineString", "coordinates": [[-76.0869108027928, 43.0555437234545], [-76.0862369854814, 43.05556536732001]]}}, {"type": "Feature", "properties": {"name": "ERIE BOULEVARD EAST", "id": "477434970", "fcc": "A21", "role": "source"}, "geometry": {"type": "LineString", "coordinates": [[-76.1401603340094, 43.05076464717871], [-76.1399152709049, 43.0507656475981]]}}, {"type": "Feature", "properties": {"name": "ERIE BOULEVARD EAST", "id": "477434985", "fcc": "A21", "role": "source"}, "geometry": {"type": "LineString", "coordinates": [[-76.1399152709049, 43.0507656475981], [-76.1385013900213, 43.0507425874031]]}}, {"type": "Feature", "properties": {"name": "ERIE BOULEVARD EAST", "id": "477435025", "fcc": "A21", "role": "source"}, "geometry": {"type": "LineString", "coordinates": [[-76.1342382578724, 43.0506796022856], [-76.1320232396556, 43.05064858726588]]}}, {"type": "Feature", "properties": {"name": "ERIE BOULEVARD EAST", "id": "477435015", "fcc": "A21", "role": "source"}, "geometry": {"type": "LineString", "coordinates": [[-76.1364613519437, 43.05071562661149], [-76.1342382578724, 43.0506796022856]]}}, {"type": "Feature", "properties": {"name": "ERIE BOULEVARD EAST", "id": "477435004", "fcc": "A21", "role": "source"}, "geometry": {"type": "LineString", "coordinates": [[-76.1385013900213, 43.0507425874031], [-76.1381082719817, 43.0507415817319], [-76.1364613519437, 43.05071562661149]]}}, {"type": "Feature", "properties": {"name": "ERIE BOULEVARD EAST", "id": "477435035", "fcc": "A21", "role": "source"}, "geometry": {"type": "LineString", "coordinates": [[-76.1320232396556, 43.05064858726588], [-76.13059928506442, 43.050621602800895]]}}, {"type": "Feature", "properties": {"name": "ERIE BOULEVARD EAST", "id": "477435037", "fcc": "A21", "role": "source"}, "geometry": {"type": "LineString", "coordinates": [[-76.13059928506442, 43.050621602800895], [-76.1297423371991, 43.05061358761099]]}}, {"type": "Feature", "properties": {"name": "ERIE BOULEVARD EAST", "id": "477435106", "fcc": "A21", "role": "source"}, "geometry": {"type": "LineString", "coordinates": [[-76.1297423371991, 43.05061358761099], [-76.1290842502866, 43.05058262244769], [-76.1286602966765, 43.050550605643195], [-76.1279932328993, 43.05047866049499], [-76.127623303072, 43.05041963216809]]}}, {"type": "Feature", "properties": {"name": "ERIE BOULEVARD EAST", "id": "800066593", "fcc": "A21", "role": "source"}, "geometry": {"type": "LineString", "coordinates": [[-76.127623303072, 43.05041963216809], [-76.1275095871369, 43.05039795235129]]}}, {"type": "Feature", "properties": {"name": "ERIE BOULEVARD EAST", "id": "477435210", "fcc": "A21", "role": "source"}, "geometry": {"type": "LineString", "coordinates": [[-76.1275095871369, 43.05039795235129], [-76.1270883006248, 43.0503176543813], [-76.1268192336377, 43.05026159239029], [-76.1265142636835, 43.05018265112268], [-76.1263639378073, 43.0501403849592]]}}, {"type": "Feature", "properties": {"name": "ERIE BOULEVARD EAST", "id": "477435285", "fcc": "A21", "role": "source"}, "geometry": {"type": "LineString", "coordinates": [[-76.1263639378073, 43.0501403849592], [-76.1258491348775, 43.049988586002506], [-76.1247160943012, 43.04961189594029], [-76.1245318902606, 43.0495579484056], [-76.124332109433, 43.04950559404379], [-76.1239583608675, 43.04942587127519], [-76.123453599306, 43.0493593556865]]}}, {"type": "Feature", "properties": {"name": "ERIE BOULEVARD EAST", "id": "477435320", "fcc": "A25", "role": "source"}, "geometry": {"type": "LineString", "coordinates": [[-76.1208093040626, 43.0497245816706], [-76.1201424621693, 43.04993976372]]}}, {"type": "Feature", "properties": {"name": "ERIE BOULEVARD EAST", "id": "477435367", "fcc": "A25", "role": "source"}, "geometry": {"type": "LineString", "coordinates": [[-76.1215922855457, 43.0495486090047], [-76.1210342386165, 43.04966357668859], [-76.1208093040626, 43.0497245816706]]}}, {"type": "Feature", "properties": {"name": "ERIE BOULEVARD EAST", "id": "800066576", "fcc": "A25", "role": "source"}, "geometry": {"type": "LineString", "coordinates": [[-76.1217062494159, 43.0495301934375], [-76.1215922855457, 43.0495486090047]]}}, {"type": "Feature", "properties": {"name": "ERIE BOULEVARD EAST", "id": "477435480", "fcc": "A25", "role": "source"}, "geometry": {"type": "LineString", "coordinates": [[-76.1215102936148, 43.0492806161034], [-76.1207772979873, 43.049389643346395], [-76.1201683336495, 43.049533650993], [-76.1199563258525, 43.0495965992129]]}}, {"type": "Feature", "properties": {"name": "ERIE BOULEVARD EAST", "id": "477435347", "fcc": "A25", "role": "source"}, "geometry": {"type": "LineString", "coordinates": [[-76.1199563258525, 43.0495965992129], [-76.1189386038059, 43.04990039365719]]}}, {"type": "Feature", "properties": {"name": "ERIE BOULEVARD EAST", "id": "477435281", "fcc": "A25", "role": "source"}, "geometry": {"type": "LineString", "coordinates": [[-76.1201424621693, 43.04993976372], [-76.1191160929397, 43.05023757555999]]}}, {"type": "Feature", "properties": {"name": "ERIE BOULEVARD EAST", "id": "477435191", "fcc": "A25", "role": "source"}, "geometry": {"type": "LineString", "coordinates": [[-76.1191160929397, 43.05023757555999], [-76.1187433055716, 43.0503375913578], [-76.1162242507501, 43.05103557707388]]}}, {"type": "Feature", "properties": {"name": "ERIE BOULEVARD EAST", "id": "477435288", "fcc": "A25", "role": "source"}, "geometry": {"type": "LineString", "coordinates": [[-76.1189386038059, 43.04990039365719], [-76.11840632505061, 43.05005065739369]]}}, {"type": "Feature", "properties": {"name": "ERIE BOULEVARD EAST", "id": "477435238", "fcc": "A25", "role": "source"}, "geometry": {"type": "LineString", "coordinates": [[-76.11840632505061, 43.05005065739369], [-76.1160713431157, 43.0507355844648]]}}, {"type": "Feature", "properties": {"name": "ERIE BOULEVARD EAST", "id": "477435494", "fcc": "A25", "role": "source"}, "geometry": {"type": "LineString", "coordinates": [[-76.1224123144494, 43.049256644184695], [-76.121842285791, 43.0492596225403], [-76.1216533081029, 43.04926561732591], [-76.1215102936148, 43.0492806161034]]}}, {"type": "Feature", "properties": {"name": "ERIE BOULEVARD EAST", "id": "477435491", "fcc": "A25", "role": "source"}, "geometry": {"type": "LineString", "coordinates": [[-76.123453599306, 43.0493593556865], [-76.1233077075139, 43.04929004548], [-76.1226312554437, 43.0492576479109], [-76.1224123144494, 43.049256644184695]]}}, {"type": "Feature", "properties": {"name": "ERIE BOULEVARD EAST", "id": "477435436", "fcc": "A25", "role": "source"}, "geometry": {"type": "LineString", "coordinates": [[-76.123453599306, 43.0493593556865], [-76.1231293362345, 43.04940962592009], [-76.12263043528192, 43.04941867256219], [-76.1222814838114, 43.04945164050759], [-76.1218601353156, 43.049505326209484], [-76.1217062494159, 43.0495301934375]]}}, {"type": "Feature", "properties": {"name": "ERIE BOULEVARD EAST", "id": "477434952", "fcc": "A25", "role": "source"}, "geometry": {"type": "LineString", "coordinates": [[-76.1421162834882, 43.05081565016349], [-76.1402483320763, 43.050795647698], [-76.1401603340094, 43.05076464717871]]}}, {"type": "Feature", "properties": {"name": "ERIE BOULEVARD EAST", "id": "477435000", "fcc": "A25", "role": "source"}, "geometry": {"type": "LineString", "coordinates": [[-76.142117271635, 43.0507365770073], [-76.140301318305, 43.0507196584883], [-76.1402312515095, 43.05072864126209], [-76.1401603340094, 43.05076464717871]]}}, {"type": "Feature", "properties": {"name": "ERIE BOULEVARD EAST", "id": "477434942", "fcc": "A25", "role": "source"}, "geometry": {"type": "LineString", "coordinates": [[-76.14247726340031, 43.050821591625], [-76.1421162834882, 43.05081565016349]]}}, {"type": "Feature", "properties": {"name": "ERIE BOULEVARD EAST", "id": "477741173", "fcc": "A25", "role": "source"}, "geometry": {"type": "LineString", "coordinates": [[-76.1425543424449, 43.050740588533], [-76.1430882399644, 43.05076164066911]]}}, {"type": "Feature", "properties": {"name": "ERIE BOULEVARD EAST", "id": "477434995", "fcc": "A25", "role": "source"}, "geometry": {"type": "LineString", "coordinates": [[-76.1425543424449, 43.050740588533], [-76.142117271635, 43.0507365770073]]}}, {"type": "Feature", "properties": {"name": "ERIE BOULEVARD EAST", "id": "481561063", "fcc": "A25", "role": "source"}, "geometry": {"type": "LineString", "coordinates": [[-76.143028351081, 43.0508426529235], [-76.14247726340031, 43.050821591625]]}}, {"type": "Feature", "properties": {"name": "ERIE BOULEVARD EAST", "id": "477741171", "fcc": "A25", "role": "source"}, "geometry": {"type": "LineString", "coordinates": [[-76.1438552664697, 43.050760639593186], [-76.1430882399644, 43.05076164066911]]}}, {"type": "Feature", "properties": {"name": "ERIE BOULEVARD EAST", "id": "481561066", "fcc": "A25", "role": "source"}, "geometry": {"type": "LineString", "coordinates": [[-76.1438543124589, 43.05085466056491], [-76.143028351081, 43.0508426529235]]}}, {"type": "Feature", "properties": {"name": "ERIE BOULEVARD EAST", "id": "477434923", "fcc": "A25", "role": "source"}, "geometry": {"type": "LineString", "coordinates": [[-76.1442052914269, 43.05085763490429], [-76.1438543124589, 43.05085466056491]]}}, {"type": "Feature", "properties": {"name": "ERIE BOULEVARD EAST", "id": "477434983", "fcc": "A25", "role": "source"}, "geometry": {"type": "LineString", "coordinates": [[-76.1440473038195, 43.050760610709695], [-76.1438552664697, 43.050760639593186]]}}, {"type": "Feature", "properties": {"name": "ERIE BOULEVARD EAST", "id": "800036365", "fcc": "A25", "role": "source"}, "geometry": {"type": "LineString", "coordinates": [[-76.14485837113, 43.05076537648701], [-76.1447452777273, 43.0507636533238]]}}, {"type": "Feature", "properties": {"name": "ERIE BOULEVARD EAST", "id": "477434919", "fcc": "A25", "role": "source"}, "geometry": {"type": "LineString", "coordinates": [[-76.1449452579809, 43.0508605888938], [-76.1442052914269, 43.05085763490429]]}}, {"type": "Feature", "properties": {"name": "ERIE BOULEVARD EAST", "id": "477434981", "fcc": "A25", "role": "source"}, "geometry": {"type": "LineString", "coordinates": [[-76.1447452777273, 43.0507636533238], [-76.1440473038195, 43.050760610709695]]}}, {"type": "Feature", "properties": {"name": "ERIE BOULEVARD EAST", "id": "477434977", "fcc": "A25", "role": "source"}, "geometry": {"type": "LineString", "coordinates": [[-76.14509401360212, 43.05081307625199], [-76.1450366534763, 43.050785654011904], [-76.1449649382722, 43.05077267547781], [-76.14485837113, 43.05076537648701]]}}, {"type": "Feature", "properties": {"name": "ERIE BOULEVARD EAST", "id": "509997409", "fcc": "A25", "role": "source"}, "geometry": {"type": "LineString", "coordinates": [[-76.14509401360212, 43.05081307625199], [-76.1450611460425, 43.0508329907485], [-76.1450375338253, 43.0508408811857]]}}, {"type": "Feature", "properties": {"name": "ERIE BOULEVARD EAST", "id": "477434917", "fcc": "A25", "role": "source"}, "geometry": {"type": "LineString", "coordinates": [[-76.1450375338253, 43.0508408811857], [-76.145007881336, 43.0508507954333], [-76.1449452579809, 43.0508605888938]]}}, {"type": "Feature", "properties": {"name": "ERIE BOULEVARD EAST", "id": "477434973", "fcc": "A21", "role": "source"}, "geometry": {"type": "LineString", "coordinates": [[-76.1455819757695, 43.05082213187719], [-76.14509401360212, 43.05081307625199]]}}, {"type": "Feature", "properties": {"name": "ERIE BOULEVARD EAST", "id": "477434932", "fcc": "A21", "role": "source"}, "geometry": {"type": "LineString", "coordinates": [[-76.1473772669496, 43.050839651012794], [-76.1468153177388, 43.0508288321857], [-76.1455819757695, 43.05082213187719]]}}, {"type": "Feature", "properties": {"name": "ERIE BOULEVARD EAST", "id": "477434927", "fcc": "A21", "role": "source"}, "geometry": {"type": "LineString", "coordinates": [[-76.1493282595247, 43.0509206565997], [-76.1492293091978, 43.050888602554494], [-76.1473772669496, 43.050839651012794]]}}, {"type": "Feature", "properties": {"name": "ERIE BOULEVARD EAST", "id": "477434891", "fcc": "A40", "role": "source"}, "geometry": {"type": "LineString", "coordinates": [[-76.1507603241063, 43.0508946477268], [-76.1500182608843, 43.05088463830229], [-76.1494473195375, 43.0508986592422], [-76.1493702548659, 43.0509076282045], [-76.1493282595247, 43.0509206565997]]}}, {"type": "Feature", "properties": {"name": "ERIE BOULEVARD EAST", "id": "477434887", "fcc": "A40", "role": "source"}, "geometry": {"type": "LineString", "coordinates": [[-76.1521773526866, 43.050911635780395], [-76.1507603241063, 43.0508946477268]]}}, {"type": "Feature", "properties": {"name": "ERIE BOULEVARD EAST", "role": "end_to_end"}, "geometry": {"type": "MultiLineString", "coordinates": [[[-76.0864332368283, 43.05531560843671], [-76.0852949033783, 43.0553862567845], [-76.0846302605609, 43.05542876744939], [-76.0831578391652, 43.05549772479979]], [[-76.1160713431157, 43.0507355844648], [-76.1158202370444, 43.05080962205079]], [[-76.1158202370444, 43.05080962205079], [-76.115025273832, 43.051037631075296]], [[-76.1125592806978, 43.051835603799695], [-76.1113222376695, 43.052341633074], [-76.1105242606094, 43.052649602556905], [-76.1100862259071, 43.0527765894166], [-76.1096933207682, 43.0528596437601], [-76.109204333623, 43.05293264163859], [-76.1086583097456, 43.0529886309511]], [[-76.115025273832, 43.051037631075296], [-76.1132662844708, 43.0515566000107], [-76.1125592806978, 43.051835603799695]], [[-76.1086583097456, 43.0529886309511], [-76.1066763082252, 43.05322564447819], [-76.1063953223909, 43.05325762772179]], [[-76.1063953223909, 43.05325762772179], [-76.104086336802, 43.053523601184395]], [[-76.1010243312397, 43.0538835839142], [-76.0996003074783, 43.0540486490836], [-76.0992513254651, 43.05408964240519]], [[-76.104086336802, 43.053523601184395], [-76.1010243312397, 43.0538835839142]], [[-76.0992513254651, 43.05408964240519], [-76.097168245509, 43.05432962387891]], [[-76.097168245509, 43.05432962387891], [-76.0942382276148, 43.0546725807373]], [[-76.0929462202675, 43.0548196413667], [-76.0922612683381, 43.0548885849613], [-76.0908542380069, 43.05499664848941]], [[-76.0942382276148, 43.0546725807373], [-76.0929462202675, 43.0548196413667]], [[-76.0908542380069, 43.05499664848941], [-76.0904802792356, 43.055021644113985], [-76.0895982737637, 43.05509965363391], [-76.0879012636656, 43.055225660016994]], [[-76.0879012636656, 43.055225660016994], [-76.0865142819349, 43.0553086257124], [-76.0864332368283, 43.05531560843671]], [[-76.1401603340094, 43.05076464717871], [-76.1399152709049, 43.0507656475981]], [[-76.1399152709049, 43.0507656475981], [-76.1385013900213, 43.0507425874031]], [[-76.1342382578724, 43.0506796022856], [-76.1320232396556, 43.05064858726588]], [[-76.1364613519437, 43.05071562661149], [-76.1342382578724, 43.0506796022856]], [[-76.1385013900213, 43.0507425874031], [-76.1381082719817, 43.0507415817319], [-76.1364613519437, 43.05071562661149]], [[-76.1320232396556, 43.05064858726588], [-76.13059928506442, 43.050621602800895]], [[-76.13059928506442, 43.050621602800895], [-76.1297423371991, 43.05061358761099]], [[-76.1297423371991, 43.05061358761099], [-76.1290842502866, 43.05058262244769], [-76.1286602966765, 43.050550605643195], [-76.1279932328993, 43.05047866049499], [-76.127623303072, 43.05041963216809]], [[-76.127623303072, 43.05041963216809], [-76.1275095871369, 43.05039795235129]], [[-76.1275095871369, 43.05039795235129], [-76.1270883006248, 43.0503176543813], [-76.1268192336377, 43.05026159239029], [-76.1265142636835, 43.05018265112268], [-76.1263639378073, 43.0501403849592]], [[-76.1263639378073, 43.0501403849592], [-76.1258491348775, 43.049988586002506], [-76.1247160943012, 43.04961189594029], [-76.1245318902606, 43.0495579484056], [-76.124332109433, 43.04950559404379], [-76.1239583608675, 43.04942587127519], [-76.123453599306, 43.0493593556865]], [[-76.1215102936148, 43.0492806161034], [-76.1207772979873, 43.049389643346395], [-76.1201683336495, 43.049533650993], [-76.1199563258525, 43.0495965992129]], [[-76.1199563258525, 43.0495965992129], [-76.1189386038059, 43.04990039365719]], [[-76.1189386038059, 43.04990039365719], [-76.11840632505061, 43.05005065739369]], [[-76.11840632505061, 43.05005065739369], [-76.1160713431157, 43.0507355844648]], [[-76.1224123144494, 43.049256644184695], [-76.121842285791, 43.0492596225403], [-76.1216533081029, 43.04926561732591], [-76.1215102936148, 43.0492806161034]], [[-76.123453599306, 43.0493593556865], [-76.1233077075139, 43.04929004548], [-76.1226312554437, 43.0492576479109], [-76.1224123144494, 43.049256644184695]], [[-76.1421162834882, 43.05081565016349], [-76.1402483320763, 43.050795647698], [-76.1401603340094, 43.05076464717871]], [[-76.14247726340031, 43.050821591625], [-76.1421162834882, 43.05081565016349]], [[-76.143028351081, 43.0508426529235], [-76.14247726340031, 43.050821591625]], [[-76.1438543124589, 43.05085466056491], [-76.143028351081, 43.0508426529235]], [[-76.1442052914269, 43.05085763490429], [-76.1438543124589, 43.05085466056491]], [[-76.1449452579809, 43.0508605888938], [-76.1442052914269, 43.05085763490429]], [[-76.14509401360212, 43.05081307625199], [-76.1450611460425, 43.0508329907485], [-76.1450375338253, 43.0508408811857]], [[-76.1450375338253, 43.0508408811857], [-76.145007881336, 43.0508507954333], [-76.1449452579809, 43.0508605888938]], [[-76.1455819757695, 43.05082213187719], [-76.14509401360212, 43.05081307625199]], [[-76.1473772669496, 43.050839651012794], [-76.1468153177388, 43.0508288321857], [-76.1455819757695, 43.05082213187719]], [[-76.1493282595247, 43.0509206565997], [-76.1492293091978, 43.050888602554494], [-76.1473772669496, 43.050839651012794]], [[-76.1507603241063, 43.0508946477268], [-76.1500182608843, 43.05088463830229], [-76.1494473195375, 43.0508986592422], [-76.1493702548659, 43.0509076282045], [-76.1493282595247, 43.0509206565997]], [[-76.1521773526866, 43.050911635780395], [-76.1507603241063, 43.0508946477268]]]}}, {"type": "Feature", "properties": {"name": "ERIE BOULEVARD EAST", "role": "endpoint", "end": 0}, "geometry": {"type": "Point", "coordinates": [-76.0831787806911, 43.05565217703699]}}, {"type": "Feature", "properties": {"name": "ERIE BOULEVARD EAST", "role": "endpoint", "end": 1}, "geometry": {"type": "Point", "coordinates": [-76.0831578391652, 43.05549772479979]}}, {"type": "Feature", "properties": {"name": "CANAL STREET", "id": "477433624", "fcc": "A41", "role": "source"}, "geometry": {"type": "LineString", "coordinates": [[-76.1155482981433, 43.05422557769369], [-76.1152202864021, 43.0542916285213], [-76.1150713277617, 43.054304606310794], [-76.1149442601664, 43.05428558368381], [-76.1148943327013, 43.054247619150004], [-76.1147892603557, 43.05403963988329], [-76.1147493374279, 43.05401166310801], [-76.1146732689879, 43.05400159839749], [-76.1145043183409, 43.054022604122], [-76.112532245001, 43.0544426022308], [-76.1118453158796, 43.05457057457631], [-76.1117273293536, 43.0546055791936], [-76.111659273886, 43.054651625122005], [-76.1114502287328, 43.0548936359514], [-76.1113812435089, 43.0549426623688], [-76.1112672634691, 43.054961598803786], [-76.1109612676389, 43.05497564638039], [-76.1102812753082, 43.05503258363489], [-76.1099122698473, 43.0550186036803], [-76.1096833099427, 43.054980662574195], [-76.109244270924, 43.054882623545296], [-76.1087782995147, 43.054734596845286], [-76.10862634499291, 43.054683660790396], [-76.1085283145408, 43.05467461492499], [-76.1083382301284, 43.0546746549654], [-76.1073502243513, 43.05474266203949], [-76.1065812835362, 43.054899581612695], [-76.106407258306, 43.05495961648119], [-76.1061212401094, 43.0551356353233], [-76.1060032365154, 43.055183601467995], [-76.1052792447021, 43.05532765130409], [-76.104529226, 43.055499592892794], [-76.1039072244125, 43.0556136534475]]}}, {"type": "Feature", "properties": {"name": "CANAL STREET", "id": "477434809", "fcc": "A41", "role": "source"}, "geometry": {"type": "LineString", "coordinates": [[-76.1342262662617, 43.0511215910343], [-76.1320152419546, 43.0510816217442]]}}, {"type": "Feature", "properties": {"name": "CANAL STREET", "id": "477434788", "fcc": "A41", "role": "source"}, "geometry": {"type": "LineString", "coordinates": [[-76.1364482967277, 43.051165640722296], [-76.1342262662617, 43.0511215910343]]}}, {"type": "Feature", "properties": {"name": "CANAL STREET", "id": "800041721", "fcc": "A41", "role": "source"}, "geometry": {"type": "LineString", "coordinates": [[-76.1376909721928, 43.0511833776974], [-76.1364482967277, 43.051165640722296]]}}, {"type": "Feature", "properties": {"name": "CANAL STREET", "id": "477434827", "fcc": "A41", "role": "source"}, "geometry": {"type": "LineString", "coordinates": [[-76.1276072367032, 43.05105058329588], [-76.1272613332165, 43.0510566021946], [-76.1268442463284, 43.05110465424111], [-76.1265992874285, 43.05115164019309], [-76.1259682865185, 43.0513195787205], [-76.1254492758799, 43.05147461586179], [-76.1250963628391, 43.05156819855349]]}}, {"type": "Feature", "properties": {"name": "CANAL STREET", "id": "477434830", "fcc": "A41", "role": "source"}, "geometry": {"type": "LineString", "coordinates": [[-76.1306702708365, 43.05106358212089], [-76.1299513248601, 43.05104862185289], [-76.1276072367032, 43.05105058329588]]}}, {"type": "Feature", "properties": {"name": "CANAL STREET", "id": "477434822", "fcc": "A41", "role": "source"}, "geometry": {"type": "LineString", "coordinates": [[-76.1320152419546, 43.0510816217442], [-76.1306702708365, 43.05106358212089]]}}, {"type": "Feature", "properties": {"name": "CANAL STREET", "id": "800048139", "fcc": "A41", "role": "source"}, "geometry": {"type": "LineString", "coordinates": [[-76.1250963628391, 43.05156819855349], [-76.1250003293419, 43.05159366295678], [-76.1242262393835, 43.0518136061139], [-76.1226193437831, 43.052239644697906], [-76.1218123018234, 43.05244458622549]]}}, {"type": "Feature", "properties": {"name": "CANAL STREET", "role": "end_to_end"}, "geometry": {"type": "MultiLineString", "coordinates": [[[-76.1376909721928, 43.0511833776974], [-76.1364482967277, 43.051165640722296]], [[-76.1364482967277, 43.051165640722296], [-76.1342262662617, 43.0511215910343]], [[-76.1342262662617, 43.0511215910343], [-76.1320152419546, 43.0510816217442]], [[-76.1320152419546, 43.0510816217442], [-76.1306702708365, 43.05106358212089]], [[-76.1306702708365, 43.05106358212089], [-76.1299513248601, 43.05104862185289], [-76.1276072367032, 43.05105058329588]], [[-76.1276072367032, 43.05105058329588], [-76.1272613332165, 43.0510566021946], [-76.1268442463284, 43.05110465424111], [-76.1265992874285, 43.05115164019309], [-76.1259682865185, 43.0513195787205], [-76.1254492758799, 43.05147461586179], [-76.1250963628391, 43.05156819855349]], [[-76.1250963628391, 43.05156819855349], [-76.1250003293419, 43.05159366295678], [-76.1242262393835, 43.0518136061139], [-76.1226193437831, 43.052239644697906], [-76.1218123018234, 43.05244458622549]]]}}, {"type": "Feature", "properties": {"name": "CANAL STREET", "role": "endpoint", "end": 0}, "geometry": {"type": "Point", "coordinates": [-76.1376909721928, 43.0511833776974]}}, {"type": "Feature", "properties": {"name": "CANAL STREET", "role": "endpoint", "end": 1}, "geometry": {"type": "Point", "coordinates": [-76.1218123018234, 43.05244458622549]}}, {"type": "Feature", "properties": {"name": "EAST BRIGHTON AVENUE AVENUE NORTHBOUND", "id": "477444818", "fcc": "A45", "role": "source"}, "geometry": {"type": "LineString", "coordinates": [[-76.13173872613712, 43.008124037152186], [-76.1317290602646, 43.008218441396586], [-76.1318417170861, 43.00838970900259], [-76.131976083493, 43.008501094898385], [-76.1321432554758, 43.0085900581646], [-76.1322599834622, 43.00866760712109], [-76.1323176220658, 43.008752088167995], [-76.1323674543095, 43.008893828351894]]}}, {"type": "Feature", "properties": {"name": "EAST BRIGHTON AVENUE AVENUE NORTHBOUND", "role": "end_to_end"}, "geometry": {"type": "LineString", "coordinates": [[-76.13173872613712, 43.008124037152186], [-76.1317290602646, 43.008218441396586], [-76.1318417170861, 43.00838970900259], [-76.131976083493, 43.008501094898385], [-76.1321432554758, 43.0085900581646], [-76.1322599834622, 43.00866760712109], [-76.1323176220658, 43.008752088167995], [-76.1323674543095, 43.008893828351894]]}}, {"type": "Feature", "properties": {"name": "EAST BRIGHTON AVENUE AVENUE NORTHBOUND", "role": "endpoint", "end": 0}, "geometry": {"type": "Point", "coordinates": [-76.13173872613712, 43.008124037152186]}}, {"type": "Feature", "properties": {"name": "EAST BRIGHTON AVENUE AVENUE NORTHBOUND", "role": "endpoint", "end": 1}, "geometry": {"type": "Point", "coordinates": [-76.1323674543095, 43.008893828351894]}}]}