{"type": "FeatureCollection", "features": [{"type": "Feature", "id": 5039, "geometry": {"type": "LineString", "coordinates": [[-76.1387097096009, 43.0020111103659], [-76.1388042823893, 43.0035106677695], [-76.1387470631552, 43.0036692481049], [-76.1386587724515, 43.0044107833486]]}, "properties": {"FID": 5039, "FNODE_": 3585, "TNODE_": 3546, "LPOLY_": 1882, "RPOLY_": 1843, "LENGTH": 878.173, "CITYST_": 5458, "CITYST_ID": 5313, "FNODE_1": 3586, "TNODE_1": 3547, "LPOLY_1": 0, "RPOLY_1": 0, "CITYST2_": 5313, "CITYST2_ID": 23241, "LTYPE": 1, "GDT_ID2": 12576626, "GDT_": 20750, "RECNUM": 12576626, "L_F_ADD": 201, "L_T_ADD": 399, "R_F_ADD": 200, "R_T_ADD": 398, "PREFIX": " ", "NAME": "MONTICELLO", "TYPE": "DR", "SUFFIX": "N", "CFCC": "A40", "TRACT90_L": "006101", "TRACT90_R": "006101", "BLOCK90_L": "213", "BLOCK90_R": "101", "L_F_IADD": 0, "L_T_IADD": 0, "R_F_IADD": 0, "R_T_IADD": 0, "FIPMCD90_L": "73000", "FIPMCD90_R": "73000", "FIPPLC90_L": "73000", "FIPPLC90_R": "73000", "FULLNAME": "MONTICELLO DR N", "PAVE2": 0, "ST_FLAG": 1, "LINECODE": 15, "BLKSTREET": "  200 MONTICELLO DR N", "BG_L": "2", "BG_R": "1", "CTBNABG_L": "0061012", "CTBNABG_R": "0061011", "CITYST_I_1": 5313, "BLK": "200", "Status": " ", "Start_Date": null, "End_Date": null, "ProposeEnd": null, "ProposeSrt": null, "ID": 0, "FID_1": 0, "GDT_ID2_1": 0, "StreetName": " ", "Intersecti": " ", "Intersec_1": " ", "Rationale": " ", "Additions": " ", "Interventi": "0", "RepairEsti": 0, "AvgDPWRati": " ", "Rating": " ", "PCI": " ", "SewerConfl": " ", "Engineerin": " ", "NationalGr": " ", "RoadRating": 0, "RiskScore": 0, "M___P_Rank": " ", "F5_Year_Pla": " ", "M_P_Rank": " ", "Sheet1_Yea": 0, "CAMP_Ratin": " ", "Shape__Length": 366.769772591218, "CreationDate": 1487687799250, "Creator": "sbartlett_syr", "EditDate": 1487862385237, "Editor": "sbartlett_syr", "Intervention2": null, "Intervention2Intersection1": null, "Intervention2Intersection2b": null, "CurrentStatus": " ", "TypeLastCityProject": null, "Sewer_Grant": null}}, {"type": "Feature", "id": 5146, "geometry": {"type": "LineString", "coordinates": [[-76.1401834350626, 43.0019303874623], [-76.1387097096009, 43.0020111103659]]}, "properties": {"FID": 5146, "FNODE_": 3588, "TNODE_": 3585, "LPOLY_": 1882, "RPOLY_": 1890, "LENGTH": 395.319, "CITYST_": 5462, "CITYST_ID": 5314, "FNODE_1": 3589, "TNODE_1": 3586, "LPOLY_1": 0, "RPOLY_1": 0, "CITYST2_": 5314, "CITYST2_ID": 23249, "LTYPE": 1, "GDT_ID2": 12576624, "GDT_": 20751, "RECNUM": 12576624, "L_F_ADD": 201, "L_T_ADD": 299, "R_F_ADD": 200, "R_T_ADD": 298, "PREFIX": " ", "NAME": "ORLANDO", "TYPE": "AVE", "SUFFIX": " ", "CFCC": "A40", "TRACT90_L": "006101", "TRACT90_R": "006101", "BLOCK90_L": "213", "BLOCK90_R": "210", "L_F_IADD": 0, "L_T_IADD": 0, "R_F_IADD": 0, "R_T_IADD": 0, "FIPMCD90_L": "73000", "FIPMCD90_R": "73000", "FIPPLC90_L": "73000", "FIPPLC90_R": "73000", "FULLNAME": "ORLANDO AV", "PAVE2": 0, "ST_FLAG": 1, "LINECODE": 15, "BLKSTREET": "  200 ORLANDO AV", "BG_L": "2", "BG_R": "2", "CTBNABG_L": "0061012", "CTBNABG_R": "0061012", "CITYST_I_1": 5314, "BLK": "200", "Status": "Completed", "Start_Date": 1230786000000, "End_Date": 1262235600000, "ProposeEnd": null, "ProposeSrt": null, "ID": 0, "FID_1": 0, "GDT_ID2_1": 0, "StreetName": "Orlando Ave", "Intersecti": "S Salina St", "Intersec_1": "Monticello Dr S", "Rationale": " ", "Additions": " ", "Interventi": "0", "RepairEsti": 0, "AvgDPWRati": " ", "Rating": " ", "PCI": " ", "SewerConfl": " ", "Engineerin": " ", "NationalGr": " ", "RoadRating": 0, "RiskScore": 0, "M___P_Rank": "2009", "F5_Year_Pla": " ", "M_P_Rank": " ", "Sheet1_Yea": 0, "CAMP_Ratin": " ", "Shape__Length": 164.51386566028174, "CreationDate": 1487687799250, "Creator": "sbartlett_syr", "EditDate": 1488224934328, "Editor": "sbartlett_syr", "Intervention2": null, "Intervention2Intersection1": null, "Intervention2Intersection2b": null, "CurrentStatus": "Mill & Pave", "TypeLastCityProject": null, "Sewer_Grant": null}}, {"type": "Feature", "id": 5232, "geometry": {"type": "LineString", "coordinates": [[-76.1387027052065, 43.0002916954461], [-76.1386162210217, 43.0002968475691], [-76.1385404320856, 43.0003092438498], [-76.1384552507728, 43.0003281203424], [-76.1383903139966, 43.0003583939236], [-76.1377958378363, 43.0010509730324], [-76.137326101082, 43.0011959433591], [-76.1370993218883, 43.0012482231423]]}, "properties": {"FID": 5232, "FNODE_": 3605, "TNODE_": 3596, "LPOLY_": 1843, "RPOLY_": 1, "LENGTH": 586.593, "CITYST_": 5485, "CITYST_ID": 5504, "FNODE_1": 3606, "TNODE_1": 3597, "LPOLY_1": 0, "RPOLY_1": 0, "CITYST2_": 5504, "CITYST2_ID": 23351, "LTYPE": 1, "GDT_ID2": 12576623, "GDT_": 20761, "RECNUM": 12576623, "L_F_ADD": 301, "L_T_ADD": 351, "R_F_ADD": 300, "R_T_ADD": 356, "PREFIX": "E", "NAME": "SENECA", "TYPE": "TPK", "SUFFIX": " ", "CFCC": "A21", "TRACT90_L": "006101", "TRACT90_R": "006103", "BLOCK90_L": "101", "BLOCK90_R": "101", "L_F_IADD": 0, "L_T_IADD": 0, "R_F_IADD": 0, "R_T_IADD": 0, "FIPMCD90_L": "73000", "FIPMCD90_R": "73000", "FIPPLC90_L": "73000", "FIPPLC90_R": "73000", "FULLNAME": "E SENECA TPKE", "PAVE2": 0, "ST_FLAG": 1, "LINECODE": 15, "BLKSTREET": "  300 E SENECA TPKE", "BG_L": "1", "BG_R": "1", "CTBNABG_L": "0061011", "CTBNABG_R": "0061031", "CITYST_I_1": 5504, "BLK": "300", "Status": " ", "Start_Date": null, "End_Date": null, "ProposeEnd": null, "ProposeSrt": null, "ID": 0, "FID_1": 0, "GDT_ID2_1": 0, "StreetName": " ", "Intersecti": " ", "Intersec_1": " ", "Rationale": " ", "Additions": " ", "Interventi": "0", "RepairEsti": 0, "AvgDPWRati": " ", "Rating": " ", "PCI": " ", "SewerConfl": " ", "Engineerin": " ", "NationalGr": " ", "RoadRating": 0, "RiskScore": 0, "M___P_Rank": " ", "F5_Year_Pla": " ", "M_P_Rank": " ", "Sheet1_Yea": 0, "CAMP_Ratin": " ", "Shape__Length": 244.47948036031806, "CreationDate": 1487687799250, "Creator": "sbartlett_syr", "EditDate": 1487862385237, "Editor": "sbartlett_syr", "Intervention2": null, "Intervention2Intersection1": null, "Intervention2Intersection2b": null, "CurrentStatus": " ", "TypeLastCityProject": null, "Sewer_Grant": null}}, {"type": "Feature", "id": 5234, "geometry": {"type": "LineString", "coordinates": [[-76.1387027052065, 43.0002916954461], [-76.1387180341577, 43.0004340940523], [-76.1386697716611, 43.0007443089228], [-76.1386526586339, 43.000914363465], [-76.1386418985446, 43.0012079175394], [-76.1386578819002, 43.0014864840206], [-76.1387097096009, 43.0020111103659]]}, "properties": {"FID": 5234, "FNODE_": 3605, "TNODE_": 3585, "LPOLY_": 1890, "RPOLY_": 1843, "LENGTH": 628.34, "CITYST_": 5486, "CITYST_ID": 5502, "FNODE_1": 3606, "TNODE_1": 3586, "LPOLY_1": 0, "RPOLY_1": 0, "CITYST2_": 5502, "CITYST2_ID": 23352, "LTYPE": 1, "GDT_ID2": 12576622, "GDT_": 20762, "RECNUM": 12576622, "L_F_ADD": 101, "L_T_ADD": 199, "R_F_ADD": 100, "R_T_ADD": 198, "PREFIX": " ", "NAME": "MONTICELLO", "TYPE": "DR", "SUFFIX": "N", "CFCC": "A40", "TRACT90_L": "006101", "TRACT90_R": "006101", "BLOCK90_L": "210", "BLOCK90_R": "101", "L_F_IADD": 0, "L_T_IADD": 0, "R_F_IADD": 0, "R_T_IADD": 0, "FIPMCD90_L": "73000", "FIPMCD90_R": "73000", "FIPPLC90_L": "73000", "FIPPLC90_R": "73000", "FULLNAME": "MONTICELLO DR N", "PAVE2": 0, "ST_FLAG": 1, "LINECODE": 15, "BLKSTREET": "  100 MONTICELLO DR N", "BG_L": "2", "BG_R": "1", "CTBNABG_L": "0061012", "CTBNABG_R": "0061011", "CITYST_I_1": 5502, "BLK": "100", "Status": " ", "Start_Date": null, "End_Date": null, "ProposeEnd": null, "ProposeSrt": null, "ID": 0, "FID_1": 0, "GDT_ID2_1": 0, "StreetName": " ", "Intersecti": " ", "Intersec_1": " ", "Rationale": " ", "Additions": " ", "Interventi": "0", "RepairEsti": 0, "AvgDPWRati": " ", "Rating": " ", "PCI": " ", "SewerConfl": " ", "Engineerin": " ", "NationalGr": " ", "RoadRating": 0, "RiskScore": 0, "M___P_Rank": " ", "F5_Year_Pla": " ", "M_P_Rank": " ", "Sheet1_Yea": 0, "CAMP_Ratin": " ", "Shape__Length": 262.42063802105577, "CreationDate": 1487687799250, "Creator": "sbartlett_syr", "EditDate": 1487862385237, "Editor": "sbartlett_syr", "Intervention2": null, "Intervention2Intersection1": null, "Intervention2Intersection2b": null, "CurrentStatus": " ", "TypeLastCityProject": null, "Sewer_Grant": null}}, {"type": "Feature", "id": 5239, "geometry": {"type": "LineString", "coordinates": [[-76.1387027052065, 43.0002916954461], [-76.1386803527104, 43.0002161518165], [-76.1386925991318, 42.9998138814003]]}, "properties": {"FID": 5239, "FNODE_": 3605, "TNODE_": 3607, "LPOLY_": 1, "RPOLY_": 1896, "LENGTH": 174.82, "CITYST_": 5489, "CITYST_ID": 5503, "FNODE_1": 3606, "TNODE_1": 3608, "LPOLY_1": 0, "RPOLY_1": 0, "CITYST2_": 5503, "CITYST2_ID": 23390, "LTYPE": 1, "GDT_ID2": 12576561, "GDT_": 20764, "RECNUM": 12576561, "L_F_ADD": 101, "L_T_ADD": 107, "R_F_ADD": 100, "R_T_ADD": 106, "PREFIX": " ", "NAME": "MONTICELLO", "TYPE": "DR", "SUFFIX": "S", "CFCC": "A40", "TRACT90_L": "006103", "TRACT90_R": "006103", "BLOCK90_L": "101", "BLOCK90_R": "102", "L_F_IADD": 0, "L_T_IADD": 0, "R_F_IADD": 0, "R_T_IADD": 0, "FIPMCD90_L": "73000", "FIPMCD90_R": "73000", "FIPPLC90_L": "73000", "FIPPLC90_R": "73000", "FULLNAME": "MONTICELLO DR S", "PAVE2": 0, "ST_FLAG": 1, "LINECODE": 15, "BLKSTREET": "  100 MONTICELLO DR S", "BG_L": "1", "BG_R": "1", "CTBNABG_L": "0061031", "CTBNABG_R": "0061031", "CITYST_I_1": 5503, "BLK": "100", "Status": "Completed", "Start_Date": null, "End_Date": null, "ProposeEnd": null, "ProposeSrt": null, "ID": 0, "FID_1": 0, "GDT_ID2_1": 0, "StreetName": "Monticello Dr S", "Intersecti": "Channing Pl", "Intersec_1": "E Seneca Tpke", "Rationale": " ", "Additions": " ", "Interventi": "0", "RepairEsti": 0, "AvgDPWRati": " ", "Rating": " ", "PCI": " ", "SewerConfl": " ", "Engineerin": " ", "NationalGr": " ", "RoadRating": 0, "RiskScore": 0, "M___P_Rank": " ", "F5_Year_Pla": " ", "M_P_Rank": " ", "Sheet1_Yea": 2017, "CAMP_Ratin": " ", "Shape__Length": 73.00955529234241, "CreationDate": 1487687799250, "Creator": "sbartlett_syr", "EditDate": 1499783264193, "Editor": "sbartlett_syr", "Intervention2": null, "Intervention2Intersection1": null, "Intervention2Intersection2b": null, "CurrentStatus": "Mill & Pave", "TypeLastCityProject": null, "Sewer_Grant": null}}, {"type": "Feature", "id": 5295, "geometry": {"type": "LineString", "coordinates": [[-76.138700134561, 43.0055774377346], [-76.1381414732882, 43.0056068230159]]}, "properties": {"FID": 5295, "FNODE_": 3528, "TNODE_": 3526, "LPOLY_": 1843, "RPOLY_": 1843, "LENGTH": 149.817, "CITYST_": 5380, "CITYST_ID": 5286, "FNODE_1": 3529, "TNODE_1": 3527, "LPOLY_1": 0, "RPOLY_1": 0, "CITYST2_": 5286, "CITYST2_ID": 22889, "LTYPE": 1, "GDT_ID2": 12576650, "GDT_": 20723, "RECNUM": 12576650, "L_F_ADD": 401, "L_T_ADD": 499, "R_F_ADD": 400, "R_T_ADD": 498, "PREFIX": "E", "NAME": "GLEN", "TYPE": "AVE", "SUFFIX": " ", "CFCC": "A40", "TRACT90_L": "006101", "TRACT90_R": "006101", "BLOCK90_L": "101", "BLOCK90_R": "101", "L_F_IADD": 0, "L_T_IADD": 0, "R_F_IADD": 0, "R_T_IADD": 0, "FIPMCD90_L": "73000", "FIPMCD90_R": "73000", "FIPPLC90_L": "73000", "FIPPLC90_R": "73000", "FULLNAME": "E GLEN AV", "PAVE2": 0, "ST_FLAG": 1, "LINECODE": 15, "BLKSTREET": "  400 E GLEN AV", "BG_L": "1", "BG_R": "1", "CTBNABG_L": "0061011", "CTBNABG_R": "0061011", "CITYST_I_1": 5286, "BLK": "400", "Status": "Planned", "Start_Date": null, "End_Date": null, "ProposeEnd": null, "ProposeSrt": null, "ID": 0, "FID_1": 0, "GDT_ID2_1": 0, "StreetName": " ", "Intersecti": " ", "Intersec_1": " ", "Rationale": " ", "Additions": " ", "Interventi": "0", "RepairEsti": 0, "AvgDPWRati": " ", "Rating": " ", "PCI": " ", "SewerConfl": " ", "Engineerin": " ", "NationalGr": " ", "RoadRating": 0, "RiskScore": 0, "M___P_Rank": " ", "F5_Year_Pla": " ", "M_P_Rank": " ", "Sheet1_Yea": 2019, "CAMP_Ratin": " ", "Shape__Length": 62.35055141505288, "CreationDate": 1487687799250, "Creator": "sbartlett_syr", "EditDate": 1551867993350, "Editor": "samedelstein", "Intervention2": null, "Intervention2Intersection1": null, "Intervention2Intersection2b": null, "CurrentStatus": "New Building Permit", "TypeLastCityProject": null, "Sewer_Grant": null}}, {"type": "Feature", "id": 5296, "geometry": {"type": "LineString", "coordinates": [[-76.1387665586631, 43.0063792525873], [-76.138700134561, 43.0055774377346]]}, "properties": {"FID": 5296, "FNODE_": 3515, "TNODE_": 3528, "LPOLY_": 1843, "RPOLY_": 1870, "LENGTH": 292.763, "CITYST_": 5381, "CITYST_ID": 5287, "FNODE_1": 3516, "TNODE_1": 3529, "LPOLY_1": 0, "RPOLY_1": 0, "CITYST2_": 5287, "CITYST2_ID": 22890, "LTYPE": 1, "GDT_ID2": 12576649, "GDT_": 20722, "RECNUM": 12576649, "L_F_ADD": 301, "L_T_ADD": 399, "R_F_ADD": 300, "R_T_ADD": 398, "PREFIX": " ", "NAME": "SPRINGBROOK", "TYPE": "AVE", "SUFFIX": " ", "CFCC": "A40", "TRACT90_L": "006101", "TRACT90_R": "006101", "BLOCK90_L": "101", "BLOCK90_R": "203", "L_F_IADD": 0, "L_T_IADD": 0, "R_F_IADD": 0, "R_T_IADD": 0, "FIPMCD90_L": "73000", "FIPMCD90_R": "73000", "FIPPLC90_L": "73000", "FIPPLC90_R": "73000", "FULLNAME": "SPRINGBROOK AV", "PAVE2": 0, "ST_FLAG": 1, "LINECODE": 15, "BLKSTREET": "  300 SPRINGBROOK AV", "BG_L": "1", "BG_R": "2", "CTBNABG_L": "0061011", "CTBNABG_R": "0061012", "CITYST_I_1": 5287, "BLK": "300", "Status": " ", "Start_Date": null, "End_Date": null, "ProposeEnd": null, "ProposeSrt": null, "ID": 0, "FID_1": 0, "GDT_ID2_1": 0, "StreetName": " ", "Intersecti": " ", "Intersec_1": " ", "Rationale": " ", "Additions": " ", "Interventi": "0", "RepairEsti": 0, "AvgDPWRati": " ", "Rating": " ", "PCI": " ", "SewerConfl": " ", "Engineerin": " ", "NationalGr": " ", "RoadRating": 0, "RiskScore": 0, "M___P_Rank": " ", "F5_Year_Pla": " ", "M_P_Rank": " ", "Sheet1_Yea": 0, "CAMP_Ratin": " ", "Shape__Length": 122.28004526162529, "CreationDate": 1487687799250, "Creator": "sbartlett_syr", "EditDate": 1487862385237, "Editor": "sbartlett_syr", "Intervention2": null, "Intervention2Intersection1": null, "Intervention2Intersection2b": null, "CurrentStatus": " ", "TypeLastCityProject": null, "Sewer_Grant": null}}, {"type": "Feature", "id": 5441, "geometry": {"type": "LineString", "coordinates": [[-76.1386587724515, 43.0044107833486], [-76.1386327759317, 43.0046137299146], [-76.138700134561, 43.0055774377346]]}, "properties": {"FID": 5441, "FNODE_": 3546, "TNODE_": 3528, "LPOLY_": 1874, "RPOLY_": 1843, "LENGTH": 425.977, "CITYST_": 5404, "CITYST_ID": 5304, "FNODE_1": 3547, "TNODE_1": 3529, "LPOLY_1": 0, "RPOLY_1": 0, "CITYST2_": 5304, "CITYST2_ID": 23053, "LTYPE": 1, "GDT_ID2": 12576646, "GDT_": 20731, "RECNUM": 12576646, "L_F_ADD": 401, "L_T_ADD": 499, "R_F_ADD": 400, "R_T_ADD": 498, "PREFIX": " ", "NAME": "MONTICELLO", "TYPE": "DR", "SUFFIX": "N", "CFCC": "A40", "TRACT90_L": "006101", "TRACT90_R": "006101", "BLOCK90_L": "208", "BLOCK90_R": "101", "L_F_IADD": 0, "L_T_IADD": 0, "R_F_IADD": 0, "R_T_IADD": 0, "FIPMCD90_L": "73000", "FIPMCD90_R": "73000", "FIPPLC90_L": "73000", "FIPPLC90_R": "73000", "FULLNAME": "MONTICELLO DR N", "PAVE2": 0, "ST_FLAG": 1, "LINECODE": 15, "BLKSTREET": "  400 MONTICELLO DR N", "BG_L": "2", "BG_R": "1", "CTBNABG_L": "0061012", "CTBNABG_R": "0061011", "CITYST_I_1": 5304, "BLK": "400", "Status": " ", "Start_Date": null, "End_Date": null, "ProposeEnd": null, "ProposeSrt": null, "ID": 0, "FID_1": 0, "GDT_ID2_1": 0, "StreetName": " ", "Intersecti": " ", "Intersec_1": " ", "Rationale": " ", "Additions": " ", "Interventi": "0", "RepairEsti": 0, "AvgDPWRati": " ", "Rating": " ", "PCI": " ", "SewerConfl": " ", "Engineerin": " ", "NationalGr": " ", "RoadRating": 0, "RiskScore": 0, "M___P_Rank": " ", "F5_Year_Pla": " ", "M_P_Rank": " ", "Sheet1_Yea": 0, "CAMP_Ratin": " ", "Shape__Length": 177.9178882337251, "CreationDate": 1487687799250, "Creator": "sbartlett_syr", "EditDate": 1487862385237, "Editor": "sbartlett_syr", "Intervention2": null, "Intervention2Intersection1": null, "Intervention2Intersection2b": null, "CurrentStatus": " ", "TypeLastCityProject": null, "Sewer_Grant": null}}, {"type": "Feature", "id": 5443, "geometry": {"type": "LineString", "coordinates": [[-76.1396846166603, 43.0043653702285], [-76.1386587724515, 43.0044107833486]]}, "properties": {"FID": 5443, "FNODE_": 3547, "TNODE_": 3546, "LPOLY_": 1874, "RPOLY_": 1882, "LENGTH": 274.902, "CITYST_": 5405, "CITYST_ID": 5303, "FNODE_1": 3548, "TNODE_1": 3547, "LPOLY_1": 0, "RPOLY_1": 0, "CITYST2_": 5303, "CITYST2_ID": 23057, "LTYPE": 1, "GDT_ID2": 12576644, "GDT_": 20732, "RECNUM": 12576644, "L_F_ADD": 401, "L_T_ADD": 499, "R_F_ADD": 400, "R_T_ADD": 498, "PREFIX": " ", "NAME": "CLARENCE", "TYPE": "AVE", "SUFFIX": " ", "CFCC": "A40", "TRACT90_L": "006101", "TRACT90_R": "006101", "BLOCK90_L": "208", "BLOCK90_R": "213", "L_F_IADD": 0, "L_T_IADD": 0, "R_F_IADD": 0, "R_T_IADD": 0, "FIPMCD90_L": "73000", "FIPMCD90_R": "73000", "FIPPLC90_L": "73000", "FIPPLC90_R": "73000", "FULLNAME": "CLARENCE AV", "PAVE2": 0, "ST_FLAG": 1, "LINECODE": 15, "BLKSTREET": "  400 CLARENCE AV", "BG_L": "2", "BG_R": "2", "CTBNABG_L": "0061012", "CTBNABG_R": "0061012", "CITYST_I_1": 5303, "BLK": "400", "Status": "Planned", "Start_Date": null, "End_Date": null, "ProposeEnd": null, "ProposeSrt": null, "ID": 0, "FID_1": 0, "GDT_ID2_1": 0, "StreetName": " ", "Intersecti": " ", "Intersec_1": " ", "Rationale": " ", "Additions": " ", "Interventi": "0", "RepairEsti": 0, "AvgDPWRati": " ", "Rating": " ", "PCI": " ", "SewerConfl": " ", "Engineerin": " ", "NationalGr": " ", "RoadRating": 0, "RiskScore": 0, "M___P_Rank": " ", "F5_Year_Pla": " ", "M_P_Rank": " ", "Sheet1_Yea": 2018, "CAMP_Ratin": " ", "Shape__Length": 114.40549633908643, "CreationDate": 1487687799250, "Creator": "sbartlett_syr", "EditDate": 1525294953665, "Editor": "samedelstein", "Intervention2": null, "Intervention2Intersection1": null, "Intervention2Intersection2b": null, "CurrentStatus": "Mill & Pave", "TypeLastCityProject": null, "Sewer_Grant": null}}, {"type": "Feature", "id": 2250, "geometry": {"type": "LineString", "coordinates": [[-76.1811568386357, 43.0473290694205], [-76.1851401248032, 43.045819107541]]}, "properties": {"FID": 2250, "FNODE_": 1790, "TNODE_": 1878, "LPOLY_": 1074, "RPOLY_": 1041, "LENGTH": 1198.56, "CITYST_": 2926, "CITYST_ID": 2586, "FNODE_1": 1791, "TNODE_1": 1879, "LPOLY_1": 0, "RPOLY_1": 0, "CITYST2_": 2586, "CITYST2_ID": 16741, "LTYPE": 1, "GDT_ID2": 12573384, "GDT_": 21990, "RECNUM": 12573384, "L_F_ADD": 201, "L_T_ADD": 399, "R_F_ADD": 200, "R_T_ADD": 398, "PREFIX": " ", "NAME": "TENNYSON", "TYPE": "AVE", "SUFFIX": " ", "CFCC": "A40", "TRACT90_L": "0028", "TRACT90_R": "0028", "BLOCK90_L": "107", "BLOCK90_R": "106", "L_F_IADD": 0, "L_T_IADD": 0, "R_F_IADD": 0, "R_T_IADD": 0, "FIPMCD90_L": "73000", "FIPMCD90_R": "73000", "FIPPLC90_L": "73000", "FIPPLC90_R": "73000", "FULLNAME": "TENNYSON AV", "PAVE2": 0, "ST_FLAG": 1, "LINECODE": 15, "BLKSTREET": "  200 TENNYSON AV", "BG_L": "1", "BG_R": "1", "CTBNABG_L": "00281", "CTBNABG_R": "00281", "CITYST_I_1": 2586, "BLK": "200", "Status": " ", "Start_Date": null, "End_Date": null, "ProposeEnd": null, "ProposeSrt": null, "ID": 0, "FID_1": 0, "GDT_ID2_1": 0, "StreetName": " ", "Intersecti": " ", "Intersec_1": " ", "Rationale": " ", "Additions": " ", "Interventi": "0", "RepairEsti": 0, "AvgDPWRati": " ", "Rating": " ", "PCI": " ", "SewerConfl": " ", "Engineerin": " ", "NationalGr": " ", "RoadRating": 0, "RiskScore": 0, "M___P_Rank": " ", "F5_Year_Pla": " ", "M_P_Rank": " ", "Sheet1_Yea": 0, "CAMP_Ratin": " ", "Shape__Length": 499.5215195133576, "CreationDate": 1487687799250, "Creator": "sbartlett_syr", "EditDate": 1487862385237, "Editor": "sbartlett_syr", "Intervention2": null, "Intervention2Intersection1": null, "Intervention2Intersection2b": null, "CurrentStatus": " ", "TypeLastCityProject": null, "Sewer_Grant": null}}, {"type": "Feature", "id": 2253, "geometry": {"type": "LineString", "coordinates": [[-76.18557049971, 43.0465556153607], [-76.1854768147135, 43.0464352459866], [-76.1853155733855, 43.0463485972156], [-76.1851847246169, 43.0462987530306], [-76.1851101024715, 43.0462679682011], [-76.1850352997815, 43.046228951099], [-76.1850025209391, 43.0461996835788], [-76.1849758500036, 43.0461659785032], [-76.1849596351992, 43.0461062430536], [-76.1849661974822, 43.0460314955338], [-76.1849839426917, 43.0459629605895], [-76.1851401248032, 43.045819107541]]}, "properties": {"FID": 2253, "FNODE_": 1846, "TNODE_": 1878, "LPOLY_": 1041, "RPOLY_": 1103, "LENGTH": 360.728, "CITYST_": 2927, "CITYST_ID": 2649, "FNODE_1": 1847, "TNODE_1": 1879, "LPOLY_1": 0, "RPOLY_1": 0, "CITYST2_": 2649, "CITYST2_ID": 16742, "LTYPE": 1, "GDT_ID2": 12572729, "GDT_": 21991, "RECNUM": 12572729, "L_F_ADD": 101, "L_T_ADD": 199, "R_F_ADD": 100, "R_T_ADD": 198, "PREFIX": " ", "NAME": "BURNET PARK", "TYPE": "DR", "SUFFIX": " ", "CFCC": "A40", "TRACT90_L": "0028", "TRACT90_R": "0028", "BLOCK90_L": "106", "BLOCK90_R": "105", "L_F_IADD": 0, "L_T_IADD": 0, "R_F_IADD": 0, "R_T_IADD": 0, "FIPMCD90_L": "73000", "FIPMCD90_R": "73000", "FIPPLC90_L": "73000", "FIPPLC90_R": "73000", "FULLNAME": "BURNET PARK DR", "PAVE2": 0, "ST_FLAG": 1, "LINECODE": 15, "BLKSTREET": "  100 BURNET PARK DR", "BG_L": "1", "BG_R": "1", "CTBNABG_L": "00281", "CTBNABG_R": "00281", "CITYST_I_1": 2649, "BLK": "100", "Status": " ", "Start_Date": null, "End_Date": null, "ProposeEnd": null, "ProposeSrt": null, "ID": 0, "FID_1": 0, "GDT_ID2_1": 0, "StreetName": " ", "Intersecti": " ", "Intersec_1": " ", "Rationale": " ", "Additions": " ", "Interventi": "0", "RepairEsti": 0, "AvgDPWRati": " ", "Rating": " ", "PCI": " ", "SewerConfl": " ", "Engineerin": " ", "NationalGr": " ", "RoadRating": 0, "RiskScore": 0, "M___P_Rank": " ", "F5_Year_Pla": " ", "M_P_Rank": " ", "Sheet1_Yea": 0, "CAMP_Ratin": " ", "Shape__Length": 150.54330438407018, "CreationDate": 1487687799250, "Creator": "sbartlett_syr", "EditDate": 1487862385237, "Editor": "sbartlett_syr", "Intervention2": null, "Intervention2Intersection1": null, "Intervention2Intersection2b": null, "CurrentStatus": " ", "TypeLastCityProject": null, "Sewer_Grant": null}}, {"type": "Feature", "id": 2388, "geometry": {"type": "LineString", "coordinates": [[-76.1851401248032, 43.045819107541], [-76.1855130507425, 43.0456753210481]]}, "properties": {"FID": 2388, "FNODE_": 1878, "TNODE_": 1894, "LPOLY_": 1074, "RPOLY_": 1103, "LENGTH": 112.621, "CITYST_": 2949, "CITYST_ID": 2585, "FNODE_1": 1879, "TNODE_1": 1895, "LPOLY_1": 0, "RPOLY_1": 0, "CITYST2_": 2585, "CITYST2_ID": 16772, "LTYPE": 1, "GDT_ID2": 12572727, "GDT_": 22000, "RECNUM": 12572727, "L_F_ADD": 401, "L_T_ADD": 409, "R_F_ADD": 400, "R_T_ADD": 410, "PREFIX": " ", "NAME": "TENNYSON", "TYPE": "AVE", "SUFFIX": " ", "CFCC": "A40", "TRACT90_L": "0028", "TRACT90_R": "0028", "BLOCK90_L": "107", "BLOCK90_R": "105", "L_F_IADD": 0, "L_T_IADD": 0, "R_F_IADD": 0, "R_T_IADD": 0, "FIPMCD90_L": "73000", "FIPMCD90_R": "73000", "FIPPLC90_L": "73000", "FIPPLC90_R": "73000", "FULLNAME": "TENNYSON AV", "PAVE2": 0, "ST_FLAG": 1, "LINECODE": 15, "BLKSTREET": "  400 TENNYSON AV", "BG_L": "1", "BG_R": "1", "CTBNABG_L": "00281", "CTBNABG_R": "00281", "CITYST_I_1": 2585, "BLK": "400", "Status": " ", "Start_Date": null, "End_Date": null, "ProposeEnd": null, "ProposeSrt": null, "ID": 0, "FID_1": 0, "GDT_ID2_1": 0, "StreetName": " ", "Intersecti": " ", "Intersec_1": " ", "Rationale": " ", "Additions": " ", "Interventi": "0", "RepairEsti": 0, "AvgDPWRati": " ", "Rating": " ", "PCI": " ", "SewerConfl": " ", "Engineerin": " ", "NationalGr": " ", "RoadRating": 0, "RiskScore": 0, "M___P_Rank": " ", "F5_Year_Pla": " ", "M_P_Rank": " ", "Sheet1_Yea": 0, "CAMP_Ratin": " ", "Shape__Length": 46.93727024913901, "CreationDate": 1487687799250, "Creator": "sbartlett_syr", "EditDate": 1487862385237, "Editor": "sbartlett_syr", "Intervention2": null, "Intervention2Intersection1": null, "Intervention2Intersection2b": null, "CurrentStatus": " ", "TypeLastCityProject": null, "Sewer_Grant": null}}, {"type": "Feature", "id": 3113, "geometry": {"type": "LineString", "coordinates": [[-76.1855130507425, 43.0456753210481], [-76.1894748079158, 43.0441713067088]]}, "properties": {"FID": 3113, "FNODE_": 1894, "TNODE_": 1997, "LPOLY_": 1125, "RPOLY_": 1103, "LENGTH": 1192.48, "CITYST_": 3107, "CITYST_ID": 2583, "FNODE_1": 1895, "TNODE_1": 1998, "LPOLY_1": 0, "RPOLY_1": 0, "CITYST2_": 2583, "CITYST2_ID": 17092, "LTYPE": 1, "GDT_ID2": 12572703, "GDT_": 22032, "RECNUM": 12572703, "L_F_ADD": 411, "L_T_ADD": 599, "R_F_ADD": 412, "R_T_ADD": 598, "PREFIX": " ", "NAME": "TENNYSON", "TYPE": "AVE", "SUFFIX": " ", "CFCC": "A40", "TRACT90_L": "0028", "TRACT90_R": "0028", "BLOCK90_L": "203", "BLOCK90_R": "105", "L_F_IADD": 0, "L_T_IADD": 0, "R_F_IADD": 0, "R_T_IADD": 0, "FIPMCD90_L": "73000", "FIPMCD90_R": "73000", "FIPPLC90_L": "73000", "FIPPLC90_R": "73000", "FULLNAME": "TENNYSON AV", "PAVE2": 0, "ST_FLAG": 1, "LINECODE": 15, "BLKSTREET": "  400 TENNYSON AV", "BG_L": "2", "BG_R": "1", "CTBNABG_L": "00282", "CTBNABG_R": "00281", "CITYST_I_1": 2583, "BLK": "400", "Status": " ", "Start_Date": null, "End_Date": null, "ProposeEnd": null, "ProposeSrt": null, "ID": 0, "FID_1": 0, "GDT_ID2_1": 0, "StreetName": " ", "Intersecti": " ", "Intersec_1": " ", "Rationale": " ", "Additions": " ", "Interventi": "0", "RepairEsti": 0, "AvgDPWRati": " ", "Rating": " ", "PCI": " ", "SewerConfl": " ", "Engineerin": " ", "NationalGr": " ", "RoadRating": 0, "RiskScore": 0, "M___P_Rank": " ", "F5_Year_Pla": " ", "M_P_Rank": " ", "Sheet1_Yea": 0, "CAMP_Ratin": " ", "Shape__Length": 496.9741933289708, "CreationDate": 1487687799250, "Creator": "sbartlett_syr", "EditDate": 1487862385237, "Editor": "sbartlett_syr", "Intervention2": null, "Intervention2Intersection1": null, "Intervention2Intersection2b": null, "CurrentStatus": " ", "TypeLastCityProject": null, "Sewer_Grant": null}}, {"type": "Feature", "id": 3628, "geometry": {"type": "LineString", "coordinates": [[-76.1855130507425, 43.0456753210481], [-76.1858902210921, 43.0451268278374], [-76.1859289876232, 43.045061452499], [-76.1859518331831, 43.044999451764], [-76.1859542292914, 43.0449541862838], [-76.1859442315079, 43.0449092208023], [-76.1859222787242, 43.0448690156211], [-76.1858679000657, 43.0448173795103], [-76.1857867372597, 43.0447858864591], [-76.185600523231, 43.0447653471898]]}, "properties": {"FID": 3628, "FNODE_": 1894, "TNODE_": 1944, "LPOLY_": 1074, "RPOLY_": 1125, "LENGTH": 420.836, "CITYST_": 3028, "CITYST_ID": 2584, "FNODE_1": 1895, "TNODE_1": 1945, "LPOLY_1": 0, "RPOLY_1": 0, "CITYST2_": 2584, "CITYST2_ID": 16952, "LTYPE": 1, "GDT_ID2": 12572726, "GDT_": 22018, "RECNUM": 12572726, "L_F_ADD": 201, "L_T_ADD": 299, "R_F_ADD": 200, "R_T_ADD": 298, "PREFIX": " ", "NAME": "BURNET PARK", "TYPE": "DR", "SUFFIX": " ", "CFCC": "A40", "TRACT90_L": "0028", "TRACT90_R": "0028", "BLOCK90_L": "107", "BLOCK90_R": "203", "L_F_IADD": 0, "L_T_IADD": 0, "R_F_IADD": 0, "R_T_IADD": 0, "FIPMCD90_L": "73000", "FIPMCD90_R": "73000", "FIPPLC90_L": "73000", "FIPPLC90_R": "73000", "FULLNAME": "BURNET PARK DR", "PAVE2": 0, "ST_FLAG": 1, "LINECODE": 15, "BLKSTREET": "  200 BURNET PARK DR", "BG_L": "1", "BG_R": "2", "CTBNABG_L": "00281", "CTBNABG_R": "00282", "CITYST_I_1": 2584, "BLK": "200", "Status": " ", "Start_Date": null, "End_Date": null, "ProposeEnd": null, "ProposeSrt": null, "ID": 0, "FID_1": 0, "GDT_ID2_1": 0, "StreetName": " ", "Intersecti": " ", "Intersec_1": " ", "Rationale": " ", "Additions": " ", "Interventi": "0", "RepairEsti": 0, "AvgDPWRati": " ", "Rating": " ", "PCI": " ", "SewerConfl": " ", "Engineerin": " ", "NationalGr": " ", "RoadRating": 0, "RiskScore": 0, "M___P_Rank": " ", "F5_Year_Pla": " ", "M_P_Rank": " ", "Sheet1_Yea": 0, "CAMP_Ratin": " ", "Shape__Length": 175.6895712806466, "CreationDate": 1487687799250, "Creator": "sbartlett_syr", "EditDate": 1487862385237, "Editor": "sbartlett_syr", "Intervention2": null, "Intervention2Intersection1": null, "Intervention2Intersection2b": null, "CurrentStatus": " ", "TypeLastCityProject": null, "Sewer_Grant": null}}]}