{"type": "FeatureCollection", "features": [{"type": "Feature", "id": 55, "geometry": {"type": "Polygon", "coordinates": [[[-76.15759160849727, 43.08275148321604], [-76.15775906344938, 43.08286234576019], [-76.15858430168345, 43.083434499901905], [-76.1593394497658, 43.08395534134431], [-76.15948712830692, 43.084056624813094], [-76.15952991147066, 43.08408586790272], [-76.15957034374328, 43.084113502911386], [-76.159910272535, 43.0843480696437], [-76.16072852906268, 43.08490962606737], [-76.16127833844074, 43.08528916970207], [-76.1620820530406, 43.08584232573908], [-76.16246430685526, 43.08610861971089], [-76.1624843518625, 43.08612258470312], [-76.16256070417006, 43.08606115603366], [-76.16262952949388, 43.08597566345688], [-76.16273268303796, 43.08585933297659], [-76.16283406061271, 43.08576562417414], [-76.16295188634032, 43.08564220183776], [-76.16316616058674, 43.08540785262806], [-76.1633519384757, 43.085234985879495], [-76.16346141076949, 43.08510128177149], [-76.16366284449721, 43.0848622756187], [-76.1637758435768, 43.08469154287074], [-76.16391385534716, 43.084557941893564], [-76.16398558761924, 43.08446868655534], [-76.16414949781924, 43.084276875348365], [-76.16422306175616, 43.08415915730144], [-76.16432737412696, 43.08402680566509], [-76.16465494030373, 43.08367919205907], [-76.16487184930888, 43.083399426452594], [-76.16497593350759, 43.08326570127991], [-76.16504625183138, 43.083143171446814], [-76.16518327006506, 43.08292557534813], [-76.16521476769385, 43.08283280028064], [-76.16538703761589, 43.082505534196194], [-76.1653974652597, 43.08248572315334], [-76.16545350576038, 43.082450987054415], [-76.16547577948786, 43.082437181314596], [-76.16564549370293, 43.08232704693396], [-76.16573399123313, 43.08221423281668], [-76.16582412100222, 43.08210023421739], [-76.16590102846862, 43.08201953357862], [-76.16597793413841, 43.08193883086518], [-76.16607440062353, 43.08184867415213], [-76.16617962568263, 43.08173687875138], [-76.16632344595963, 43.08161116633757], [-76.16642638660298, 43.08152460399006], [-76.16665322468695, 43.081375375312504], [-76.16686218809339, 43.081226080659775], [-76.16696672504301, 43.081143097547645], [-76.16717440475692, 43.080943781069614], [-76.16738520701475, 43.08076233670864], [-76.16756659214197, 43.0806069871656], [-76.1677122252192, 43.08045269687104], [-76.16782817346788, 43.080363799045756], [-76.16794739697407, 43.080271340945174], [-76.16806029544234, 43.08015265987852], [-76.16818312568441, 43.080006624525176], [-76.16831549693309, 43.079891586443004], [-76.16845128177987, 43.07975155014612], [-76.16851167551641, 43.07967978164134], [-76.16861014075303, 43.07956277126044], [-76.16876245999092, 43.079379921957674], [-76.16893609804714, 43.079167379199234], [-76.16902192398769, 43.07908661236404], [-76.16904073470974, 43.079068911674604], [-76.16918475081945, 43.07891223374374], [-76.16931921334613, 43.07872693770797], [-76.16942251241728, 43.0785855936763], [-76.16952077643126, 43.07846804775866], [-76.16964036016188, 43.07832080763905], [-76.16976976427519, 43.07816288504755], [-76.17001888866304, 43.07783628363538], [-76.17021669589198, 43.077643488427185], [-76.17106707617423, 43.07705762088906], [-76.17127382792843, 43.07691517590187], [-76.1714396218956, 43.07698122262744], [-76.17166431929424, 43.077070732966035], [-76.17196243420443, 43.077190299913134], [-76.17211310593208, 43.07725157671844], [-76.17222789535404, 43.07729764304054], [-76.17414709475459, 43.07806741058118], [-76.17472004922594, 43.07829720598631], [-76.1748633969891, 43.078353872246694], [-76.17489290844281, 43.07831348699394], [-76.17589556664045, 43.07875888271577], [-76.17618407496698, 43.07898419670917], [-76.1762479056578, 43.07903404503491], [-76.17626660858203, 43.07902134149753], [-76.17663794517102, 43.07876911264724], [-76.17679746530422, 43.07865966259305], [-76.1768722832893, 43.078608176880856], [-76.17692946375207, 43.07856882916173], [-76.1770139125753, 43.078511153291295], [-76.17707532410309, 43.07846853002637], [-76.17726364332597, 43.078338959318245], [-76.17730147587416, 43.07831404865683], [-76.17734372004873, 43.078284337602895], [-76.17740971927263, 43.07823897738272], [-76.17765304144208, 43.07807127137265], [-76.17785631581782, 43.07793199664514], [-76.17834162436188, 43.07759882260169], [-76.17851064507752, 43.077472912068025], [-76.17970535320143, 43.07657309936405], [-76.18543541175143, 43.07225752376807], [-76.18597559298627, 43.0718506427629], [-76.19314709542768, 43.06657274762745], [-76.19463938486248, 43.06548497904973], [-76.1955649765919, 43.065103046569], [-76.19574899468122, 43.0650218569222], [-76.19593836133976, 43.064938306487676], [-76.19612433685808, 43.06485833470115], [-76.19757001720437, 43.06431219537167], [-76.19786315454957, 43.064201066279146], [-76.19825455770538, 43.06405473695409], [-76.19832428403943, 43.064029575029636], [-76.19937342735805, 43.063632150582556], [-76.1996467011557, 43.06352715016058], [-76.19969827523279, 43.063542022064595], [-76.19993956900632, 43.063598884421744], [-76.20018428536105, 43.06364629461863], [-76.20037766748891, 43.06367505718942], [-76.20028208404773, 43.06353973221165], [-76.2001297279789, 43.0633240242673], [-76.20002853994868, 43.06318075716137], [-76.19989462000441, 43.0629911488419], [-76.19968360754082, 43.06269238755255], [-76.19902779606093, 43.06177090518822], [-76.19845935382722, 43.06097206674045], [-76.19840879035483, 43.06090041735457], [-76.19768849510888, 43.05985885990313], [-76.197439105718, 43.05951430824147], [-76.19756177875492, 43.05950849232847], [-76.19812153427979, 43.0596575773518], [-76.19958245274825, 43.06003312208918], [-76.19962818957265, 43.059942837977246], [-76.19989419420298, 43.06001201275211], [-76.20006765349446, 43.060057120643854], [-76.20005228242164, 43.059865471930294], [-76.20004902063884, 43.05982480473584], [-76.2000280288073, 43.059638193424774], [-76.20000483251002, 43.05934081973188], [-76.19985388589788, 43.057406410241896], [-76.1997931373268, 43.05672976831922], [-76.19974024542117, 43.05600991424055], [-76.1997141870914, 43.05569393004011], [-76.19963970866952, 43.05468483443277], [-76.19907786635822, 43.054669737203845], [-76.19890239034895, 43.05442111550296], [-76.19822469231545, 43.053465389082284], [-76.19764604881338, 43.05264932882548], [-76.19733626388935, 43.05217190726286], [-76.19626181952071, 43.050677630981106], [-76.19562003613228, 43.049697615833196], [-76.19560773100953, 43.04952694594486], [-76.19559768694634, 43.049387623422504], [-76.19555268494388, 43.049300787113374], [-76.19550622677232, 43.0485620347801], [-76.19550117644378, 43.04848172718542], [-76.19523893036458, 43.04858684856026], [-76.19516925792946, 43.04846531483749], [-76.19392452801728, 43.046686252256734], [-76.19391333590714, 43.046670254328184], [-76.1948290443718, 43.04631310928474], [-76.19491018110656, 43.04628146379506], [-76.1939724549343, 43.044940608704785], [-76.193140543116, 43.0437820034801], [-76.19306428423322, 43.04367405937406], [-76.19263336149311, 43.04306407598392], [-76.1923054943807, 43.04257953064101], [-76.19227008548715, 43.042527199866875], [-76.19314908070446, 43.0424814619407], [-76.19508539660443, 43.0424238374624], [-76.1950863416321, 43.04242379807047], [-76.19530256432435, 43.04239280645066], [-76.19548607396725, 43.04234568248261], [-76.1956222989885, 43.042292081116116], [-76.19572377807287, 43.04224443643899], [-76.19579396614097, 43.04220270972953], [-76.19585919011881, 43.04216422299285], [-76.19592897484334, 43.042130310971906], [-76.19601120662445, 43.04209897058325], [-76.19609734967031, 43.04207390994719], [-76.19618651285214, 43.04205538643359], [-76.19627777988839, 43.042043594383195], [-76.19637020575134, 43.04203865263299], [-76.19661689121318, 43.0420265730163], [-76.19710306303821, 43.0420027742146], [-76.1976246904692, 43.04197723558017], [-76.19784587455676, 43.0419664073115], [-76.19801799356182, 43.04195797999817], [-76.19821217249533, 43.04194847202305], [-76.19895312000966, 43.04191218912461], [-76.19907813944607, 43.041906065595526], [-76.19909965050385, 43.041905011852144], [-76.19921756965626, 43.04189923760056], [-76.19974665130746, 43.041877388668084], [-76.1997054410938, 43.0419414326277], [-76.19962949841799, 43.042059455645706], [-76.19952294025899, 43.0422297202204], [-76.19949468734501, 43.04238726334453], [-76.19947221508984, 43.04255041086989], [-76.19945285549716, 43.04271032652409], [-76.19945876192017, 43.042875132892085], [-76.199469155428, 43.04304002941788], [-76.19947655934257, 43.04320486641333], [-76.1994840018847, 43.04336860591718], [-76.19949439718916, 43.04353350177315], [-76.19950196010554, 43.043693950584185], [-76.19951247847919, 43.04393680297601], [-76.19946594844242, 43.0439402733206], [-76.19947023520295, 43.04402709489695], [-76.19948120992079, 43.04419386464198], [-76.19949738678244, 43.04434333353557], [-76.19970468650897, 43.04433956187482], [-76.1997617241396, 43.04434332500092], [-76.19986754298515, 43.04436077442714], [-76.19994341559234, 43.04438307940717], [-76.20003781146073, 43.04442632248706], [-76.20012832660707, 43.044486949932256], [-76.20017244915888, 43.04452816563647], [-76.20021789852237, 43.04458339975746], [-76.20027135456998, 43.04465541484523], [-76.20031171677401, 43.04470978948274], [-76.200374593454, 43.04479060358713], [-76.2004217415317, 43.04484688919519], [-76.20047665285006, 43.04489925081592], [-76.20053872553787, 43.04494711533011], [-76.20060623303317, 43.04499399308015], [-76.20071959054054, 43.04507814775903], [-76.2007784032422, 43.04514149839238], [-76.20082958295887, 43.04520831857665], [-76.20087274880491, 43.04527811592414], [-76.20090758547164, 43.0453503737583], [-76.20093383424424, 43.045424557679254], [-76.20095985753971, 43.0455765057958], [-76.20096465544164, 43.04568945563012], [-76.20099027449523, 43.04617131892941], [-76.20099027629185, 43.04626134365198], [-76.20098072360712, 43.04635109448595], [-76.20096167213657, 43.04644002785924], [-76.20093323955952, 43.046527604141986], [-76.20089559655585, 43.04661329027197], [-76.20071218213441, 43.04698105481729], [-76.20060831263305, 43.04718932061316], [-76.20084338287828, 43.04717104679412], [-76.20178139740975, 43.047098122149045], [-76.20258845374248, 43.04703613179974], [-76.20292320015331, 43.04701117493536], [-76.20322518680238, 43.0469905692338], [-76.20345902994892, 43.0469865436767], [-76.20362070693713, 43.04698863523333], [-76.20379926326953, 43.04699756275246], [-76.20393883092196, 43.04700993352543], [-76.20412219054619, 43.04702959519774], [-76.20431606315417, 43.047054036715586], [-76.20430150595499, 43.04692918996262], [-76.20426960857588, 43.0466555969421], [-76.20426479360596, 43.046603834224356], [-76.20426587427926, 43.046551957890394], [-76.20427284430754, 43.046500327695924], [-76.20428565338518, 43.046449302741124], [-76.20435422807903, 43.04629353010061], [-76.2044243209257, 43.04613430785204], [-76.20451151050885, 43.045936243686924], [-76.2045629408555, 43.04581424844762], [-76.20462850529482, 43.045471182312], [-76.20460711371297, 43.04513442653822], [-76.20459672828996, 43.04497092743277], [-76.20458596467623, 43.04480146483917], [-76.20457587569726, 43.044642632623045], [-76.20456577683684, 43.04447843630584], [-76.20455577679111, 43.04439772092342], [-76.20454092494451, 43.04431740853329], [-76.20452037867734, 43.044235077917016], [-76.204494580859, 43.044153546824155], [-76.2044273725027, 43.04399339070812], [-76.204370536993, 43.043833799435305], [-76.20431569933648, 43.043672362272396], [-76.204284667035, 43.04351092074548], [-76.20427276435747, 43.0433465631773], [-76.20426329970765, 43.04319664147956], [-76.2042529061998, 43.043032012580774], [-76.20423550313782, 43.04278949340636], [-76.20421762307038, 43.04254034953079], [-76.20420573566423, 43.042374676296554], [-76.20419392191994, 43.042210039939754], [-76.2041822644825, 43.042047592690146], [-76.20417037168644, 43.04188186166301], [-76.20415868011301, 43.041718918513325], [-76.2041495864674, 43.04156102176671], [-76.2041479928561, 43.0415333701965], [-76.20387899683584, 43.041542986565375], [-76.20324667809724, 43.04156558867012], [-76.20270526167886, 43.0415849369476], [-76.20247365623568, 43.04159321265111], [-76.2019472021567, 43.04161202386923], [-76.20140860375336, 43.041631267085506], [-76.20118280142691, 43.041639332689726], [-76.20085804518035, 43.04165093376447], [-76.20054056349095, 43.04166227353391], [-76.19991564776859, 43.04168824036372], [-76.19932660447051, 43.04171271421054], [-76.19875261244498, 43.04174000788579], [-76.19849739927614, 43.04175259769018], [-76.1982036672462, 43.04176708554745], [-76.19796046095946, 43.04177908052163], [-76.19771645696872, 43.041791114885804], [-76.19747468439314, 43.04180303960565], [-76.19722514947522, 43.041815345772235], [-76.19706009482154, 43.041823484884624], [-76.19658692341531, 43.04184681827002], [-76.19636114534337, 43.041857950537064], [-76.19598394365389, 43.0418747690804], [-76.19559630893067, 43.04189205047849], [-76.1954063853167, 43.041900517193135], [-76.19505537760257, 43.04191490390864], [-76.19493061957591, 43.04192245868919], [-76.19494817624982, 43.04221444003506], [-76.19494848886356, 43.04221962797159], [-76.19414922811087, 43.042255346068785], [-76.1931341255516, 43.04230070206094], [-76.19254034543701, 43.04232450928206], [-76.19215003732752, 43.042340157755135], [-76.18980830545162, 43.042441688575806], [-76.18973823326621, 43.04219666370055], [-76.18971320440575, 43.04211439917444], [-76.18939362694678, 43.041064007232166], [-76.18921637137494, 43.040477921382184], [-76.1891582773255, 43.04028583527446], [-76.18904355258225, 43.0399091092641], [-76.18894075926262, 43.03961095051234], [-76.1887999699014, 43.03920766748879], [-76.18873299420876, 43.03902388825247], [-76.1886569608031, 43.038815255944655], [-76.18858279140167, 43.038611729097425], [-76.18854386740043, 43.03850400897844], [-76.18849671303451, 43.03837350680949], [-76.18844858938644, 43.03824032946763], [-76.18840089153979, 43.03810446052105], [-76.18835451780987, 43.037972363982576], [-76.18829728883807, 43.03780935004468], [-76.18808807659829, 43.03721339478953], [-76.18827709201554, 43.03719393088714], [-76.18888998468613, 43.037131132774064], [-76.18872894819673, 43.03653786428624], [-76.18891408828183, 43.036487350412735], [-76.18918839514204, 43.036401944951585], [-76.18914822158423, 43.03628739889977], [-76.18914515653248, 43.03627940087821], [-76.18913567481464, 43.03625465959832], [-76.18890236436907, 43.03564584276979], [-76.18887907285037, 43.03558824732819], [-76.188742753506, 43.03525300725887], [-76.18806058904892, 43.033473906905776], [-76.18771072219522, 43.032596594185684], [-76.18764834497851, 43.032440178981005], [-76.18762599399592, 43.032384132170705], [-76.1938058991958, 43.032162652410264], [-76.19383309928428, 43.03216167729663], [-76.1941122615386, 43.032151664158754], [-76.19418435942501, 43.03212241139331], [-76.19474409878022, 43.03189529404746], [-76.19580832301584, 43.03146511845254], [-76.19579465694541, 43.031316651754715], [-76.1957318727919, 43.030634537033094], [-76.19571622234302, 43.03055618579859], [-76.19567745375029, 43.03031342556705], [-76.19563794494579, 43.02972332854315], [-76.1955650358807, 43.0286069533947], [-76.19558769857869, 43.02847820124854], [-76.1955068250503, 43.02699340776796], [-76.19672132755149, 43.02676060018182], [-76.19697512767041, 43.028356575812424], [-76.1969779546686, 43.02835618968289], [-76.19724457913648, 43.02831980352808], [-76.19789702103577, 43.028252193347164], [-76.19825610729924, 43.0282209364925], [-76.19856584371426, 43.02819785206254], [-76.19892383493139, 43.02818155052147], [-76.19929375577551, 43.02816528509371], [-76.19954526159718, 43.02816741406636], [-76.19968663396502, 43.028138877815586], [-76.19968350603119, 43.02804778302721], [-76.19967925969485, 43.0278655188391], [-76.19966039776882, 43.02749860898723], [-76.19972900659866, 43.02749498207663], [-76.20088444846317, 43.027433887350114], [-76.20086885550647, 43.02668992149108], [-76.20086787813945, 43.026643306227434], [-76.20160329382826, 43.02661796609119], [-76.20288377579044, 43.02657180586743], [-76.20362617947384, 43.02654576303021], [-76.2034557367251, 43.024104901818525], [-76.20338146581405, 43.02307166101467], [-76.20334643600954, 43.022605400500325], [-76.20243080839327, 43.02263808863281], [-76.20123820771701, 43.02340963659687], [-76.20116073251533, 43.023459757998964], [-76.2011475650099, 43.023468276512], [-76.20028846837445, 43.02271506293275], [-76.1996878727418, 43.022732756907395], [-76.19820921973299, 43.02278338849433], [-76.19748203440882, 43.02281204216467], [-76.19748294530051, 43.02270234115759], [-76.19748504556163, 43.022449484574324], [-76.19420963622046, 43.02250558314476], [-76.19423988159777, 43.02283167481382], [-76.19431485409307, 43.02363999611158], [-76.19376143977574, 43.02540366897512], [-76.19371360358856, 43.025548994470164], [-76.19369111516374, 43.02554975297358], [-76.19349196495345, 43.02555646917654], [-76.185298049463, 43.02586262664145], [-76.18528729483242, 43.02571553927619], [-76.18526335652673, 43.02535780533013], [-76.18524991413682, 43.025352734833454], [-76.18435793287378, 43.02501630535682], [-76.18296976177365, 43.02448446470605], [-76.1827679687198, 43.0244086964018], [-76.18244277948527, 43.024464322310436], [-76.18243083818018, 43.024324846333755], [-76.1823903493137, 43.02385190324744], [-76.18222278566545, 43.02386858815574], [-76.18114781847733, 43.02397561747238], [-76.18112840498573, 43.023881976927754], [-76.1808828612826, 43.02269762311276], [-76.18072493206576, 43.021935838008446], [-76.17871553462416, 43.019759462531745], [-76.17839484505087, 43.01941210710422], [-76.177725693589, 43.01868729575369], [-76.17765834868877, 43.018631271195275], [-76.17758559593054, 43.01857934493997], [-76.17744763446585, 43.01843195770524], [-76.17737158758545, 43.018464283541974], [-76.17645303146136, 43.01885473992256], [-76.17581100193453, 43.01912737584395], [-76.17513993616278, 43.01907408849861], [-76.17513844495943, 43.019073969621026], [-76.17484404907451, 43.0183919520122], [-76.1748444775709, 43.01839156976069], [-76.1751545005485, 43.01811365521512], [-76.1751615999342, 43.018107290238774], [-76.17523658590423, 43.01805753818232], [-76.17531809454152, 43.01800304666258], [-76.17540486461144, 43.01795068901893], [-76.17551688003579, 43.017884663429506], [-76.17599004695046, 43.01750525086755], [-76.17571792748795, 43.01740433887292], [-76.17494904685987, 43.017119204877176], [-76.17473235255208, 43.017039455789664], [-76.1731865513741, 43.016470375195816], [-76.17270200639807, 43.01646248822], [-76.17199442680496, 43.016450546096664], [-76.17133226872757, 43.01643936784151], [-76.17099147036666, 43.01643350974926], [-76.17085053547837, 43.0145507107088], [-76.17084756115645, 43.014506113208554], [-76.17084305880024, 43.01444968876579], [-76.17077683499751, 43.01361992806008], [-76.1707372911587, 43.01292832754958], [-76.17058581454054, 43.01118884670824], [-76.17056377706999, 43.01087536619731], [-76.17049685347965, 43.00992338156489], [-76.17048940195434, 43.00981736234062], [-76.17047247679609, 43.00982807081739], [-76.16959809352946, 43.010381313302545], [-76.16928491387196, 43.01059308161711], [-76.16888068277387, 43.01085838676469], [-76.16846825454884, 43.01113557020934], [-76.1676894196891, 43.011628015607705], [-76.16767876656813, 43.011497129831], [-76.16730875409586, 43.0098142079969], [-76.16624060781571, 43.010109244848294], [-76.16618117168325, 43.010102662929384], [-76.16616277418623, 43.01010062595011], [-76.16595514208302, 43.01080846790188], [-76.1656609456241, 43.01121636941076], [-76.16561931949047, 43.01127408428085], [-76.16500338242939, 43.011406411036184], [-76.16455847920852, 43.0114440867862], [-76.16453419684808, 43.011196286378414], [-76.16138976187531, 43.01106670028003], [-76.1613736443025, 43.01102302117913], [-76.1612420662662, 43.010666427347566], [-76.16107277695428, 43.01022419381052], [-76.1606213384897, 43.00904487435983], [-76.15971827021943, 43.00654803463223], [-76.15971612594083, 43.00652024444358], [-76.15970926999859, 43.00557024586336], [-76.15969962748234, 43.00423404516551], [-76.16007772299552, 43.00369476392838], [-76.16008775897389, 43.003680448401184], [-76.16061083987897, 43.00394588851753], [-76.16134625466948, 43.004278572605834], [-76.16211655194077, 43.00460440829575], [-76.16263443070207, 43.00480382907329], [-76.16308926120514, 43.00496351330192], [-76.16345880116357, 43.00509499767072], [-76.16378727913037, 43.00521238863028], [-76.1640841911964, 43.00531572042174], [-76.16443478748212, 43.00544016176854], [-76.16468759855589, 43.005510798571805], [-76.16489947070724, 43.00554875187675], [-76.16507034374898, 43.00556331857152], [-76.16522607299171, 43.005563887470046], [-76.16525080900138, 43.00556397746901], [-76.16561116009275, 43.005555003192576], [-76.1651812219062, 42.99987051086809], [-76.16512283859925, 42.99909849697937], [-76.16505681242587, 42.99822540111026], [-76.1639493037666, 42.998296070518165], [-76.16394476817273, 42.99760210698675], [-76.16384802949808, 42.996728273044916], [-76.16494464608455, 42.99668332817986], [-76.1644073385603, 42.99138878728574], [-76.16367452439253, 42.984166130417066], [-76.16298647237709, 42.984194029289924], [-76.15739375725087, 42.9844192293904], [-76.15049282557644, 42.984688728471234], [-76.14999177765029, 42.98470749141244], [-76.14958076966172, 42.98472230027922], [-76.1468623930518, 42.98481418417435], [-76.14354673110105, 42.98494041308369], [-76.1424199517823, 42.984988421611774], [-76.14218713900337, 42.98499280740872], [-76.14217925808339, 42.98489325158147], [-76.14216678946724, 42.9847357219001], [-76.14210516503877, 42.98454895647056], [-76.14203456015238, 42.98455160741927], [-76.13998240200493, 42.98462862616877], [-76.13730903638066, 42.98472903409026], [-76.13535847679351, 42.984792158522005], [-76.13560055749124, 42.98775957635846], [-76.13534053025077, 42.987770237424996], [-76.13387731748507, 42.987830215089396], [-76.13357117343288, 42.98784260830198], [-76.13325010836382, 42.98785551800531], [-76.13295181379057, 42.98786660552343], [-76.13001574035302, 42.987986241248], [-76.12868064171988, 42.98803963901868], [-76.12485974569378, 42.9881936203689], [-76.1256804609104, 42.99832624935215], [-76.12577807903568, 42.99953231966104], [-76.12578436275109, 42.99962160930042], [-76.12594521867915, 43.00180950228468], [-76.12615761095502, 43.004698080210304], [-76.12476282915271, 43.006948291047436], [-76.12438760735013, 43.00757033683308], [-76.12431566307565, 43.00768260709374], [-76.12423984885893, 43.00780091671377], [-76.12399000222557, 43.008159566853095], [-76.12257597042506, 43.00996764410007], [-76.12253199699359, 43.01002960358176], [-76.12245020359033, 43.01012947669051], [-76.12229613263763, 43.01033117531239], [-76.12223138207196, 43.010415943096106], [-76.12290463973301, 43.01087059469408], [-76.1230558603313, 43.01098279389257], [-76.12360676295907, 43.011406455046036], [-76.12409152622573, 43.01177924669794], [-76.1245598269665, 43.01242371320366], [-76.12516520702636, 43.013256803195056], [-76.12526673012819, 43.01339651056407], [-76.12357150318586, 43.013470219464594], [-76.11962421330097, 43.01365606873048], [-76.11778232830363, 43.01374632244436], [-76.11026925944175, 43.01415674113759], [-76.11024925845196, 43.01415783279707], [-76.11087869719175, 43.02130810570393], [-76.11098289278158, 43.022442555902465], [-76.11101796929846, 43.02311599550911], [-76.11108709735453, 43.023764024681455], [-76.11119658402134, 43.02490152790377], [-76.11124765234693, 43.02551210951932], [-76.11127450658404, 43.02587242212109], [-76.11131939450048, 43.02644642622118], [-76.11137255949393, 43.02719929522336], [-76.11140391069735, 43.02749928997691], [-76.11147986415294, 43.028268774616784], [-76.11154093072764, 43.02894669713983], [-76.11156657942563, 43.02921155919672], [-76.11157271042745, 43.029274872365676], [-76.11139978922684, 43.02928347675261], [-76.11091114883139, 43.02930778809568], [-76.11033844499, 43.029336280462644], [-76.10922187682107, 43.029389286382184], [-76.10810366293857, 43.029442960090606], [-76.10755054416698, 43.0294698731011], [-76.1075479525274, 43.02946999918192], [-76.10759289074949, 43.029845102304456], [-76.10787000484495, 43.032158080867134], [-76.10793641370066, 43.0327728321691], [-76.10760472964661, 43.03278841281828], [-76.10634143245582, 43.032853471572764], [-76.10499165085936, 43.03291712506122], [-76.1034099449178, 43.03299457500743], [-76.09891423894182, 43.033214335989015], [-76.09853347722887, 43.03323956505798], [-76.09620452748113, 43.03337021406774], [-76.09300407446558, 43.03346916539357], [-76.09310323230328, 43.03439157796376], [-76.09331061287818, 43.03683663546986], [-76.09333056446066, 43.037075790829014], [-76.08383077971978, 43.03747480036214], [-76.08381491008195, 43.037240815217956], [-76.08230716423438, 43.0363033739286], [-76.07924015325932, 43.03645660858386], [-76.07836908747103, 43.036501566369466], [-76.0783459810053, 43.03653704157224], [-76.0780287463526, 43.03702406730264], [-76.0775816853784, 43.037752828832794], [-76.07704799806476, 43.03748386320918], [-76.07665974619894, 43.03728819129693], [-76.07632452996921, 43.03713366983405], [-76.07611328124868, 43.03704387531206], [-76.07590866029832, 43.03696645017392], [-76.075727827635, 43.03690095652002], [-76.07542240852322, 43.036805805175945], [-76.07520086690619, 43.03674064621311], [-76.07484489510179, 43.03665514392854], [-76.07427264221467, 43.03653617223989], [-76.0742740606545, 43.036558957409326], [-76.07430699828271, 43.03708789440103], [-76.07433870162572, 43.03747533153968], [-76.07461955091615, 43.041519515847114], [-76.07540395443235, 43.04148842463258], [-76.07573684492381, 43.041475228785266], [-76.07689940683528, 43.0391399235438], [-76.07811659170592, 43.039504066640006], [-76.0795438925215, 43.039933318570775], [-76.07948794993719, 43.04011313867002], [-76.07959335915093, 43.04015118942657], [-76.08123377628453, 43.04087434628159], [-76.08177633625826, 43.041228623685235], [-76.08179674867645, 43.041570862011895], [-76.08199065452212, 43.04399514623079], [-76.08201097710878, 43.04401059141452], [-76.0820779213604, 43.044061512042404], [-76.08213773388695, 43.044565968776794], [-76.08275430875189, 43.04454329818737], [-76.08275641350458, 43.04457211961376], [-76.08374242861495, 43.045056943332796], [-76.08415408788211, 43.04526891308045], [-76.08467119768552, 43.04560081462343], [-76.08598940260143, 43.04643980399637], [-76.08751309444364, 43.047409813938266], [-76.08891630962982, 43.04798454354806], [-76.09279046766743, 43.0481359910006], [-76.09029156295615, 43.05077034575832], [-76.08943628146572, 43.05081879517682], [-76.0894733836836, 43.05128014783524], [-76.08954308396649, 43.05210939558544], [-76.08960639992266, 43.05296198031743], [-76.08967749169594, 43.05380739504011], [-76.08974386012743, 43.054589161260864], [-76.08757941885769, 43.054785203341915], [-76.08757269496778, 43.054785813137606], [-76.08575274323645, 43.05452425814602], [-76.08356658519473, 43.05436587645584], [-76.08250103324909, 43.05461449116022], [-76.08279637236505, 43.0549896329058], [-76.08311578722895, 43.05542098656072], [-76.08315556013815, 43.055489105706584], [-76.08316497358402, 43.05555489327294], [-76.08317650525731, 43.055643557309146], [-76.08317695082171, 43.05566864193924], [-76.08317767845709, 43.055709684719915], [-76.08318184933495, 43.05594490235623], [-76.08321035647216, 43.056285607317], [-76.08322483282298, 43.056368683163534], [-76.08324156843672, 43.05646376478435], [-76.08327547714374, 43.05670327225072], [-76.0833076296444, 43.056881728469264], [-76.08335488372327, 43.05710854263292], [-76.08340643085091, 43.05734167551465], [-76.0835064879022, 43.05770112189507], [-76.08363638249567, 43.05810670073731], [-76.08370838516063, 43.058303393842905], [-76.0837435479158, 43.058397915869314], [-76.08377841782018, 43.05849165339934], [-76.08382782066923, 43.058608095567074], [-76.08386010791718, 43.058684198398026], [-76.0839575688373, 43.05889412047922], [-76.08417004555481, 43.05932853742801], [-76.08426290081248, 43.059493883298565], [-76.08437824718989, 43.05968969507389], [-76.08450798367987, 43.0599135551428], [-76.08462242814873, 43.06009938062931], [-76.08468442447975, 43.06019144582351], [-76.08478743698835, 43.060344420629754], [-76.08500115248263, 43.06063610754193], [-76.08510469050564, 43.06076968651174], [-76.08519873962433, 43.06089043450378], [-76.08531940582486, 43.061031486586565], [-76.08546273382508, 43.06118216410526], [-76.08568094808233, 43.06144654441635], [-76.08581659997843, 43.06160766504858], [-76.0860770988344, 43.06194112948839], [-76.08643954569536, 43.062399960251], [-76.08686008211414, 43.06290471311229], [-76.08710286080283, 43.06317226910056], [-76.08723059045646, 43.06331073204581], [-76.0873907888177, 43.06351066439478], [-76.08753399824029, 43.06368906995461], [-76.0883348292481, 43.06471319418049], [-76.0884667189998, 43.06488627174429], [-76.08888646040954, 43.06545307765642], [-76.08928850410992, 43.06599139446366], [-76.08934812799026, 43.06607425371341], [-76.08974447727003, 43.06658903175007], [-76.0899821472397, 43.06692827446057], [-76.0901281854571, 43.0671358267513], [-76.09017109707993, 43.067219815858415], [-76.09019532194819, 43.06726722916143], [-76.09022452168651, 43.067330656627995], [-76.09025064379665, 43.06738740128082], [-76.09034212553024, 43.06760444682896], [-76.09039721112178, 43.0677542780225], [-76.0904418753577, 43.06788729941245], [-76.09047914556052, 43.067980182422986], [-76.09051003952148, 43.068081039481505], [-76.09053916200466, 43.06818468743368], [-76.09056753619123, 43.068183156386866], [-76.09063160403728, 43.068179697914104], [-76.09079886674992, 43.06817349760033], [-76.09194870133044, 43.0681208828466], [-76.0925597820991, 43.06809264736784], [-76.0925684993506, 43.068202096607926], [-76.09317507147487, 43.06817484030172], [-76.09317034004826, 43.06806403649653], [-76.09391893132735, 43.068027624669455], [-76.09393106038031, 43.0681879706857], [-76.09401300020895, 43.06942499669327], [-76.09416419745105, 43.069417900733136], [-76.09595111723107, 43.0693394461213], [-76.09613876631077, 43.06933201349791], [-76.09651174771506, 43.06931439202137], [-76.0965175337638, 43.06941580731648], [-76.09657010497087, 43.070337185268535], [-76.09682270404222, 43.070326115262645], [-76.09734062771929, 43.070303415477355], [-76.09864090765201, 43.07024295464256], [-76.09929749258137, 43.07021145799746], [-76.0993092650032, 43.070426182294334], [-76.09933476997074, 43.07085418886703], [-76.0994099697398, 43.07084601554576], [-76.10006399087735, 43.07081001354544], [-76.10007094293934, 43.07108198424083], [-76.10007427748566, 43.07135932163101], [-76.10012053623123, 43.0719066928912], [-76.10028959287948, 43.07386957786661], [-76.10029229321523, 43.0739546713094], [-76.10035824033686, 43.074874020347494], [-76.1008818638244, 43.075185236965716], [-76.10288847738693, 43.076377822487586], [-76.10579665813492, 43.07621649920542], [-76.10590175024338, 43.0762108344838], [-76.10634414267302, 43.076186984641865], [-76.10687399957033, 43.0761596249306], [-76.10787870053692, 43.07610240545663], [-76.10887620599807, 43.07604548186303], [-76.11007340425193, 43.07598321893572], [-76.11111087486178, 43.075922677089125], [-76.11200144846478, 43.07586883669206], [-76.11256775360641, 43.075842680919266], [-76.11309715056628, 43.0758192554792], [-76.11326259958037, 43.07580759459367], [-76.1140618100274, 43.07576319383723], [-76.1149768752983, 43.075725214386516], [-76.11500031773394, 43.0757594818522], [-76.11502453092413, 43.07579487463915], [-76.11544662412331, 43.07577074969781], [-76.11544546439828, 43.07574783539116], [-76.11543504843256, 43.07554212790674], [-76.11526487966998, 43.0736901106791], [-76.11523606171565, 43.07336171368415], [-76.115333013291, 43.07335703365676], [-76.11855225546904, 43.07320158528187], [-76.11912162027254, 43.073170080314135], [-76.12113563415637, 43.073062688615536], [-76.12318174215038, 43.072960424318936], [-76.12366274237432, 43.072944164856224], [-76.12377298811755, 43.07294043826391], [-76.12442521262453, 43.072920212030986], [-76.12448621092727, 43.07291666195665], [-76.12448880256686, 43.07294773002167], [-76.12452865542613, 43.07342557056133], [-76.12549952404248, 43.07337828670021], [-76.12577770264159, 43.07336473745934], [-76.12590163331987, 43.074842784619335], [-76.12629484388604, 43.079531818092], [-76.12717150258527, 43.079489037408415], [-76.13330224388797, 43.07918966955145], [-76.1345570448128, 43.07913256969969], [-76.1356197446074, 43.07908116443394], [-76.13654566242523, 43.07903597474407], [-76.13664961906318, 43.079027181148845], [-76.13670288915954, 43.07991282869048], [-76.13684708044073, 43.08005608359043], [-76.1369970946016, 43.08020304002953], [-76.13724037904178, 43.08044352030188], [-76.13766731236372, 43.08087367853983], [-76.13795793622275, 43.08115889686479], [-76.13835607853984, 43.081549627509986], [-76.13915790847422, 43.082348455643775], [-76.13952458370522, 43.08269844073342], [-76.14088492769278, 43.08195343323389], [-76.1422615832893, 43.08119417958596], [-76.14271830294942, 43.08164846175149], [-76.14421045045042, 43.08311426186046], [-76.14446348969628, 43.08329859132225], [-76.14460159578974, 43.083399196163704], [-76.14468870272789, 43.083440634374554], [-76.14478959880566, 43.08346422354863], [-76.14507727708889, 43.083677306454234], [-76.14504671909785, 43.083711530763445], [-76.14504124745946, 43.08371765930359], [-76.14581203071933, 43.08408025967598], [-76.14686082279668, 43.084561951206496], [-76.14696474979021, 43.084609084724505], [-76.14732668461146, 43.08477406782605], [-76.14738618721924, 43.084796039908525], [-76.14744101050272, 43.08476925089367], [-76.14761202547831, 43.08471517617653], [-76.1483223557128, 43.08449137059641], [-76.14866289356229, 43.08438407484414], [-76.14894934115357, 43.084313705944204], [-76.14915521166049, 43.084150142028456], [-76.14981375491718, 43.08364079367997], [-76.14989896461346, 43.08369980708296], [-76.15065619678725, 43.084224234398214], [-76.15070873026507, 43.0841831851199], [-76.15157025684336, 43.0835099971753], [-76.15202211482116, 43.0831555145888], [-76.15292800290312, 43.08244482623846], [-76.15405338444329, 43.08156339342689], [-76.15529910879052, 43.08243427477357], [-76.15538266019678, 43.082482221528736], [-76.15541146647298, 43.08244983624813], [-76.15607052895591, 43.08170886278186], [-76.15759160849727, 43.08275148321604]]]}, "properties": {"OBJECTID": 55, "NAME": "Syracuse", "MUNI_TYPE": "city", "MUNITYCODE": 1, "COUNTY": "Onondaga", "GNIS_ID": "979539", "FIPS_CODE": "3606773000", "SWIS": "311500", "POP1990": 163860, "POP2000": 147306, "POP2010": 145170, "POP2020": 148620, "DOS_LL": null, "DOSLL_DATE": null, "MAP_SYMBOL": "1", "CALC_SQ_MI": 25.64606602, "DATEMOD": 1521763200000, "SHAPE.AREA": 124407212.096681, "SHAPE.LEN": 71656.20570200929}}]}