{"type": "FeatureCollection", "features": [{"type": "Feature", "id": 3230, "geometry": {"type": "LineString", "coordinates": [[-76.1421383898708, 43.0394964619197], [-76.1421754750237, 43.0397699625508], [-76.1421875475683, 43.0398797637431], [-76.1422116682333, 43.0401027958579], [-76.1422452527549, 43.0404081804171]]}, "properties": {"FID": 3230, "FNODE_": 2266, "TNODE_": 2220, "LPOLY_": 1289, "RPOLY_": 1287, "LENGTH": 333.518, "CITYST_": 3514, "CITYST_ID": 2921, "FNODE_1": 2267, "TNODE_1": 2221, "LPOLY_1": 0, "RPOLY_1": 0, "CITYST2_": 2921, "CITYST2_ID": 18090, "LTYPE": 1, "GDT_ID2": 13002417, "GDT_": 23558, "RECNUM": 0, "L_F_ADD": 0, "L_T_ADD": 0, "R_F_ADD": 0, "R_T_ADD": 0, "PREFIX": " ", "NAME": "I 81", "TYPE": " ", "SUFFIX": " ", "CFCC": "A15", "TRACT90_L": "0043", "TRACT90_R": "0043", "BLOCK90_L": "310A", "BLOCK90_R": "310B", "L_F_IADD": 0, "L_T_IADD": 0, "R_F_IADD": 0, "R_T_IADD": 0, "FIPMCD90_L": "73000", "FIPMCD90_R": "73000", "FIPPLC90_L": "73000", "FIPPLC90_R": "73000", "FULLNAME": "I 81", "PAVE2": 0, "ST_FLAG": 1, "LINECODE": 1, "BLKSTREET": "    0 I 81", "BG_L": "3", "BG_R": "3", "CTBNABG_L": "00433", "CTBNABG_R": "00433", "CITYST_I_1": 2921, "BLK": " ", "Status": " ", "Start_Date": null, "End_Date": null, "ProposeEnd": null, "ProposeSrt": null, "ID": 0, "FID_1": 0, "GDT_ID2_1": 0, "StreetName": " ", "Intersecti": " ", "Intersec_1": " ", "Rationale": " ", "Additions": " ", "Interventi": "0", "RepairEsti": 0, "AvgDPWRati": " ", "Rating": " ", "PCI": " ", "SewerConfl": " ", "Engineerin": " ", "NationalGr": " ", "RoadRating": 0, "RiskScore": 0, "M___P_Rank": " ", "F5_Year_Pla": " ", "M_P_Rank": " ", "Sheet1_Yea": 0, "CAMP_Ratin": " ", "Shape__Length": 139.37711907071392, "CreationDate": 1487687799250, "Creator": "sbartlett_syr", "EditDate": 1487862385237, "Editor": "sbartlett_syr", "Intervention2": null, "Intervention2Intersection1": null, "Intervention2Intersection2b": null, "CurrentStatus": " ", "TypeLastCityProject": null, "Sewer_Grant": null}}, {"type": "Feature", "id": 3360, "geometry": {"type": "LineString", "coordinates": [[-76.1448626663209, 43.0418402367288], [-76.1448633319328, 43.0416152421997]]}, "properties": {"FID": 3360, "FNODE_": 2123, "TNODE_": 2155, "LPOLY_": 1208, "RPOLY_": 1208, "LENGTH": 82.0004, "CITYST_": 3348, "CITYST_ID": 166, "FNODE_1": 2124, "TNODE_1": 2156, "LPOLY_1": -1, "RPOLY_1": -1, "CITYST2_": 166, "CITYST2_ID": 17675, "LTYPE": 3, "GDT_ID2": 12577664, "GDT_": 22633, "RECNUM": 12577664, "L_F_ADD": 101, "L_T_ADD": 129, "R_F_ADD": 100, "R_T_ADD": 128, "PREFIX": " ", "NAME": "DABLON", "TYPE": "CT", "SUFFIX": " ", "CFCC": "A40", "TRACT90_L": "0042", "TRACT90_R": "0042", "BLOCK90_L": "102", "BLOCK90_R": "102", "L_F_IADD": 0, "L_T_IADD": 0, "R_F_IADD": 0, "R_T_IADD": 0, "FIPMCD90_L": "73000", "FIPMCD90_R": "73000", "FIPPLC90_L": "73000", "FIPPLC90_R": "73000", "FULLNAME": "DABLON CT", "PAVE2": 0, "ST_FLAG": 1, "LINECODE": 15, "BLKSTREET": "  100 DABLON CT", "BG_L": "1", "BG_R": "1", "CTBNABG_L": "00421", "CTBNABG_R": "00421", "CITYST_I_1": 166, "BLK": "100", "Status": " ", "Start_Date": null, "End_Date": null, "ProposeEnd": null, "ProposeSrt": null, "ID": 0, "FID_1": 0, "GDT_ID2_1": 0, "StreetName": " ", "Intersecti": " ", "Intersec_1": " ", "Rationale": " ", "Additions": " ", "Interventi": "0", "RepairEsti": 0, "AvgDPWRati": " ", "Rating": " ", "PCI": " ", "SewerConfl": " ", "Engineerin": " ", "NationalGr": " ", "RoadRating": 0, "RiskScore": 0, "M___P_Rank": " ", "F5_Year_Pla": " ", "M_P_Rank": " ", "Sheet1_Yea": 0, "CAMP_Ratin": " ", "Shape__Length": 34.269824612720626, "CreationDate": 1487687799250, "Creator": "sbartlett_syr", "EditDate": 1487862385237, "Editor": "sbartlett_syr", "Intervention2": null, "Intervention2Intersection1": null, "Intervention2Intersection2b": null, "CurrentStatus": " ", "TypeLastCityProject": null, "Sewer_Grant": null}}, {"type": "Feature", "id": 3409, "geometry": {"type": "LineString", "coordinates": [[-76.1424576145809, 43.0403973363839], [-76.1424217500415, 43.0400837115087], [-76.1423966444051, 43.0398675353153], [-76.1423855066261, 43.0397577377424], [-76.1423513959219, 43.0394931661977]]}, "properties": {"FID": 3409, "FNODE_": 2223, "TNODE_": 2268, "LPOLY_": 1289, "RPOLY_": 1292, "LENGTH": 330.756, "CITYST_": 3518, "CITYST_ID": 2873, "FNODE_1": 2224, "TNODE_1": 2269, "LPOLY_1": 0, "RPOLY_1": 0, "CITYST2_": 2873, "CITYST2_ID": 18092, "LTYPE": 1, "GDT_ID2": 13002416, "GDT_": 23031, "RECNUM": 0, "L_F_ADD": 0, "L_T_ADD": 0, "R_F_ADD": 0, "R_T_ADD": 0, "PREFIX": " ", "NAME": "I 81", "TYPE": " ", "SUFFIX": " ", "CFCC": "A15", "TRACT90_L": "0043", "TRACT90_R": "0042", "BLOCK90_L": "310", "BLOCK90_R": "101", "L_F_IADD": 0, "L_T_IADD": 0, "R_F_IADD": 0, "R_T_IADD": 0, "FIPMCD90_L": "73000", "FIPMCD90_R": "73000", "FIPPLC90_L": "73000", "FIPPLC90_R": "73000", "FULLNAME": "I 81", "PAVE2": 0, "ST_FLAG": 1, "LINECODE": 1, "BLKSTREET": "    0 I 81", "BG_L": "3", "BG_R": "1", "CTBNABG_L": "00433", "CTBNABG_R": "00421", "CITYST_I_1": 2873, "BLK": " ", "Status": " ", "Start_Date": null, "End_Date": null, "ProposeEnd": null, "ProposeSrt": null, "ID": 0, "FID_1": 0, "GDT_ID2_1": 0, "StreetName": " ", "Intersecti": " ", "Intersec_1": " ", "Rationale": " ", "Additions": " ", "Interventi": "0", "RepairEsti": 0, "AvgDPWRati": " ", "Rating": " ", "PCI": " ", "SewerConfl": " ", "Engineerin": " ", "NationalGr": " ", "RoadRating": 0, "RiskScore": 0, "M___P_Rank": " ", "F5_Year_Pla": " ", "M_P_Rank": " ", "Sheet1_Yea": 0, "CAMP_Ratin": " ", "Shape__Length": 138.22284427109722, "CreationDate": 1487687799250, "Creator": "sbartlett_syr", "EditDate": 1487862385237, "Editor": "sbartlett_syr", "Intervention2": null, "Intervention2Intersection1": null, "Intervention2Intersection2b": null, "CurrentStatus": " ", "TypeLastCityProject": null, "Sewer_Grant": null}}, {"type": "Feature", "id": 3415, "geometry": {"type": "LineString", "coordinates": [[-76.1422452527549, 43.0404081804171], [-76.141930706366, 43.0404213742742], [-76.1404997928455, 43.0404676428257]]}, "properties": {"FID": 3415, "FNODE_": 2220, "TNODE_": 2216, "LPOLY_": 1258, "RPOLY_": 1287, "LENGTH": 467.129, "CITYST_": 3445, "CITYST_ID": 2923, "FNODE_1": 2221, "TNODE_1": 2217, "LPOLY_1": 0, "RPOLY_1": 0, "CITYST2_": 2923, "CITYST2_ID": 17942, "LTYPE": 1, "GDT_ID2": 12577487, "GDT_": 23034, "RECNUM": 12577487, "L_F_ADD": 101, "L_T_ADD": 199, "R_F_ADD": 100, "R_T_ADD": 198, "PREFIX": " ", "NAME": "DYER", "TYPE": "CT", "SUFFIX": " ", "CFCC": "A40", "TRACT90_L": "0043", "TRACT90_R": "0043", "BLOCK90_L": "310", "BLOCK90_R": "310", "L_F_IADD": 0, "L_T_IADD": 0, "R_F_IADD": 0, "R_T_IADD": 0, "FIPMCD90_L": "73000", "FIPMCD90_R": "73000", "FIPPLC90_L": "73000", "FIPPLC90_R": "73000", "FULLNAME": "DYER CT", "PAVE2": 0, "ST_FLAG": 1, "LINECODE": 15, "BLKSTREET": "  100 DYER CT", "BG_L": "3", "BG_R": "3", "CTBNABG_L": "00433", "CTBNABG_R": "00433", "CITYST_I_1": 2923, "BLK": "100", "Status": "Planned", "Start_Date": null, "End_Date": null, "ProposeEnd": null, "ProposeSrt": null, "ID": 381, "FID_1": 350, "GDT_ID2_1": 12577487, "StreetName": "Jackson St", "Intersecti": "dead end", "Intersec_1": "Renwick", "Rationale": "Weighted", "Additions": " ", "Interventi": "11", "RepairEsti": 110400.16, "AvgDPWRati": "4.00", "Rating": "Poor", "PCI": " ", "SewerConfl": " ", "Engineerin": " ", "NationalGr": "Yes", "RoadRating": 0, "RiskScore": 8.08, "M___P_Rank": " ", "F5_Year_Pla": " ", "M_P_Rank": "93", "Sheet1_Yea": 2020, "CAMP_Ratin": "0-8", "Shape__Length": 194.51713981719274, "CreationDate": 1487687799250, "Creator": "sbartlett_syr", "EditDate": 1487884829766, "Editor": "sbartlett_syr", "Intervention2": null, "Intervention2Intersection1": null, "Intervention2Intersection2b": null, "CurrentStatus": "Mill & Pave", "TypeLastCityProject": null, "Sewer_Grant": null}}, {"type": "Feature", "id": 3418, "geometry": {"type": "LineString", "coordinates": [[-76.1422452527549, 43.0404081804171], [-76.1421346114757, 43.0406447559296], [-76.1421713865535, 43.0416148545349]]}, "properties": {"FID": 3418, "FNODE_": 2220, "TNODE_": 2149, "LPOLY_": 1217, "RPOLY_": 1258, "LENGTH": 444.846, "CITYST_": 3446, "CITYST_ID": 2932, "FNODE_1": 2221, "TNODE_1": 2150, "LPOLY_1": 0, "RPOLY_1": 0, "CITYST2_": 2932, "CITYST2_ID": 17941, "LTYPE": 1, "GDT_ID2": 13001884, "GDT_": 23568, "RECNUM": 0, "L_F_ADD": 0, "L_T_ADD": 0, "R_F_ADD": 0, "R_T_ADD": 0, "PREFIX": " ", "NAME": "I 81", "TYPE": "RAMP", "SUFFIX": " ", "CFCC": "A63", "TRACT90_L": "0043", "TRACT90_R": "0043", "BLOCK90_L": "310", "BLOCK90_R": "310", "L_F_IADD": 0, "L_T_IADD": 0, "R_F_IADD": 0, "R_T_IADD": 0, "FIPMCD90_L": "73000", "FIPMCD90_R": "73000", "FIPPLC90_L": "73000", "FIPPLC90_R": "73000", "FULLNAME": "I 81 RAMP", "PAVE2": 0, "ST_FLAG": 1, "LINECODE": 15, "BLKSTREET": "    0 I 81 RAMP", "BG_L": "3", "BG_R": "3", "CTBNABG_L": "00433", "CTBNABG_R": "00433", "CITYST_I_1": 2932, "BLK": " ", "Status": " ", "Start_Date": null, "End_Date": null, "ProposeEnd": null, "ProposeSrt": null, "ID": 0, "FID_1": 0, "GDT_ID2_1": 0, "StreetName": " ", "Intersecti": " ", "Intersec_1": " ", "Rationale": " ", "Additions": " ", "Interventi": "0", "RepairEsti": 0, "AvgDPWRati": " ", "Rating": " ", "PCI": " ", "SewerConfl": " ", "Engineerin": " ", "NationalGr": " ", "RoadRating": 0, "RiskScore": 0, "M___P_Rank": " ", "F5_Year_Pla": " ", "M_P_Rank": " ", "Sheet1_Yea": 0, "CAMP_Ratin": " ", "Shape__Length": 185.89436769275966, "CreationDate": 1487687799250, "Creator": "sbartlett_syr", "EditDate": 1487862385237, "Editor": "sbartlett_syr", "Intervention2": null, "Intervention2Intersection1": null, "Intervention2Intersection2b": null, "CurrentStatus": " ", "TypeLastCityProject": null, "Sewer_Grant": null}}, {"type": "Feature", "id": 3423, "geometry": {"type": "LineString", "coordinates": [[-76.1422452527549, 43.0404081804171], [-76.1422874987328, 43.0411694232178], [-76.1423196384941, 43.0415461426741], [-76.142405244754, 43.0427174172188]]}, "properties": {"FID": 3423, "FNODE_": 2220, "TNODE_": 2066, "LPOLY_": 1216, "RPOLY_": 1217, "LENGTH": 842.722, "CITYST_": 3447, "CITYST_ID": 2922, "FNODE_1": 2221, "TNODE_1": 2067, "LPOLY_1": 0, "RPOLY_1": 0, "CITYST2_": 2922, "CITYST2_ID": 17943, "LTYPE": 1, "GDT_ID2": 13002421, "GDT_": 23569, "RECNUM": 0, "L_F_ADD": 0, "L_T_ADD": 0, "R_F_ADD": 0, "R_T_ADD": 0, "PREFIX": " ", "NAME": "I 81", "TYPE": " ", "SUFFIX": " ", "CFCC": "A15", "TRACT90_L": "0043", "TRACT90_R": "0043", "BLOCK90_L": "310", "BLOCK90_R": "310", "L_F_IADD": 0, "L_T_IADD": 0, "R_F_IADD": 0, "R_T_IADD": 0, "FIPMCD90_L": "73000", "FIPMCD90_R": "73000", "FIPPLC90_L": "73000", "FIPPLC90_R": "73000", "FULLNAME": "I 81", "PAVE2": 0, "ST_FLAG": 1, "LINECODE": 1, "BLKSTREET": "    0 I 81", "BG_L": "3", "BG_R": "3", "CTBNABG_L": "00433", "CTBNABG_R": "00433", "CITYST_I_1": 2922, "BLK": " ", "Status": " ", "Start_Date": null, "End_Date": null, "ProposeEnd": null, "ProposeSrt": null, "ID": 0, "FID_1": 0, "GDT_ID2_1": 0, "StreetName": " ", "Intersecti": " ", "Intersec_1": " ", "Rationale": " ", "Additions": " ", "Interventi": "0", "RepairEsti": 0, "AvgDPWRati": " ", "Rating": " ", "PCI": " ", "SewerConfl": " ", "Engineerin": " ", "NationalGr": " ", "RoadRating": 0, "RiskScore": 0, "M___P_Rank": " ", "F5_Year_Pla": " ", "M_P_Rank": " ", "Sheet1_Yea": 0, "CAMP_Ratin": " ", "Shape__Length": 352.1885164168176, "CreationDate": 1487687799250, "Creator": "sbartlett_syr", "EditDate": 1487862385237, "Editor": "sbartlett_syr", "Intervention2": null, "Intervention2Intersection1": null, "Intervention2Intersection2b": null, "CurrentStatus": " ", "TypeLastCityProject": null, "Sewer_Grant": null}}, {"type": "Feature", "id": 3425, "geometry": {"type": "LineString", "coordinates": [[-76.1438835209869, 43.0394462337875], [-76.1423513959219, 43.0394931661977]]}, "properties": {"FID": 3425, "FNODE_": 2271, "TNODE_": 2268, "LPOLY_": 1292, "RPOLY_": 1316, "LENGTH": 409.952, "CITYST_": 3521, "CITYST_ID": 2878, "FNODE_1": 2272, "TNODE_1": 2269, "LPOLY_1": 0, "RPOLY_1": 0, "CITYST2_": 2878, "CITYST2_ID": 18104, "LTYPE": 1, "GDT_ID2": 12577467, "GDT_": 22719, "RECNUM": 12577467, "L_F_ADD": 501, "L_T_ADD": 599, "R_F_ADD": 500, "R_T_ADD": 598, "PREFIX": "E", "NAME": "TAYLOR", "TYPE": "ST", "SUFFIX": " ", "CFCC": "A40", "TRACT90_L": "0042", "TRACT90_R": "0042", "BLOCK90_L": "101", "BLOCK90_R": "105", "L_F_IADD": 0, "L_T_IADD": 0, "R_F_IADD": 0, "R_T_IADD": 0, "FIPMCD90_L": "73000", "FIPMCD90_R": "73000", "FIPPLC90_L": "73000", "FIPPLC90_R": "73000", "FULLNAME": "E TAYLOR ST", "PAVE2": 0, "ST_FLAG": 1, "LINECODE": 15, "BLKSTREET": "  500 E TAYLOR ST", "BG_L": "1", "BG_R": "1", "CTBNABG_L": "00421", "CTBNABG_R": "00421", "CITYST_I_1": 2878, "BLK": "500", "Status": " ", "Start_Date": null, "End_Date": null, "ProposeEnd": null, "ProposeSrt": null, "ID": 0, "FID_1": 0, "GDT_ID2_1": 0, "StreetName": " ", "Intersecti": " ", "Intersec_1": " ", "Rationale": " ", "Additions": " ", "Interventi": "0", "RepairEsti": 0, "AvgDPWRati": " ", "Rating": " ", "PCI": " ", "SewerConfl": " ", "Engineerin": " ", "NationalGr": " ", "RoadRating": 0, "RiskScore": 0, "M___P_Rank": " ", "F5_Year_Pla": " ", "M_P_Rank": " ", "Sheet1_Yea": 0, "CAMP_Ratin": " ", "Shape__Length": 170.70511093366437, "CreationDate": 1487687799250, "Creator": "sbartlett_syr", "EditDate": 1487862385237, "Editor": "sbartlett_syr", "Intervention2": null, "Intervention2Intersection1": null, "Intervention2Intersection2b": null, "CurrentStatus": " ", "TypeLastCityProject": null, "Sewer_Grant": null}}, {"type": "Feature", "id": 3429, "geometry": {"type": "LineString", "coordinates": [[-76.1439706087449, 43.0403479283218], [-76.1438835209869, 43.0394462337875]]}, "properties": {"FID": 3429, "FNODE_": 2227, "TNODE_": 2271, "LPOLY_": 1292, "RPOLY_": 1293, "LENGTH": 329.45, "CITYST_": 3522, "CITYST_ID": 2876, "FNODE_1": 2228, "TNODE_1": 2272, "LPOLY_1": 0, "RPOLY_1": 0, "CITYST2_": 2876, "CITYST2_ID": 18105, "LTYPE": 1, "GDT_ID2": 12577468, "GDT_": 22650, "RECNUM": 12577468, "L_F_ADD": 1101, "L_T_ADD": 1199, "R_F_ADD": 1100, "R_T_ADD": 1198, "PREFIX": "S", "NAME": "MCBRIDE", "TYPE": "ST", "SUFFIX": " ", "CFCC": "A40", "TRACT90_L": "0042", "TRACT90_R": "0042", "BLOCK90_L": "101", "BLOCK90_R": "103", "L_F_IADD": 0, "L_T_IADD": 0, "R_F_IADD": 0, "R_T_IADD": 0, "FIPMCD90_L": "73000", "FIPMCD90_R": "73000", "FIPPLC90_L": "73000", "FIPPLC90_R": "73000", "FULLNAME": "S MCBRIDE ST", "PAVE2": 0, "ST_FLAG": 1, "LINECODE": 15, "BLKSTREET": " 1100 S MCBRIDE ST", "BG_L": "1", "BG_R": "1", "CTBNABG_L": "00421", "CTBNABG_R": "00421", "CITYST_I_1": 2876, "BLK": "1100", "Status": " ", "Start_Date": null, "End_Date": null, "ProposeEnd": null, "ProposeSrt": null, "ID": 0, "FID_1": 0, "GDT_ID2_1": 0, "StreetName": " ", "Intersecti": " ", "Intersec_1": " ", "Rationale": " ", "Additions": " ", "Interventi": "0", "RepairEsti": 0, "AvgDPWRati": " ", "Rating": " ", "PCI": " ", "SewerConfl": " ", "Engineerin": " ", "NationalGr": " ", "RoadRating": 0, "RiskScore": 0, "M___P_Rank": " ", "F5_Year_Pla": " ", "M_P_Rank": " ", "Sheet1_Yea": 0, "CAMP_Ratin": " ", "Shape__Length": 137.67805842865184, "CreationDate": 1487687799250, "Creator": "sbartlett_syr", "EditDate": 1487862385237, "Editor": "sbartlett_syr", "Intervention2": null, "Intervention2Intersection1": null, "Intervention2Intersection2b": null, "CurrentStatus": " ", "TypeLastCityProject": null, "Sewer_Grant": null}}, {"type": "Feature", "id": 3437, "geometry": {"type": "LineString", "coordinates": [[-76.145440779817, 43.0416198516153], [-76.1448633319328, 43.0416152421997]]}, "properties": {"FID": 3437, "FNODE_": 2154, "TNODE_": 2155, "LPOLY_": 1208, "RPOLY_": 1208, "LENGTH": 154.377, "CITYST_": 3349, "CITYST_ID": 167, "FNODE_1": 2155, "TNODE_1": 2156, "LPOLY_1": -1, "RPOLY_1": -1, "CITYST2_": 167, "CITYST2_ID": 17676, "LTYPE": 3, "GDT_ID2": 12577663, "GDT_": 22634, "RECNUM": 12577663, "L_F_ADD": 0, "L_T_ADD": 0, "R_F_ADD": 0, "R_T_ADD": 0, "PREFIX": " ", "NAME": "MONROE", "TYPE": "ST", "SUFFIX": " ", "CFCC": "A40", "TRACT90_L": "0042", "TRACT90_R": "0042", "BLOCK90_L": "102", "BLOCK90_R": "102", "L_F_IADD": 0, "L_T_IADD": 0, "R_F_IADD": 0, "R_T_IADD": 0, "FIPMCD90_L": "73000", "FIPMCD90_R": "73000", "FIPPLC90_L": "73000", "FIPPLC90_R": "73000", "FULLNAME": "MONROE ST", "PAVE2": 0, "ST_FLAG": 1, "LINECODE": 15, "BLKSTREET": "    0 MONROE ST", "BG_L": "1", "BG_R": "1", "CTBNABG_L": "00421", "CTBNABG_R": "00421", "CITYST_I_1": 167, "BLK": " ", "Status": " ", "Start_Date": null, "End_Date": null, "ProposeEnd": null, "ProposeSrt": null, "ID": 0, "FID_1": 0, "GDT_ID2_1": 0, "StreetName": " ", "Intersecti": " ", "Intersec_1": " ", "Rationale": " ", "Additions": " ", "Interventi": "0", "RepairEsti": 0, "AvgDPWRati": " ", "Rating": " ", "PCI": " ", "SewerConfl": " ", "Engineerin": " ", "NationalGr": " ", "RoadRating": 0, "RiskScore": 0, "M___P_Rank": " ", "F5_Year_Pla": " ", "M_P_Rank": " ", "Sheet1_Yea": 0, "CAMP_Ratin": " ", "Shape__Length": 64.28503833629432, "CreationDate": 1487687799250, "Creator": "sbartlett_syr", "EditDate": 1487862385237, "Editor": "sbartlett_syr", "Intervention2": null, "Intervention2Intersection1": null, "Intervention2Intersection2b": null, "CurrentStatus": " ", "TypeLastCityProject": null, "Sewer_Grant": null}}, {"type": "Feature", "id": 3441, "geometry": {"type": "LineString", "coordinates": [[-76.1439715384415, 43.0427426416852], [-76.1439959950243, 43.0416078036705]]}, "properties": {"FID": 3441, "FNODE_": 2055, "TNODE_": 2156, "LPOLY_": 1212, "RPOLY_": 1208, "LENGTH": 413.648, "CITYST_": 3350, "CITYST_ID": 2904, "FNODE_1": 2056, "TNODE_1": 2157, "LPOLY_1": 0, "RPOLY_1": 0, "CITYST2_": 2904, "CITYST2_ID": 17680, "LTYPE": 1, "GDT_ID2": 12577669, "GDT_": 22629, "RECNUM": 12577669, "L_F_ADD": 901, "L_T_ADD": 999, "R_F_ADD": 900, "R_T_ADD": 998, "PREFIX": "S", "NAME": "MCBRIDE", "TYPE": "ST", "SUFFIX": " ", "CFCC": "A40", "TRACT90_L": "0042", "TRACT90_R": "0042", "BLOCK90_L": "101", "BLOCK90_R": "102", "L_F_IADD": 0, "L_T_IADD": 0, "R_F_IADD": 0, "R_T_IADD": 0, "FIPMCD90_L": "73000", "FIPMCD90_R": "73000", "FIPPLC90_L": "73000", "FIPPLC90_R": "73000", "FULLNAME": "S MCBRIDE ST", "PAVE2": 0, "ST_FLAG": 1, "LINECODE": 15, "BLKSTREET": "  900 S MCBRIDE ST", "BG_L": "1", "BG_R": "1", "CTBNABG_L": "00421", "CTBNABG_R": "00421", "CITYST_I_1": 2904, "BLK": "900", "Status": " ", "Start_Date": null, "End_Date": null, "ProposeEnd": null, "ProposeSrt": null, "ID": 0, "FID_1": 0, "GDT_ID2_1": 0, "StreetName": " ", "Intersecti": " ", "Intersec_1": " ", "Rationale": " ", "Additions": " ", "Interventi": "0", "RepairEsti": 0, "AvgDPWRati": " ", "Rating": " ", "PCI": " ", "SewerConfl": " ", "Engineerin": " ", "NationalGr": " ", "RoadRating": 0, "RiskScore": 0, "M___P_Rank": " ", "F5_Year_Pla": " ", "M_P_Rank": " ", "Sheet1_Yea": 0, "CAMP_Ratin": " ", "Shape__Length": 172.87405279197324, "CreationDate": 1487687799250, "Creator": "sbartlett_syr", "EditDate": 1487862385237, "Editor": "sbartlett_syr", "Intervention2": null, "Intervention2Intersection1": null, "Intervention2Intersection2b": null, "CurrentStatus": " ", "TypeLastCityProject": null, "Sewer_Grant": null}}, {"type": "Feature", "id": 3445, "geometry": {"type": "LineString", "coordinates": [[-76.1448633319328, 43.0416152421997], [-76.1439959950243, 43.0416078036705]]}, "properties": {"FID": 3445, "FNODE_": 2155, "TNODE_": 2156, "LPOLY_": 1208, "RPOLY_": 1261, "LENGTH": 231.88, "CITYST_": 3351, "CITYST_ID": 2888, "FNODE_1": 2156, "TNODE_1": 2157, "LPOLY_1": 0, "RPOLY_1": 0, "CITYST2_": 2888, "CITYST2_ID": 17681, "LTYPE": 3, "GDT_ID2": 12577665, "GDT_": 22635, "RECNUM": 12577665, "L_F_ADD": 0, "L_T_ADD": 0, "R_F_ADD": 0, "R_T_ADD": 0, "PREFIX": " ", "NAME": "MONROE", "TYPE": "ST", "SUFFIX": " ", "CFCC": "A40", "TRACT90_L": "0042", "TRACT90_R": "0042", "BLOCK90_L": "102", "BLOCK90_R": "102", "L_F_IADD": 0, "L_T_IADD": 0, "R_F_IADD": 0, "R_T_IADD": 0, "FIPMCD90_L": "73000", "FIPMCD90_R": "73000", "FIPPLC90_L": "73000", "FIPPLC90_R": "73000", "FULLNAME": "MONROE ST", "PAVE2": 0, "ST_FLAG": 1, "LINECODE": 15, "BLKSTREET": "    0 MONROE ST", "BG_L": "1", "BG_R": "1", "CTBNABG_L": "00421", "CTBNABG_R": "00421", "CITYST_I_1": 2888, "BLK": " ", "Status": " ", "Start_Date": null, "End_Date": null, "ProposeEnd": null, "ProposeSrt": null, "ID": 0, "FID_1": 0, "GDT_ID2_1": 0, "StreetName": " ", "Intersecti": " ", "Intersec_1": " ", "Rationale": " ", "Additions": " ", "Interventi": "0", "RepairEsti": 0, "AvgDPWRati": " ", "Rating": " ", "PCI": " ", "SewerConfl": " ", "Engineerin": " ", "NationalGr": " ", "RoadRating": 0, "RiskScore": 0, "M___P_Rank": " ", "F5_Year_Pla": " ", "M_P_Rank": " ", "Sheet1_Yea": 0, "CAMP_Ratin": " ", "Shape__Length": 96.5581503150518, "CreationDate": 1487687799250, "Creator": "sbartlett_syr", "EditDate": 1487862385237, "Editor": "sbartlett_syr", "Intervention2": null, "Intervention2Intersection1": null, "Intervention2Intersection2b": null, "CurrentStatus": " ", "TypeLastCityProject": null, "Sewer_Grant": null}}, {"type": "Feature", "id": 3456, "geometry": {"type": "LineString", "coordinates": [[-76.1439959950243, 43.0416078036705], [-76.1432008925593, 43.0416016650434]]}, "properties": {"FID": 3456, "FNODE_": 2156, "TNODE_": 2158, "LPOLY_": 1212, "RPOLY_": 1262, "LENGTH": 212.565, "CITYST_": 3354, "CITYST_ID": 2887, "FNODE_1": 2157, "TNODE_1": 2159, "LPOLY_1": 0, "RPOLY_1": 0, "CITYST2_": 2887, "CITYST2_ID": 17686, "LTYPE": 3, "GDT_ID2": 12577717, "GDT_": 22631, "RECNUM": 12577717, "L_F_ADD": 0, "L_T_ADD": 0, "R_F_ADD": 0, "R_T_ADD": 0, "PREFIX": " ", "NAME": "MONROE", "TYPE": "ST", "SUFFIX": " ", "CFCC": "A40", "TRACT90_L": "0042", "TRACT90_R": "0042", "BLOCK90_L": "101", "BLOCK90_R": "101", "L_F_IADD": 0, "L_T_IADD": 0, "R_F_IADD": 0, "R_T_IADD": 0, "FIPMCD90_L": "73000", "FIPMCD90_R": "73000", "FIPPLC90_L": "73000", "FIPPLC90_R": "73000", "FULLNAME": "MONROE ST", "PAVE2": 0, "ST_FLAG": 1, "LINECODE": 15, "BLKSTREET": "    0 MONROE ST", "BG_L": "1", "BG_R": "1", "CTBNABG_L": "00421", "CTBNABG_R": "00421", "CITYST_I_1": 2887, "BLK": " ", "Status": " ", "Start_Date": null, "End_Date": null, "ProposeEnd": null, "ProposeSrt": null, "ID": 0, "FID_1": 0, "GDT_ID2_1": 0, "StreetName": " ", "Intersecti": " ", "Intersec_1": " ", "Rationale": " ", "Additions": " ", "Interventi": "0", "RepairEsti": 0, "AvgDPWRati": " ", "Rating": " ", "PCI": " ", "SewerConfl": " ", "Engineerin": " ", "NationalGr": " ", "RoadRating": 0, "RiskScore": 0, "M___P_Rank": " ", "F5_Year_Pla": " ", "M_P_Rank": " ", "Sheet1_Yea": 0, "CAMP_Ratin": " ", "Shape__Length": 88.51533988730313, "CreationDate": 1487687799250, "Creator": "sbartlett_syr", "EditDate": 1487862385237, "Editor": "sbartlett_syr", "Intervention2": null, "Intervention2Intersection1": null, "Intervention2Intersection2b": null, "CurrentStatus": " ", "TypeLastCityProject": null, "Sewer_Grant": null}}, {"type": "Feature", "id": 3460, "geometry": {"type": "LineString", "coordinates": [[-76.1432008925593, 43.0416016650434], [-76.1429584582795, 43.0415997044786]]}, "properties": {"FID": 3460, "FNODE_": 2158, "TNODE_": 2159, "LPOLY_": 1212, "RPOLY_": 1212, "LENGTH": 64.8136, "CITYST_": 3355, "CITYST_ID": 168, "FNODE_1": 2159, "TNODE_1": 2160, "LPOLY_1": -1, "RPOLY_1": -1, "CITYST2_": 168, "CITYST2_ID": 17688, "LTYPE": 3, "GDT_ID2": 12577718, "GDT_": 22632, "RECNUM": 12577718, "L_F_ADD": 0, "L_T_ADD": 0, "R_F_ADD": 0, "R_T_ADD": 0, "PREFIX": " ", "NAME": "MONROE", "TYPE": "ST", "SUFFIX": " ", "CFCC": "A40", "TRACT90_L": "0042", "TRACT90_R": "0042", "BLOCK90_L": "101", "BLOCK90_R": "101", "L_F_IADD": 0, "L_T_IADD": 0, "R_F_IADD": 0, "R_T_IADD": 0, "FIPMCD90_L": "73000", "FIPMCD90_R": "73000", "FIPPLC90_L": "73000", "FIPPLC90_R": "73000", "FULLNAME": "MONROE ST", "PAVE2": 0, "ST_FLAG": 1, "LINECODE": 15, "BLKSTREET": "    0 MONROE ST", "BG_L": "1", "BG_R": "1", "CTBNABG_L": "00421", "CTBNABG_R": "00421", "CITYST_I_1": 168, "BLK": " ", "Status": " ", "Start_Date": null, "End_Date": null, "ProposeEnd": null, "ProposeSrt": null, "ID": 0, "FID_1": 0, "GDT_ID2_1": 0, "StreetName": " ", "Intersecti": " ", "Intersec_1": " ", "Rationale": " ", "Additions": " ", "Interventi": "0", "RepairEsti": 0, "AvgDPWRati": " ", "Rating": " ", "PCI": " ", "SewerConfl": " ", "Engineerin": " ", "NationalGr": " ", "RoadRating": 0, "RiskScore": 0, "M___P_Rank": " ", "F5_Year_Pla": " ", "M_P_Rank": " ", "Sheet1_Yea": 0, "CAMP_Ratin": " ", "Shape__Length": 26.989312656639143, "CreationDate": 1487687799250, "Creator": "sbartlett_syr", "EditDate": 1487862385237, "Editor": "sbartlett_syr", "Intervention2": null, "Intervention2Intersection1": null, "Intervention2Intersection2b": null, "CurrentStatus": " ", "TypeLastCityProject": null, "Sewer_Grant": null}}, {"type": "Feature", "id": 3538, "geometry": {"type": "LineString", "coordinates": [[-76.1424576145809, 43.0403973363839], [-76.1422452527549, 43.0404081804171]]}, "properties": {"FID": 3538, "FNODE_": 2223, "TNODE_": 2220, "LPOLY_": 1216, "RPOLY_": 1289, "LENGTH": 56.9089, "CITYST_": 3451, "CITYST_ID": 2920, "FNODE_1": 2224, "TNODE_1": 2221, "LPOLY_1": 0, "RPOLY_1": 0, "CITYST2_": 2920, "CITYST2_ID": 17946, "LTYPE": 1, "GDT_ID2": 13002415, "GDT_": 23032, "RECNUM": 12577474, "L_F_ADD": 591, "L_T_ADD": 599, "R_F_ADD": 590, "R_T_ADD": 598, "PREFIX": " ", "NAME": "JACKSON", "TYPE": "ST", "SUFFIX": " ", "CFCC": "A40", "TRACT90_L": "0043", "TRACT90_R": "0043", "BLOCK90_L": "310", "BLOCK90_R": "310", "L_F_IADD": 1, "L_T_IADD": 0, "R_F_IADD": 0, "R_T_IADD": 0, "FIPMCD90_L": "73000", "FIPMCD90_R": "73000", "FIPPLC90_L": "73000", "FIPPLC90_R": "73000", "FULLNAME": "JACKSON ST", "PAVE2": 0, "ST_FLAG": 1, "LINECODE": 15, "BLKSTREET": "  500 JACKSON ST", "BG_L": "3", "BG_R": "3", "CTBNABG_L": "00433", "CTBNABG_R": "00433", "CITYST_I_1": 2920, "BLK": "500", "Status": "Planned", "Start_Date": null, "End_Date": null, "ProposeEnd": null, "ProposeSrt": null, "ID": 382, "FID_1": 351, "GDT_ID2_1": 13002415, "StreetName": "Jackson St", "Intersecti": "dead end", "Intersec_1": "Renwick", "Rationale": "Weighted", "Additions": " ", "Interventi": "11", "RepairEsti": 110400.16, "AvgDPWRati": "4.00", "Rating": "Poor", "PCI": " ", "SewerConfl": " ", "Engineerin": " ", "NationalGr": "Yes", "RoadRating": 0, "RiskScore": 0, "M___P_Rank": " ", "F5_Year_Pla": " ", "M_P_Rank": "93", "Sheet1_Yea": 2020, "CAMP_Ratin": "0-8", "Shape__Length": 23.697638393859066, "CreationDate": 1487687799250, "Creator": "sbartlett_syr", "EditDate": 1487884826516, "Editor": "sbartlett_syr", "Intervention2": null, "Intervention2Intersection1": null, "Intervention2Intersection2b": null, "CurrentStatus": "Mill & Pave", "TypeLastCityProject": null, "Sewer_Grant": null}}, {"type": "Feature", "id": 3542, "geometry": {"type": "LineString", "coordinates": [[-76.1426097790968, 43.0427233489669], [-76.1426126877951, 43.0426108616387], [-76.1425939615074, 43.0419601502642], [-76.1425330662213, 43.0411580209067], [-76.1424576145809, 43.0403973363839]]}, "properties": {"FID": 3542, "FNODE_": 2064, "TNODE_": 2223, "LPOLY_": 1216, "RPOLY_": 1214, "LENGTH": 848.971, "CITYST_": 3452, "CITYST_ID": 2912, "FNODE_1": 2065, "TNODE_1": 2224, "LPOLY_1": 0, "RPOLY_1": 0, "CITYST2_": 2912, "CITYST2_ID": 17947, "LTYPE": 1, "GDT_ID2": 13002419, "GDT_": 22802, "RECNUM": 0, "L_F_ADD": 0, "L_T_ADD": 0, "R_F_ADD": 0, "R_T_ADD": 0, "PREFIX": " ", "NAME": "I 81", "TYPE": " ", "SUFFIX": " ", "CFCC": "A15", "TRACT90_L": "0043", "TRACT90_R": "0042", "BLOCK90_L": "302A", "BLOCK90_R": "101", "L_F_IADD": 0, "L_T_IADD": 0, "R_F_IADD": 0, "R_T_IADD": 0, "FIPMCD90_L": "73000", "FIPMCD90_R": "73000", "FIPPLC90_L": "73000", "FIPPLC90_R": "73000", "FULLNAME": "I 81", "PAVE2": 0, "ST_FLAG": 1, "LINECODE": 1, "BLKSTREET": "    0 I 81", "BG_L": "3", "BG_R": "1", "CTBNABG_L": "00433", "CTBNABG_R": "00421", "CITYST_I_1": 2912, "BLK": " ", "Status": " ", "Start_Date": null, "End_Date": null, "ProposeEnd": null, "ProposeSrt": null, "ID": 0, "FID_1": 0, "GDT_ID2_1": 0, "StreetName": " ", "Intersecti": " ", "Intersec_1": " ", "Rationale": " ", "Additions": " ", "Interventi": "0", "RepairEsti": 0, "AvgDPWRati": " ", "Rating": " ", "PCI": " ", "SewerConfl": " ", "Engineerin": " ", "NationalGr": " ", "RoadRating": 0, "RiskScore": 0, "M___P_Rank": " ", "F5_Year_Pla": " ", "M_P_Rank": " ", "Sheet1_Yea": 0, "CAMP_Ratin": " ", "Shape__Length": 354.79951173069213, "CreationDate": 1487687799250, "Creator": "sbartlett_syr", "EditDate": 1487862385237, "Editor": "sbartlett_syr", "Intervention2": null, "Intervention2Intersection1": null, "Intervention2Intersection2b": null, "CurrentStatus": " ", "TypeLastCityProject": null, "Sewer_Grant": null}}, {"type": "Feature", "id": 3546, "geometry": {"type": "LineString", "coordinates": [[-76.1428494073433, 43.0427259854502], [-76.1428304240028, 43.0423071298587], [-76.1427996635323, 43.0417369732967], [-76.1427609113392, 43.0411074498128], [-76.1427011126354, 43.0408057374403], [-76.1424576145809, 43.0403973363839]]}, "properties": {"FID": 3546, "FNODE_": 2062, "TNODE_": 2223, "LPOLY_": 1214, "RPOLY_": 1212, "LENGTH": 863.935, "CITYST_": 3453, "CITYST_ID": 2908, "FNODE_1": 2063, "TNODE_1": 2224, "LPOLY_1": 0, "RPOLY_1": 0, "CITYST2_": 2908, "CITYST2_ID": 17953, "LTYPE": 1, "GDT_ID2": 13002420, "GDT_": 23014, "RECNUM": 0, "L_F_ADD": 0, "L_T_ADD": 0, "R_F_ADD": 0, "R_T_ADD": 0, "PREFIX": " ", "NAME": "ADAMS ST - I 81 SB", "TYPE": "RAMP", "SUFFIX": " ", "CFCC": "A63", "TRACT90_L": "0042", "TRACT90_R": "0042", "BLOCK90_L": "101", "BLOCK90_R": "101", "L_F_IADD": 0, "L_T_IADD": 0, "R_F_IADD": 0, "R_T_IADD": 0, "FIPMCD90_L": "73000", "FIPMCD90_R": "73000", "FIPPLC90_L": "73000", "FIPPLC90_R": "73000", "FULLNAME": "ADAMS ST - I 81 SB RAMP", "PAVE2": 0, "ST_FLAG": 1, "LINECODE": 15, "BLKSTREET": "    0 ADAMS ST - I 81 SB RAMP", "BG_L": "1", "BG_R": "1", "CTBNABG_L": "00421", "CTBNABG_R": "00421", "CITYST_I_1": 2908, "BLK": " ", "Status": null, "Start_Date": null, "End_Date": null, "ProposeEnd": null, "ProposeSrt": null, "ID": 0, "FID_1": 0, "GDT_ID2_1": 0, "StreetName": null, "Intersecti": null, "Intersec_1": null, "Rationale": " ", "Additions": " ", "Interventi": "0", "RepairEsti": 0, "AvgDPWRati": " ", "Rating": " ", "PCI": " ", "SewerConfl": " ", "Engineerin": " ", "NationalGr": " ", "RoadRating": 0, "RiskScore": 0, "M___P_Rank": " ", "F5_Year_Pla": " ", "M_P_Rank": " ", "Sheet1_Yea": null, "CAMP_Ratin": " ", "Shape__Length": 361.01260008322276, "CreationDate": 1487687799250, "Creator": "sbartlett_syr", "EditDate": 1487862385237, "Editor": "sbartlett_syr", "Intervention2": null, "Intervention2Intersection1": null, "Intervention2Intersection2b": null, "CurrentStatus": " ", "TypeLastCityProject": null, "Sewer_Grant": null}}, {"type": "Feature", "id": 3554, "geometry": {"type": "LineString", "coordinates": [[-76.1431062958643, 43.0403778798474], [-76.1427679599401, 43.0403830959733], [-76.1424576145809, 43.0403973363839]]}, "properties": {"FID": 3554, "FNODE_": 2225, "TNODE_": 2223, "LPOLY_": 1212, "RPOLY_": 1292, "LENGTH": 173.597, "CITYST_": 3455, "CITYST_ID": 2917, "FNODE_1": 2226, "TNODE_1": 2224, "LPOLY_1": 0, "RPOLY_1": 0, "CITYST2_": 2917, "CITYST2_ID": 17962, "LTYPE": 1, "GDT_ID2": 12577474, "GDT_": 22720, "RECNUM": 12577474, "L_F_ADD": 551, "L_T_ADD": 589, "R_F_ADD": 550, "R_T_ADD": 588, "PREFIX": " ", "NAME": "JACKSON", "TYPE": "ST", "SUFFIX": " ", "CFCC": "A40", "TRACT90_L": "0042", "TRACT90_R": "0042", "BLOCK90_L": "101", "BLOCK90_R": "101", "L_F_IADD": 1, "L_T_IADD": 0, "R_F_IADD": 0, "R_T_IADD": 0, "FIPMCD90_L": "73000", "FIPMCD90_R": "73000", "FIPPLC90_L": "73000", "FIPPLC90_R": "73000", "FULLNAME": "JACKSON ST", "PAVE2": 0, "ST_FLAG": 1, "LINECODE": 15, "BLKSTREET": "  500 JACKSON ST", "BG_L": "1", "BG_R": "1", "CTBNABG_L": "00421", "CTBNABG_R": "00421", "CITYST_I_1": 2917, "BLK": "500", "Status": "Planned", "Start_Date": null, "End_Date": null, "ProposeEnd": null, "ProposeSrt": null, "ID": 383, "FID_1": 352, "GDT_ID2_1": 12577474, "StreetName": "Jackson St", "Intersecti": "dead end", "Intersec_1": "Renwick", "Rationale": "Weighted", "Additions": " ", "Interventi": "11", "RepairEsti": 110400.16, "AvgDPWRati": "4.00", "Rating": "Poor", "PCI": " ", "SewerConfl": " ", "Engineerin": " ", "NationalGr": "Yes", "RoadRating": 8, "RiskScore": 8.08, "M___P_Rank": " ", "F5_Year_Pla": " ", "M_P_Rank": "93", "Sheet1_Yea": 2020, "CAMP_Ratin": "0-8", "Shape__Length": 72.28726746879693, "CreationDate": 1487687799250, "Creator": "sbartlett_syr", "EditDate": 1487884822765, "Editor": "sbartlett_syr", "Intervention2": null, "Intervention2Intersection1": null, "Intervention2Intersection2b": null, "CurrentStatus": "Mill & Pave", "TypeLastCityProject": null, "Sewer_Grant": null}}, {"type": "Feature", "id": 3558, "geometry": {"type": "LineString", "coordinates": [[-76.1432008925593, 43.0416016650434], [-76.1432157073959, 43.0415242077185], [-76.143208350425, 43.0413430842411], [-76.1432008718483, 43.0412772027041], [-76.1431062958643, 43.0403778798474]]}, "properties": {"FID": 3558, "FNODE_": 2158, "TNODE_": 2225, "LPOLY_": 1212, "RPOLY_": 1262, "LENGTH": 447.376, "CITYST_": 3456, "CITYST_ID": 2916, "FNODE_1": 2159, "TNODE_1": 2226, "LPOLY_1": 0, "RPOLY_1": 0, "CITYST2_": 2916, "CITYST2_ID": 17963, "LTYPE": 1, "GDT_ID2": 12577475, "GDT_": 22641, "RECNUM": 12577475, "L_F_ADD": 101, "L_T_ADD": 199, "R_F_ADD": 100, "R_T_ADD": 198, "PREFIX": " ", "NAME": "STEWART", "TYPE": "CT", "SUFFIX": " ", "CFCC": "A40", "TRACT90_L": "0042", "TRACT90_R": "0042", "BLOCK90_L": "101", "BLOCK90_R": "101", "L_F_IADD": 0, "L_T_IADD": 0, "R_F_IADD": 0, "R_T_IADD": 0, "FIPMCD90_L": "73000", "FIPMCD90_R": "73000", "FIPPLC90_L": "73000", "FIPPLC90_R": "73000", "FULLNAME": "STEWART CT", "PAVE2": 0, "ST_FLAG": 1, "LINECODE": 15, "BLKSTREET": "  100 STEWART CT", "BG_L": "1", "BG_R": "1", "CTBNABG_L": "00421", "CTBNABG_R": "00421", "CITYST_I_1": 2916, "BLK": "100", "Status": " ", "Start_Date": null, "End_Date": null, "ProposeEnd": null, "ProposeSrt": null, "ID": 0, "FID_1": 0, "GDT_ID2_1": 0, "StreetName": " ", "Intersecti": " ", "Intersec_1": " ", "Rationale": " ", "Additions": " ", "Interventi": "0", "RepairEsti": 0, "AvgDPWRati": " ", "Rating": " ", "PCI": " ", "SewerConfl": " ", "Engineerin": " ", "NationalGr": " ", "RoadRating": 0, "RiskScore": 0, "M___P_Rank": " ", "F5_Year_Pla": " ", "M_P_Rank": " ", "Sheet1_Yea": 0, "CAMP_Ratin": " ", "Shape__Length": 186.96232617562373, "CreationDate": 1487687799250, "Creator": "sbartlett_syr", "EditDate": 1487862385237, "Editor": "sbartlett_syr", "Intervention2": null, "Intervention2Intersection1": null, "Intervention2Intersection2b": null, "CurrentStatus": " ", "TypeLastCityProject": null, "Sewer_Grant": null}}, {"type": "Feature", "id": 3566, "geometry": {"type": "LineString", "coordinates": [[-76.1439706087449, 43.0403479283218], [-76.1431062958643, 43.0403778798474]]}, "properties": {"FID": 3566, "FNODE_": 2227, "TNODE_": 2225, "LPOLY_": 1262, "RPOLY_": 1292, "LENGTH": 231.318, "CITYST_": 3458, "CITYST_ID": 2915, "FNODE_1": 2228, "TNODE_1": 2226, "LPOLY_1": 0, "RPOLY_1": 0, "CITYST2_": 2915, "CITYST2_ID": 17969, "LTYPE": 1, "GDT_ID2": 12577473, "GDT_": 22642, "RECNUM": 12577473, "L_F_ADD": 501, "L_T_ADD": 549, "R_F_ADD": 500, "R_T_ADD": 548, "PREFIX": " ", "NAME": "JACKSON", "TYPE": "ST", "SUFFIX": " ", "CFCC": "A40", "TRACT90_L": "0042", "TRACT90_R": "0042", "BLOCK90_L": "101", "BLOCK90_R": "101", "L_F_IADD": 0, "L_T_IADD": 0, "R_F_IADD": 0, "R_T_IADD": 0, "FIPMCD90_L": "73000", "FIPMCD90_R": "73000", "FIPPLC90_L": "73000", "FIPPLC90_R": "73000", "FULLNAME": "JACKSON ST", "PAVE2": 0, "ST_FLAG": 1, "LINECODE": 15, "BLKSTREET": "  500 JACKSON ST", "BG_L": "1", "BG_R": "1", "CTBNABG_L": "00421", "CTBNABG_R": "00421", "CITYST_I_1": 2915, "BLK": "500", "Status": "Planned", "Start_Date": null, "End_Date": null, "ProposeEnd": null, "ProposeSrt": null, "ID": 384, "FID_1": 353, "GDT_ID2_1": 12577473, "StreetName": "Jackson St", "Intersecti": "dead end", "Intersec_1": "Renwick", "Rationale": "Weighted", "Additions": " ", "Interventi": "11", "RepairEsti": 110400.16, "AvgDPWRati": "4.00", "Rating": "Poor", "PCI": " ", "SewerConfl": " ", "Engineerin": " ", "NationalGr": "Yes", "RoadRating": 0, "RiskScore": 8.68, "M___P_Rank": " ", "F5_Year_Pla": " ", "M_P_Rank": "93", "Sheet1_Yea": 2020, "CAMP_Ratin": "0-8", "Shape__Length": 96.3229584529329, "CreationDate": 1487687799250, "Creator": "sbartlett_syr", "EditDate": 1487884819000, "Editor": "sbartlett_syr", "Intervention2": null, "Intervention2Intersection1": null, "Intervention2Intersection2b": null, "CurrentStatus": "Mill & Pave", "TypeLastCityProject": null, "Sewer_Grant": null}}, {"type": "Feature", "id": 3570, "geometry": {"type": "LineString", "coordinates": [[-76.1439959950243, 43.0416078036705], [-76.1440024445663, 43.0408014744819], [-76.1439706087449, 43.0403479283218]]}, "properties": {"FID": 3570, "FNODE_": 2156, "TNODE_": 2227, "LPOLY_": 1262, "RPOLY_": 1261, "LENGTH": 459.391, "CITYST_": 3459, "CITYST_ID": 2914, "FNODE_1": 2157, "TNODE_1": 2228, "LPOLY_1": 0, "RPOLY_1": 0, "CITYST2_": 2914, "CITYST2_ID": 17970, "LTYPE": 1, "GDT_ID2": 12577413, "GDT_": 22643, "RECNUM": 12577413, "L_F_ADD": 1001, "L_T_ADD": 1099, "R_F_ADD": 1000, "R_T_ADD": 1098, "PREFIX": "S", "NAME": "MCBRIDE", "TYPE": "ST", "SUFFIX": " ", "CFCC": "A40", "TRACT90_L": "0042", "TRACT90_R": "0042", "BLOCK90_L": "101", "BLOCK90_R": "102", "L_F_IADD": 1, "L_T_IADD": 0, "R_F_IADD": 0, "R_T_IADD": 0, "FIPMCD90_L": "73000", "FIPMCD90_R": "73000", "FIPPLC90_L": "73000", "FIPPLC90_R": "73000", "FULLNAME": "S MCBRIDE ST", "PAVE2": 0, "ST_FLAG": 1, "LINECODE": 15, "BLKSTREET": " 1000 S MCBRIDE ST", "BG_L": "1", "BG_R": "1", "CTBNABG_L": "00421", "CTBNABG_R": "00421", "CITYST_I_1": 2914, "BLK": "1000", "Status": " ", "Start_Date": null, "End_Date": null, "ProposeEnd": null, "ProposeSrt": null, "ID": 0, "FID_1": 0, "GDT_ID2_1": 0, "StreetName": " ", "Intersecti": " ", "Intersec_1": " ", "Rationale": " ", "Additions": " ", "Interventi": "0", "RepairEsti": 0, "AvgDPWRati": " ", "Rating": " ", "PCI": " ", "SewerConfl": " ", "Engineerin": " ", "NationalGr": " ", "RoadRating": 0, "RiskScore": 0, "M___P_Rank": " ", "F5_Year_Pla": " ", "M_P_Rank": " ", "Sheet1_Yea": 0, "CAMP_Ratin": " ", "Shape__Length": 191.98684899761938, "CreationDate": 1487687799250, "Creator": "sbartlett_syr", "EditDate": 1487862385237, "Editor": "sbartlett_syr", "Intervention2": null, "Intervention2Intersection1": null, "Intervention2Intersection2b": null, "CurrentStatus": " ", "TypeLastCityProject": null, "Sewer_Grant": null}}, {"type": "Feature", "id": 3589, "geometry": {"type": "LineString", "coordinates": [[-76.144863498914, 43.0403101910222], [-76.1439706087449, 43.0403479283218]]}, "properties": {"FID": 3589, "FNODE_": 2230, "TNODE_": 2227, "LPOLY_": 1261, "RPOLY_": 1293, "LENGTH": 239.096, "CITYST_": 3464, "CITYST_ID": 2884, "FNODE_1": 2231, "TNODE_1": 2228, "LPOLY_1": 0, "RPOLY_1": 0, "CITYST2_": 2884, "CITYST2_ID": 17983, "LTYPE": 1, "GDT_ID2": 12577411, "GDT_": 22644, "RECNUM": 12577411, "L_F_ADD": 451, "L_T_ADD": 499, "R_F_ADD": 450, "R_T_ADD": 498, "PREFIX": " ", "NAME": "JACKSON", "TYPE": "ST", "SUFFIX": " ", "CFCC": "A40", "TRACT90_L": "0042", "TRACT90_R": "0042", "BLOCK90_L": "102", "BLOCK90_R": "103", "L_F_IADD": 1, "L_T_IADD": 0, "R_F_IADD": 0, "R_T_IADD": 0, "FIPMCD90_L": "73000", "FIPMCD90_R": "73000", "FIPPLC90_L": "73000", "FIPPLC90_R": "73000", "FULLNAME": "JACKSON ST", "PAVE2": 0, "ST_FLAG": 1, "LINECODE": 15, "BLKSTREET": "  400 JACKSON ST", "BG_L": "1", "BG_R": "1", "CTBNABG_L": "00421", "CTBNABG_R": "00421", "CITYST_I_1": 2884, "BLK": "400", "Status": "Planned", "Start_Date": null, "End_Date": null, "ProposeEnd": null, "ProposeSrt": null, "ID": 385, "FID_1": 354, "GDT_ID2_1": 12577411, "StreetName": "Jackson St", "Intersecti": "dead end", "Intersec_1": "Renwick", "Rationale": "Weighted", "Additions": " ", "Interventi": "11", "RepairEsti": 110400.16, "AvgDPWRati": "4.00", "Rating": "Poor", "PCI": " ", "SewerConfl": " ", "Engineerin": " ", "NationalGr": "Yes", "RoadRating": 0, "RiskScore": 8.13, "M___P_Rank": " ", "F5_Year_Pla": " ", "M_P_Rank": "93", "Sheet1_Yea": 2020, "CAMP_Ratin": "0-8", "Shape__Length": 99.56212854814758, "CreationDate": 1487687799250, "Creator": "sbartlett_syr", "EditDate": 1487884815482, "Editor": "sbartlett_syr", "Intervention2": null, "Intervention2Intersection1": null, "Intervention2Intersection2b": null, "CurrentStatus": "Mill & Pave", "TypeLastCityProject": null, "Sewer_Grant": null}}, {"type": "Feature", "id": 3593, "geometry": {"type": "LineString", "coordinates": [[-76.1448633319328, 43.0416152421997], [-76.144863498914, 43.0403101910222]]}, "properties": {"FID": 3593, "FNODE_": 2155, "TNODE_": 2230, "LPOLY_": 1261, "RPOLY_": 1208, "LENGTH": 475.631, "CITYST_": 3465, "CITYST_ID": 2886, "FNODE_1": 2156, "TNODE_1": 2231, "LPOLY_1": 0, "RPOLY_1": 0, "CITYST2_": 2886, "CITYST2_ID": 17984, "LTYPE": 1, "GDT_ID2": 12577412, "GDT_": 22645, "RECNUM": 12577412, "L_F_ADD": 101, "L_T_ADD": 199, "R_F_ADD": 100, "R_T_ADD": 198, "PREFIX": " ", "NAME": "DABLON", "TYPE": "CT", "SUFFIX": " ", "CFCC": "A40", "TRACT90_L": "0042", "TRACT90_R": "0042", "BLOCK90_L": "102", "BLOCK90_R": "102", "L_F_IADD": 0, "L_T_IADD": 0, "R_F_IADD": 0, "R_T_IADD": 0, "FIPMCD90_L": "73000", "FIPMCD90_R": "73000", "FIPPLC90_L": "73000", "FIPPLC90_R": "73000", "FULLNAME": "DABLON CT", "PAVE2": 0, "ST_FLAG": 1, "LINECODE": 15, "BLKSTREET": "  100 DABLON CT", "BG_L": "1", "BG_R": "1", "CTBNABG_L": "00421", "CTBNABG_R": "00421", "CITYST_I_1": 2886, "BLK": "100", "Status": " ", "Start_Date": null, "End_Date": null, "ProposeEnd": null, "ProposeSrt": null, "ID": 0, "FID_1": 0, "GDT_ID2_1": 0, "StreetName": " ", "Intersecti": " ", "Intersec_1": " ", "Rationale": " ", "Additions": " ", "Interventi": "0", "RepairEsti": 0, "AvgDPWRati": " ", "Rating": " ", "PCI": " ", "SewerConfl": " ", "Engineerin": " ", "NationalGr": " ", "RoadRating": 0, "RiskScore": 0, "M___P_Rank": " ", "F5_Year_Pla": " ", "M_P_Rank": " ", "Sheet1_Yea": 0, "CAMP_Ratin": " ", "Shape__Length": 198.77466861552116, "CreationDate": 1487687799250, "Creator": "sbartlett_syr", "EditDate": 1487862385237, "Editor": "sbartlett_syr", "Intervention2": null, "Intervention2Intersection1": null, "Intervention2Intersection2b": null, "CurrentStatus": " ", "TypeLastCityProject": null, "Sewer_Grant": null}}, {"type": "Feature", "id": 3605, "geometry": {"type": "LineString", "coordinates": [[-76.1457265607978, 43.0402915398993], [-76.144863498914, 43.0403101910222]]}, "properties": {"FID": 3605, "FNODE_": 2233, "TNODE_": 2230, "LPOLY_": 1208, "RPOLY_": 1293, "LENGTH": 230.826, "CITYST_": 3468, "CITYST_ID": 2885, "FNODE_1": 2233, "TNODE_1": 2231, "LPOLY_1": 0, "RPOLY_1": 0, "CITYST2_": 2885, "CITYST2_ID": 17990, "LTYPE": 1, "GDT_ID2": 12577409, "GDT_": 22646, "RECNUM": 12577409, "L_F_ADD": 401, "L_T_ADD": 449, "R_F_ADD": 400, "R_T_ADD": 448, "PREFIX": " ", "NAME": "JACKSON", "TYPE": "ST", "SUFFIX": " ", "CFCC": "A40", "TRACT90_L": "0042", "TRACT90_R": "0042", "BLOCK90_L": "102", "BLOCK90_R": "103", "L_F_IADD": 0, "L_T_IADD": 0, "R_F_IADD": 0, "R_T_IADD": 0, "FIPMCD90_L": "73000", "FIPMCD90_R": "73000", "FIPPLC90_L": "73000", "FIPPLC90_R": "73000", "FULLNAME": "JACKSON ST", "PAVE2": 0, "ST_FLAG": 1, "LINECODE": 15, "BLKSTREET": "  400 JACKSON ST", "BG_L": "1", "BG_R": "1", "CTBNABG_L": "00421", "CTBNABG_R": "00421", "CITYST_I_1": 2885, "BLK": "400", "Status": "Planned", "Start_Date": null, "End_Date": null, "ProposeEnd": null, "ProposeSrt": null, "ID": 380, "FID_1": 355, "GDT_ID2_1": 12577409, "StreetName": "Jackson St", "Intersecti": "dead end", "Intersec_1": "Renwick", "Rationale": "Weighted", "Additions": " ", "Interventi": "11", "RepairEsti": 110400.16, "AvgDPWRati": "4.00", "Rating": "Poor", "PCI": " ", "SewerConfl": " ", "Engineerin": " ", "NationalGr": " ", "RoadRating": 5, "RiskScore": 8.13, "M___P_Rank": " ", "F5_Year_Pla": " ", "M_P_Rank": "93", "Sheet1_Yea": 2020, "CAMP_Ratin": "0-8", "Shape__Length": 96.11759784839482, "CreationDate": 1487687799250, "Creator": "sbartlett_syr", "EditDate": 1487884811671, "Editor": "sbartlett_syr", "Intervention2": null, "Intervention2Intersection1": null, "Intervention2Intersection2b": null, "CurrentStatus": "Mill & Pave", "TypeLastCityProject": null, "Sewer_Grant": null}}, {"type": "Feature", "id": 3773, "geometry": {"type": "LineString", "coordinates": [[-76.1431283034828, 43.0427301442519], [-76.1431347233459, 43.0418641360634]]}, "properties": {"FID": 3773, "FNODE_": 2059, "TNODE_": 2121, "LPOLY_": 1212, "RPOLY_": 1212, "LENGTH": 315.625, "CITYST_": 3300, "CITYST_ID": 2906, "FNODE_1": 2060, "TNODE_1": 2122, "LPOLY_1": 0, "RPOLY_1": 0, "CITYST2_": 2906, "CITYST2_ID": 17685, "LTYPE": 1, "GDT_ID2": 12577722, "GDT_": 22850, "RECNUM": 12577722, "L_F_ADD": 101, "L_T_ADD": 199, "R_F_ADD": 100, "R_T_ADD": 198, "PREFIX": " ", "NAME": "TYLER", "TYPE": "CT", "SUFFIX": " ", "CFCC": "A40", "TRACT90_L": "0042", "TRACT90_R": "0042", "BLOCK90_L": "101", "BLOCK90_R": "101", "L_F_IADD": 0, "L_T_IADD": 0, "R_F_IADD": 0, "R_T_IADD": 0, "FIPMCD90_L": "73000", "FIPMCD90_R": "73000", "FIPPLC90_L": "73000", "FIPPLC90_R": "73000", "FULLNAME": "TYLER CT", "PAVE2": 0, "ST_FLAG": 1, "LINECODE": 15, "BLKSTREET": "  100 TYLER CT", "BG_L": "1", "BG_R": "1", "CTBNABG_L": "00421", "CTBNABG_R": "00421", "CITYST_I_1": 2906, "BLK": "100", "Status": " ", "Start_Date": null, "End_Date": null, "ProposeEnd": null, "ProposeSrt": null, "ID": 0, "FID_1": 0, "GDT_ID2_1": 0, "StreetName": " ", "Intersecti": " ", "Intersec_1": " ", "Rationale": " ", "Additions": " ", "Interventi": "0", "RepairEsti": 0, "AvgDPWRati": " ", "Rating": " ", "PCI": " ", "SewerConfl": " ", "Engineerin": " ", "NationalGr": " ", "RoadRating": 0, "RiskScore": 0, "M___P_Rank": " ", "F5_Year_Pla": " ", "M_P_Rank": " ", "Sheet1_Yea": 0, "CAMP_Ratin": " ", "Shape__Length": 131.90805350399677, "CreationDate": 1487687799250, "Creator": "sbartlett_syr", "EditDate": 1487862385237, "Editor": "sbartlett_syr", "Intervention2": null, "Intervention2Intersection1": null, "Intervention2Intersection2b": null, "CurrentStatus": " ", "TypeLastCityProject": null, "Sewer_Grant": null}}, {"type": "Feature", "id": 3787, "geometry": {"type": "LineString", "coordinates": [[-76.1456524320462, 43.0393720610454], [-76.1438835209869, 43.0394462337875]]}, "properties": {"FID": 3787, "FNODE_": 2282, "TNODE_": 2271, "LPOLY_": 1293, "RPOLY_": 1319, "LENGTH": 473.67, "CITYST_": 3541, "CITYST_ID": 2879, "FNODE_1": 2283, "TNODE_1": 2272, "LPOLY_1": 0, "RPOLY_1": 0, "CITYST2_": 2879, "CITYST2_ID": 18121, "LTYPE": 1, "GDT_ID2": 12577403, "GDT_": 22849, "RECNUM": 12577403, "L_F_ADD": 401, "L_T_ADD": 499, "R_F_ADD": 400, "R_T_ADD": 498, "PREFIX": "E", "NAME": "TAYLOR", "TYPE": "ST", "SUFFIX": " ", "CFCC": "A40", "TRACT90_L": "0042", "TRACT90_R": "0042", "BLOCK90_L": "103", "BLOCK90_R": "104", "L_F_IADD": 0, "L_T_IADD": 0, "R_F_IADD": 0, "R_T_IADD": 0, "FIPMCD90_L": "73000", "FIPMCD90_R": "73000", "FIPPLC90_L": "73000", "FIPPLC90_R": "73000", "FULLNAME": "E TAYLOR ST", "PAVE2": 0, "ST_FLAG": 1, "LINECODE": 15, "BLKSTREET": "  400 E TAYLOR ST", "BG_L": "1", "BG_R": "1", "CTBNABG_L": "00421", "CTBNABG_R": "00421", "CITYST_I_1": 2879, "BLK": "400", "Status": " ", "Start_Date": null, "End_Date": null, "ProposeEnd": null, "ProposeSrt": null, "ID": 0, "FID_1": 0, "GDT_ID2_1": 0, "StreetName": " ", "Intersecti": " ", "Intersec_1": " ", "Rationale": " ", "Additions": " ", "Interventi": "0", "RepairEsti": 0, "AvgDPWRati": " ", "Rating": " ", "PCI": " ", "SewerConfl": " ", "Engineerin": " ", "NationalGr": " ", "RoadRating": 0, "RiskScore": 0, "M___P_Rank": " ", "F5_Year_Pla": " ", "M_P_Rank": " ", "Sheet1_Yea": 0, "CAMP_Ratin": " ", "Shape__Length": 197.23807293905892, "CreationDate": 1487687799250, "Creator": "sbartlett_syr", "EditDate": 1487862385237, "Editor": "sbartlett_syr", "Intervention2": null, "Intervention2Intersection1": null, "Intervention2Intersection2b": null, "CurrentStatus": " ", "TypeLastCityProject": null, "Sewer_Grant": null}}, {"type": "Feature", "id": 3831, "geometry": {"type": "LineString", "coordinates": [[-76.144863498914, 43.0403101910222], [-76.1448159782516, 43.0398915693385]]}, "properties": {"FID": 3831, "FNODE_": 2230, "TNODE_": 2248, "LPOLY_": 1293, "RPOLY_": 1293, "LENGTH": 153.096, "CITYST_": 3490, "CITYST_ID": 2892, "FNODE_1": 2231, "TNODE_1": 2249, "LPOLY_1": 0, "RPOLY_1": 0, "CITYST2_": 2892, "CITYST2_ID": 18075, "LTYPE": 1, "GDT_ID2": 12577408, "GDT_": 22648, "RECNUM": 12577408, "L_F_ADD": 101, "L_T_ADD": 199, "R_F_ADD": 100, "R_T_ADD": 198, "PREFIX": " ", "NAME": "RADISSON", "TYPE": "CT", "SUFFIX": " ", "CFCC": "A40", "TRACT90_L": "0042", "TRACT90_R": "0042", "BLOCK90_L": "103", "BLOCK90_R": "103", "L_F_IADD": 0, "L_T_IADD": 0, "R_F_IADD": 0, "R_T_IADD": 0, "FIPMCD90_L": "73000", "FIPMCD90_R": "73000", "FIPPLC90_L": "73000", "FIPPLC90_R": "73000", "FULLNAME": "RADISSON CT", "PAVE2": 0, "ST_FLAG": 1, "LINECODE": 15, "BLKSTREET": "  100 RADISSON CT", "BG_L": "1", "BG_R": "1", "CTBNABG_L": "00421", "CTBNABG_R": "00421", "CITYST_I_1": 2892, "BLK": "100", "Status": " ", "Start_Date": null, "End_Date": null, "ProposeEnd": null, "ProposeSrt": null, "ID": 0, "FID_1": 0, "GDT_ID2_1": 0, "StreetName": " ", "Intersecti": " ", "Intersec_1": " ", "Rationale": " ", "Additions": " ", "Interventi": "0", "RepairEsti": 0, "AvgDPWRati": " ", "Rating": " ", "PCI": " ", "SewerConfl": " ", "Engineerin": " ", "NationalGr": " ", "RoadRating": 0, "RiskScore": 0, "M___P_Rank": " ", "F5_Year_Pla": " ", "M_P_Rank": " ", "Sheet1_Yea": 0, "CAMP_Ratin": " ", "Shape__Length": 63.97918809292829, "CreationDate": 1487687799250, "Creator": "sbartlett_syr", "EditDate": 1487862385237, "Editor": "sbartlett_syr", "Intervention2": null, "Intervention2Intersection1": null, "Intervention2Intersection2b": null, "CurrentStatus": " ", "TypeLastCityProject": null, "Sewer_Grant": null}}, {"type": "Feature", "id": 3987, "geometry": {"type": "LineString", "coordinates": [[-76.1438835209869, 43.0394462337875], [-76.1438415510356, 43.0388403639309]]}, "properties": {"FID": 3987, "FNODE_": 2271, "TNODE_": 2311, "LPOLY_": 1316, "RPOLY_": 1319, "LENGTH": 221.097, "CITYST_": 3590, "CITYST_ID": 2877, "FNODE_1": 2272, "TNODE_1": 2312, "LPOLY_1": 0, "RPOLY_1": 0, "CITYST2_": 2877, "CITYST2_ID": 18292, "LTYPE": 1, "GDT_ID2": 12577466, "GDT_": 22659, "RECNUM": 12577466, "L_F_ADD": 1201, "L_T_ADD": 1211, "R_F_ADD": 1200, "R_T_ADD": 1210, "PREFIX": "S", "NAME": "MCBRIDE", "TYPE": "ST", "SUFFIX": " ", "CFCC": "A40", "TRACT90_L": "0042", "TRACT90_R": "0042", "BLOCK90_L": "105", "BLOCK90_R": "104", "L_F_IADD": 0, "L_T_IADD": 0, "R_F_IADD": 0, "R_T_IADD": 0, "FIPMCD90_L": "73000", "FIPMCD90_R": "73000", "FIPPLC90_L": "73000", "FIPPLC90_R": "73000", "FULLNAME": "S MCBRIDE ST", "PAVE2": 0, "ST_FLAG": 1, "LINECODE": 15, "BLKSTREET": " 1200 S MCBRIDE ST", "BG_L": "1", "BG_R": "1", "CTBNABG_L": "00421", "CTBNABG_R": "00421", "CITYST_I_1": 2877, "BLK": "1200", "Status": " ", "Start_Date": null, "End_Date": null, "ProposeEnd": null, "ProposeSrt": null, "ID": 0, "FID_1": 0, "GDT_ID2_1": 0, "StreetName": " ", "Intersecti": " ", "Intersec_1": " ", "Rationale": " ", "Additions": " ", "Interventi": "0", "RepairEsti": 0, "AvgDPWRati": " ", "Rating": " ", "PCI": " ", "SewerConfl": " ", "Engineerin": " ", "NationalGr": " ", "RoadRating": 0, "RiskScore": 0, "M___P_Rank": " ", "F5_Year_Pla": " ", "M_P_Rank": " ", "Sheet1_Yea": 0, "CAMP_Ratin": " ", "Shape__Length": 92.39657817449344, "CreationDate": 1487687799250, "Creator": "sbartlett_syr", "EditDate": 1487862385237, "Editor": "sbartlett_syr", "Intervention2": null, "Intervention2Intersection1": null, "Intervention2Intersection2b": null, "CurrentStatus": " ", "TypeLastCityProject": null, "Sewer_Grant": null}}]}