{"type":"FeatureCollection","features":[{"type":"Feature","id":55,"geometry":{"type":"Polygon","coordinates":[[[-76.15759160849727,43.082751483216043],[-76.157759063449376,43.082862345760191],[-76.158584301683447,43.083434499901905],[-76.159339449765795,43.083955341344307],[-76.159487128306921,43.084056624813094],[-76.159529911470656,43.084085867902722],[-76.159570343743283,43.084113502911386],[-76.159910272535001,43.084348069643703],[-76.160728529062681,43.084909626067372],[-76.161278338440738,43.085289169702072],[-76.162082053040606,43.08584232573908],[-76.162464306855256,43.086108619710892],[-76.162484351862503,43.086122584703119],[-76.162560704170062,43.086061156033658],[-76.162629529493884,43.085975663456878],[-76.162732683037959,43.08585933297659],[-76.16283406061271,43.085765624174137],[-76.162951886340323,43.085642201837757],[-76.163166160586741,43.085407852628059],[-76.163351938475699,43.085234985879495],[-76.163461410769486,43.085101281771493],[-76.16366284449721,43.084862275618697],[-76.163775843576801,43.084691542870743],[-76.163913855347161,43.084557941893564],[-76.163985587619237,43.08446868655534],[-76.164149497819238,43.084276875348365],[-76.164223061756161,43.084159157301443],[-76.164327374126955,43.08402680566509],[-76.164654940303734,43.083679192059073],[-76.164871849308881,43.083399426452594],[-76.164975933507591,43.083265701279913],[-76.165046251831384,43.083143171446814],[-76.165183270065057,43.082925575348128],[-76.165214767693854,43.082832800280642],[-76.165387037615886,43.082505534196194],[-76.165397465259701,43.08248572315334],[-76.165453505760382,43.082450987054415],[-76.165475779487863,43.082437181314596],[-76.165645493702925,43.082327046933962],[-76.165733991233125,43.082214232816682],[-76.165824121002217,43.082100234217393],[-76.165901028468625,43.082019533578617],[-76.165977934138411,43.081938830865177],[-76.166074400623529,43.081848674152127],[-76.166179625682631,43.081736878751379],[-76.166323445959634,43.081611166337566],[-76.166426386602978,43.081524603990061],[-76.166653224686954,43.081375375312504],[-76.16686218809339,43.081226080659775],[-76.166966725043011,43.081143097547645],[-76.167174404756921,43.080943781069614],[-76.167385207014746,43.080762336708638],[-76.167566592141966,43.080606987165602],[-76.167712225219205,43.080452696871042],[-76.167828173467882,43.080363799045756],[-76.167947396974071,43.080271340945174],[-76.168060295442345,43.080152659878522],[-76.168183125684408,43.080006624525176],[-76.16831549693309,43.079891586443004],[-76.168451281779866,43.079751550146121],[-76.168511675516413,43.079679781641339],[-76.168610140753032,43.079562771260441],[-76.168762459990916,43.079379921957674],[-76.168936098047141,43.079167379199234],[-76.169021923987685,43.079086612364037],[-76.169040734709739,43.079068911674604],[-76.169184750819454,43.078912233743743],[-76.169319213346128,43.07872693770797],[-76.169422512417285,43.078585593676301],[-76.169520776431256,43.078468047758662],[-76.169640360161878,43.078320807639052],[-76.169769764275188,43.078162885047547],[-76.170018888663037,43.077836283635378],[-76.17021669589198,43.077643488427185],[-76.171067076174225,43.077057620889057],[-76.171273827928431,43.076915175901867],[-76.171439621895601,43.076981222627438],[-76.171664319294237,43.077070732966035],[-76.171962434204431,43.077190299913134],[-76.172113105932084,43.077251576718439],[-76.172227895354041,43.077297643040538],[-76.174147094754588,43.078067410581177],[-76.17472004922594,43.07829720598631],[-76.174863396989096,43.078353872246694],[-76.174892908442814,43.078313486993942],[-76.175895566640449,43.078758882715768],[-76.176184074966983,43.078984196709172],[-76.176247905657803,43.079034045034909],[-76.176266608582026,43.07902134149753],[-76.176637945171024,43.078769112647237],[-76.176797465304219,43.078659662593047],[-76.176872283289299,43.078608176880856],[-76.176929463752074,43.078568829161732],[-76.177013912575305,43.078511153291295],[-76.177075324103086,43.07846853002637],[-76.177263643325972,43.078338959318245],[-76.17730147587416,43.078314048656829],[-76.177343720048725,43.078284337602895],[-76.177409719272632,43.078238977382718],[-76.177653041442085,43.07807127137265],[-76.17785631581782,43.077931996645141],[-76.178341624361877,43.077598822601693],[-76.178510645077523,43.077472912068025],[-76.179705353201427,43.076573099364047],[-76.185435411751428,43.072257523768073],[-76.185975592986267,43.071850642762897],[-76.193147095427676,43.066572747627447],[-76.194639384862484,43.065484979049728],[-76.195564976591896,43.065103046569],[-76.195748994681225,43.065021856922201],[-76.195938361339756,43.064938306487676],[-76.196124336858077,43.06485833470115],[-76.19757001720437,43.06431219537167],[-76.197863154549566,43.064201066279146],[-76.198254557705383,43.064054736954091],[-76.19832428403943,43.064029575029636],[-76.199373427358054,43.063632150582556],[-76.1996467011557,43.063527150160581],[-76.199698275232791,43.063542022064595],[-76.199939569006318,43.063598884421744],[-76.200184285361047,43.063646294618628],[-76.200377667488908,43.063675057189421],[-76.200282084047728,43.063539732211652],[-76.200129727978904,43.063324024267303],[-76.200028539948676,43.063180757161369],[-76.199894620004414,43.062991148841903],[-76.19968360754082,43.062692387552552],[-76.199027796060932,43.061770905188219],[-76.198459353827218,43.060972066740447],[-76.198408790354833,43.060900417354567],[-76.197688495108878,43.05985885990313],[-76.197439105718004,43.059514308241468],[-76.197561778754917,43.059508492328469],[-76.198121534279792,43.0596575773518],[-76.199582452748245,43.06003312208918],[-76.19962818957265,43.059942837977246],[-76.199894194202983,43.060012012752111],[-76.200067653494457,43.060057120643854],[-76.200052282421638,43.059865471930294],[-76.200049020638843,43.05982480473584],[-76.200028028807296,43.059638193424774],[-76.200004832510018,43.059340819731879],[-76.19985388589788,43.057406410241896],[-76.199793137326793,43.056729768319222],[-76.199740245421168,43.056009914240548],[-76.199714187091402,43.055693930040107],[-76.199639708669523,43.05468483443277],[-76.199077866358223,43.054669737203845],[-76.198902390348948,43.054421115502961],[-76.198224692315449,43.053465389082284],[-76.197646048813382,43.052649328825481],[-76.197336263889355,43.05217190726286],[-76.196261819520714,43.050677630981106],[-76.195620036132283,43.049697615833196],[-76.195607731009531,43.049526945944862],[-76.195597686946343,43.049387623422504],[-76.195552684943877,43.049300787113374],[-76.195506226772324,43.048562034780097],[-76.195501176443784,43.048481727185418],[-76.195238930364582,43.048586848560262],[-76.195169257929464,43.048465314837493],[-76.193924528017277,43.046686252256734],[-76.193913335907141,43.046670254328184],[-76.194829044371801,43.046313109284739],[-76.194910181106565,43.046281463795061],[-76.193972454934297,43.044940608704785],[-76.193140543116002,43.043782003480104],[-76.193064284233216,43.043674059374062],[-76.192633361493108,43.043064075983921],[-76.192305494380705,43.042579530641007],[-76.192270085487152,43.042527199866875],[-76.193149080704458,43.042481461940703],[-76.195085396604426,43.042423837462401],[-76.195086341632106,43.042423798070473],[-76.195302564324351,43.042392806450657],[-76.195486073967245,43.042345682482612],[-76.195622298988496,43.042292081116116],[-76.195723778072875,43.042244436438992],[-76.195793966140968,43.04220270972953],[-76.19585919011881,43.042164222992852],[-76.195928974843341,43.042130310971906],[-76.196011206624448,43.042098970583247],[-76.19609734967031,43.042073909947192],[-76.196186512852137,43.042055386433589],[-76.196277779888391,43.042043594383195],[-76.196370205751336,43.042038652632989],[-76.196616891213182,43.042026573016301],[-76.197103063038213,43.042002774214602],[-76.197624690469198,43.04197723558017],[-76.197845874556762,43.041966407311499],[-76.19801799356182,43.041957979998173],[-76.198212172495332,43.041948472023051],[-76.198953120009662,43.041912189124609],[-76.199078139446073,43.041906065595526],[-76.199099650503854,43.041905011852144],[-76.199217569656255,43.04189923760056],[-76.199746651307464,43.041877388668084],[-76.199705441093798,43.041941432627702],[-76.199629498417991,43.042059455645706],[-76.199522940258987,43.042229720220398],[-76.199494687345009,43.04238726334453],[-76.199472215089841,43.042550410869893],[-76.199452855497157,43.042710326524087],[-76.19945876192017,43.042875132892085],[-76.199469155428005,43.043040029417881],[-76.199476559342571,43.043204866413333],[-76.199484001884699,43.043368605917181],[-76.199494397189156,43.043533501773148],[-76.199501960105536,43.043693950584185],[-76.199512478479193,43.043936802976013],[-76.199465948442423,43.043940273320601],[-76.199470235202952,43.044027094896947],[-76.199481209920791,43.044193864641983],[-76.19949738678244,43.044343333535572],[-76.199704686508966,43.044339561874821],[-76.199761724139606,43.044343325000924],[-76.199867542985146,43.04436077442714],[-76.199943415592344,43.044383079407169],[-76.200037811460732,43.044426322487062],[-76.200128326607071,43.044486949932256],[-76.200172449158885,43.044528165636471],[-76.200217898522368,43.044583399757457],[-76.200271354569978,43.044655414845231],[-76.20031171677401,43.044709789482738],[-76.200374593454001,43.044790603587131],[-76.200421741531699,43.044846889195192],[-76.200476652850057,43.044899250815917],[-76.200538725537868,43.04494711533011],[-76.20060623303317,43.044993993080148],[-76.200719590540544,43.045078147759028],[-76.200778403242197,43.045141498392383],[-76.200829582958875,43.045208318576648],[-76.200872748804912,43.045278115924141],[-76.20090758547164,43.045350373758303],[-76.200933834244239,43.045424557679254],[-76.200959857539715,43.0455765057958],[-76.200964655441638,43.045689455630118],[-76.200990274495226,43.04617131892941],[-76.200990276291847,43.046261343651977],[-76.200980723607117,43.046351094485949],[-76.200961672136572,43.046440027859241],[-76.200933239559518,43.046527604141986],[-76.200895596555853,43.046613290271971],[-76.20071218213441,43.046981054817287],[-76.200608312633051,43.047189320613157],[-76.200843382878276,43.047171046794119],[-76.201781397409746,43.047098122149045],[-76.202588453742479,43.047036131799743],[-76.202923200153307,43.047011174935363],[-76.203225186802385,43.046990569233799],[-76.203459029948917,43.046986543676702],[-76.20362070693713,43.046988635233333],[-76.203799263269531,43.046997562752459],[-76.203938830921956,43.04700993352543],[-76.204122190546187,43.047029595197742],[-76.204316063154167,43.047054036715586],[-76.204301505954987,43.046929189962619],[-76.204269608575885,43.046655596942102],[-76.204264793605958,43.046603834224356],[-76.204265874279258,43.046551957890394],[-76.204272844307539,43.046500327695924],[-76.204285653385185,43.046449302741124],[-76.204354228079026,43.046293530100613],[-76.204424320925696,43.046134307852043],[-76.204511510508851,43.045936243686924],[-76.204562940855496,43.04581424844762],[-76.204628505294821,43.045471182311999],[-76.204607113712967,43.045134426538219],[-76.204596728289957,43.044970927432772],[-76.204585964676227,43.044801464839168],[-76.204575875697259,43.044642632623045],[-76.204565776836844,43.044478436305837],[-76.204555776791111,43.044397720923421],[-76.20454092494451,43.044317408533288],[-76.204520378677344,43.044235077917016],[-76.204494580859006,43.044153546824155],[-76.204427372502707,43.043993390708117],[-76.204370536992997,43.043833799435305],[-76.204315699336476,43.043672362272396],[-76.204284667034997,43.043510920745483],[-76.204272764357469,43.043346563177302],[-76.204263299707648,43.043196641479561],[-76.204252906199798,43.043032012580774],[-76.204235503137824,43.04278949340636],[-76.204217623070377,43.042540349530789],[-76.204205735664232,43.042374676296554],[-76.204193921919938,43.042210039939754],[-76.204182264482498,43.042047592690146],[-76.204170371686445,43.041881861663008],[-76.204158680113011,43.041718918513325],[-76.204149586467395,43.041561021766711],[-76.204147992856093,43.041533370196497],[-76.20387899683584,43.041542986565375],[-76.203246678097244,43.041565588670117],[-76.202705261678858,43.041584936947601],[-76.202473656235682,43.041593212651108],[-76.201947202156703,43.041612023869227],[-76.201408603753364,43.041631267085506],[-76.20118280142691,43.041639332689726],[-76.200858045180354,43.041650933764473],[-76.200540563490947,43.041662273533909],[-76.199915647768591,43.041688240363719],[-76.199326604470514,43.04171271421054],[-76.198752612444977,43.041740007885792],[-76.198497399276135,43.041752597690177],[-76.198203667246204,43.041767085547448],[-76.197960460959465,43.041779080521628],[-76.19771645696872,43.041791114885804],[-76.197474684393143,43.041803039605647],[-76.197225149475216,43.041815345772235],[-76.197060094821538,43.041823484884624],[-76.19658692341531,43.041846818270017],[-76.196361145343374,43.041857950537064],[-76.195983943653886,43.041874769080401],[-76.195596308930675,43.041892050478488],[-76.195406385316701,43.041900517193135],[-76.195055377602571,43.041914903908641],[-76.194930619575914,43.041922458689193],[-76.194948176249824,43.04221444003506],[-76.19494848886356,43.042219627971591],[-76.194149228110874,43.042255346068785],[-76.193134125551595,43.042300702060942],[-76.19254034543701,43.042324509282061],[-76.192150037327522,43.042340157755135],[-76.189808305451621,43.042441688575806],[-76.189738233266212,43.042196663700551],[-76.189713204405749,43.042114399174437],[-76.189393626946782,43.041064007232166],[-76.18921637137494,43.040477921382184],[-76.189158277325504,43.04028583527446],[-76.189043552582248,43.039909109264102],[-76.188940759262621,43.039610950512341],[-76.188799969901396,43.039207667488789],[-76.188732994208763,43.039023888252473],[-76.188656960803101,43.038815255944655],[-76.188582791401672,43.038611729097425],[-76.188543867400426,43.038504008978443],[-76.18849671303451,43.038373506809492],[-76.188448589386439,43.038240329467627],[-76.188400891539786,43.038104460521048],[-76.18835451780987,43.037972363982576],[-76.188297288838072,43.037809350044682],[-76.188088076598291,43.037213394789532],[-76.188277092015539,43.037193930887142],[-76.188889984686128,43.037131132774064],[-76.188728948196726,43.036537864286238],[-76.188914088281834,43.036487350412735],[-76.18918839514204,43.036401944951585],[-76.189148221584233,43.036287398899773],[-76.189145156532476,43.036279400878207],[-76.189135674814636,43.03625465959832],[-76.188902364369071,43.035645842769789],[-76.188879072850369,43.035588247328192],[-76.188742753506006,43.035253007258873],[-76.188060589048916,43.033473906905776],[-76.18771072219522,43.032596594185684],[-76.187648344978513,43.032440178981005],[-76.187625993995923,43.032384132170705],[-76.193805899195794,43.032162652410264],[-76.193833099284276,43.032161677296628],[-76.194112261538606,43.032151664158754],[-76.194184359425009,43.03212241139331],[-76.19474409878022,43.031895294047459],[-76.195808323015839,43.031465118452537],[-76.195794656945409,43.031316651754715],[-76.195731872791896,43.030634537033094],[-76.195716222343023,43.030556185798588],[-76.195677453750292,43.030313425567051],[-76.195637944945787,43.029723328543149],[-76.195565035880705,43.0286069533947],[-76.195587698578692,43.028478201248539],[-76.195506825050302,43.026993407767961],[-76.196721327551487,43.026760600181817],[-76.196975127670413,43.028356575812424],[-76.196977954668597,43.028356189682889],[-76.197244579136481,43.028319803528078],[-76.197897021035772,43.028252193347164],[-76.198256107299244,43.028220936492502],[-76.198565843714263,43.02819785206254],[-76.198923834931392,43.028181550521467],[-76.199293755775514,43.028165285093714],[-76.19954526159718,43.02816741406636],[-76.199686633965015,43.028138877815586],[-76.199683506031192,43.028047783027212],[-76.199679259694847,43.0278655188391],[-76.199660397768824,43.02749860898723],[-76.199729006598659,43.027494982076632],[-76.200884448463171,43.027433887350114],[-76.200868855506471,43.026689921491077],[-76.200867878139448,43.026643306227434],[-76.201603293828256,43.026617966091187],[-76.20288377579044,43.026571805867427],[-76.203626179473844,43.026545763030207],[-76.203455736725104,43.024104901818525],[-76.203381465814047,43.023071661014669],[-76.203346436009539,43.022605400500325],[-76.202430808393274,43.02263808863281],[-76.201238207717012,43.023409636596867],[-76.201160732515334,43.023459757998964],[-76.201147565009904,43.023468276511998],[-76.200288468374453,43.022715062932747],[-76.199687872741805,43.022732756907395],[-76.198209219732988,43.022783388494332],[-76.197482034408822,43.022812042164666],[-76.197482945300507,43.02270234115759],[-76.197485045561635,43.022449484574324],[-76.194209636220464,43.022505583144763],[-76.194239881597767,43.022831674813823],[-76.194314854093065,43.023639996111577],[-76.193761439775741,43.025403668975123],[-76.193713603588563,43.025548994470164],[-76.193691115163745,43.025549752973582],[-76.193491964953452,43.025556469176543],[-76.185298049463,43.025862626641448],[-76.18528729483242,43.025715539276192],[-76.185263356526733,43.025357805330131],[-76.185249914136818,43.025352734833454],[-76.18435793287378,43.025016305356822],[-76.182969761773649,43.024484464706049],[-76.182767968719801,43.0244086964018],[-76.182442779485271,43.024464322310436],[-76.182430838180181,43.024324846333755],[-76.182390349313707,43.02385190324744],[-76.182222785665445,43.023868588155743],[-76.181147818477328,43.023975617472381],[-76.181128404985728,43.023881976927754],[-76.180882861282598,43.022697623112762],[-76.180724932065758,43.021935838008446],[-76.17871553462416,43.019759462531745],[-76.178394845050875,43.019412107104223],[-76.177725693588997,43.018687295753693],[-76.177658348688766,43.018631271195275],[-76.177585595930537,43.018579344939972],[-76.17744763446585,43.018431957705239],[-76.177371587585455,43.018464283541974],[-76.176453031461364,43.01885473992256],[-76.175811001934534,43.019127375843951],[-76.175139936162779,43.019074088498613],[-76.17513844495943,43.019073969621026],[-76.174844049074508,43.018391952012202],[-76.1748444775709,43.018391569760688],[-76.175154500548501,43.018113655215117],[-76.175161599934199,43.018107290238774],[-76.17523658590423,43.018057538182319],[-76.175318094541524,43.018003046662578],[-76.175404864611437,43.017950689018932],[-76.175516880035786,43.017884663429506],[-76.17599004695046,43.017505250867551],[-76.175717927487952,43.017404338872922],[-76.174949046859865,43.017119204877176],[-76.174732352552084,43.017039455789664],[-76.173186551374101,43.016470375195816],[-76.172702006398069,43.01646248822],[-76.171994426804957,43.016450546096664],[-76.171332268727568,43.016439367841507],[-76.170991470366658,43.016433509749262],[-76.170850535478365,43.014550710708797],[-76.17084756115645,43.014506113208554],[-76.170843058800244,43.014449688765787],[-76.170776834997511,43.013619928060081],[-76.170737291158702,43.012928327549581],[-76.170585814540544,43.011188846708237],[-76.170563777069987,43.010875366197311],[-76.170496853479648,43.009923381564889],[-76.170489401954342,43.00981736234062],[-76.170472476796093,43.009828070817392],[-76.169598093529459,43.010381313302545],[-76.169284913871962,43.01059308161711],[-76.168880682773874,43.010858386764689],[-76.168468254548841,43.011135570209341],[-76.167689419689097,43.011628015607705],[-76.16767876656813,43.011497129831],[-76.167308754095856,43.009814207996897],[-76.166240607815709,43.010109244848294],[-76.166181171683249,43.010102662929384],[-76.166162774186233,43.010100625950109],[-76.165955142083021,43.010808467901882],[-76.165660945624097,43.011216369410761],[-76.165619319490474,43.011274084280849],[-76.16500338242939,43.011406411036184],[-76.164558479208523,43.011444086786199],[-76.164534196848081,43.011196286378414],[-76.161389761875313,43.011066700280033],[-76.1613736443025,43.011023021179128],[-76.161242066266198,43.010666427347566],[-76.161072776954285,43.010224193810522],[-76.160621338489705,43.00904487435983],[-76.159718270219429,43.006548034632232],[-76.159716125940832,43.006520244443578],[-76.159709269998586,43.00557024586336],[-76.15969962748234,43.004234045165511],[-76.160077722995524,43.00369476392838],[-76.160087758973887,43.003680448401184],[-76.16061083987897,43.003945888517528],[-76.161346254669482,43.004278572605834],[-76.16211655194077,43.004604408295748],[-76.16263443070207,43.004803829073289],[-76.163089261205144,43.004963513301917],[-76.163458801163571,43.005094997670717],[-76.163787279130375,43.005212388630277],[-76.164084191196395,43.005315720421741],[-76.164434787482122,43.00544016176854],[-76.164687598555886,43.005510798571805],[-76.16489947070724,43.005548751876752],[-76.16507034374898,43.005563318571518],[-76.165226072991715,43.005563887470046],[-76.165250809001378,43.005563977469009],[-76.165611160092752,43.005555003192576],[-76.165181221906195,42.999870510868092],[-76.165122838599245,42.999098496979371],[-76.165056812425874,42.998225401110261],[-76.1639493037666,42.998296070518165],[-76.163944768172726,42.997602106986747],[-76.163848029498084,42.996728273044916],[-76.16494464608455,42.996683328179863],[-76.164407338560295,42.991388787285743],[-76.163674524392533,42.984166130417066],[-76.162986472377085,42.984194029289924],[-76.157393757250873,42.984419229390397],[-76.150492825576436,42.984688728471234],[-76.149991777650285,42.984707491412443],[-76.149580769661725,42.984722300279223],[-76.146862393051805,42.984814184174347],[-76.143546731101054,42.984940413083692],[-76.142419951782301,42.984988421611774],[-76.142187139003369,42.984992807408723],[-76.142179258083388,42.984893251581468],[-76.14216678946724,42.984735721900101],[-76.142105165038771,42.984548956470562],[-76.142034560152382,42.98455160741927],[-76.139982402004932,42.984628626168771],[-76.137309036380657,42.984729034090257],[-76.135358476793513,42.984792158522005],[-76.135600557491244,42.987759576358457],[-76.135340530250772,42.987770237424996],[-76.133877317485073,42.987830215089396],[-76.133571173432884,42.987842608301982],[-76.133250108363825,42.987855518005311],[-76.132951813790569,42.987866605523429],[-76.130015740353016,42.987986241248002],[-76.128680641719882,42.98803963901868],[-76.124859745693783,42.988193620368897],[-76.125680460910402,42.998326249352147],[-76.125778079035683,42.999532319661043],[-76.125784362751091,42.999621609300419],[-76.125945218679149,43.001809502284679],[-76.126157610955019,43.004698080210304],[-76.124762829152715,43.006948291047436],[-76.12438760735013,43.007570336833084],[-76.124315663075649,43.007682607093741],[-76.124239848858934,43.007800916713769],[-76.123990002225568,43.008159566853095],[-76.122575970425061,43.009967644100072],[-76.122531996993587,43.010029603581764],[-76.122450203590333,43.010129476690508],[-76.122296132637629,43.010331175312388],[-76.122231382071959,43.010415943096106],[-76.122904639733008,43.010870594694083],[-76.123055860331306,43.010982793892573],[-76.123606762959071,43.011406455046036],[-76.124091526225726,43.011779246697941],[-76.124559826966504,43.01242371320366],[-76.125165207026356,43.013256803195056],[-76.125266730128189,43.013396510564071],[-76.123571503185858,43.013470219464594],[-76.119624213300966,43.013656068730477],[-76.117782328303633,43.013746322444362],[-76.11026925944175,43.01415674113759],[-76.110249258451958,43.014157832797068],[-76.110878697191751,43.02130810570393],[-76.110982892781578,43.022442555902465],[-76.111017969298459,43.023115995509109],[-76.111087097354527,43.023764024681455],[-76.111196584021343,43.024901527903772],[-76.111247652346933,43.025512109519319],[-76.111274506584039,43.02587242212109],[-76.111319394500484,43.026446426221177],[-76.11137255949393,43.027199295223362],[-76.111403910697348,43.027499289976909],[-76.11147986415294,43.028268774616784],[-76.111540930727642,43.02894669713983],[-76.111566579425627,43.029211559196717],[-76.111572710427453,43.029274872365676],[-76.111399789226837,43.02928347675261],[-76.110911148831391,43.029307788095679],[-76.110338444990006,43.029336280462644],[-76.109221876821067,43.029389286382184],[-76.108103662938575,43.029442960090606],[-76.107550544166983,43.0294698731011],[-76.107547952527398,43.02946999918192],[-76.107592890749487,43.029845102304456],[-76.107870004844955,43.032158080867134],[-76.107936413700656,43.032772832169101],[-76.10760472964661,43.032788412818277],[-76.106341432455821,43.032853471572764],[-76.104991650859361,43.032917125061218],[-76.1034099449178,43.032994575007429],[-76.098914238941816,43.033214335989015],[-76.09853347722887,43.033239565057983],[-76.096204527481135,43.033370214067737],[-76.093004074465583,43.033469165393569],[-76.093103232303278,43.03439157796376],[-76.093310612878184,43.036836635469861],[-76.093330564460658,43.037075790829014],[-76.083830779719776,43.037474800362141],[-76.083814910081955,43.037240815217956],[-76.082307164234379,43.036303373928597],[-76.07924015325932,43.036456608583862],[-76.078369087471032,43.036501566369466],[-76.078345981005299,43.036537041572238],[-76.078028746352601,43.037024067302639],[-76.077581685378405,43.037752828832794],[-76.077047998064756,43.037483863209182],[-76.076659746198942,43.037288191296931],[-76.076324529969213,43.037133669834049],[-76.076113281248681,43.037043875312058],[-76.075908660298325,43.036966450173921],[-76.075727827635006,43.036900956520022],[-76.075422408523224,43.036805805175945],[-76.075200866906187,43.036740646213111],[-76.074844895101791,43.036655143928542],[-76.074272642214666,43.036536172239892],[-76.074274060654503,43.036558957409326],[-76.074306998282708,43.037087894401033],[-76.07433870162572,43.037475331539682],[-76.074619550916154,43.041519515847114],[-76.075403954432346,43.041488424632583],[-76.07573684492381,43.041475228785266],[-76.076899406835281,43.0391399235438],[-76.078116591705921,43.039504066640006],[-76.0795438925215,43.039933318570775],[-76.079487949937189,43.040113138670023],[-76.079593359150934,43.040151189426567],[-76.081233776284535,43.040874346281591],[-76.081776336258258,43.041228623685235],[-76.081796748676453,43.041570862011895],[-76.081990654522116,43.043995146230792],[-76.08201097710878,43.044010591414519],[-76.082077921360394,43.044061512042404],[-76.082137733886952,43.044565968776794],[-76.082754308751888,43.044543298187371],[-76.082756413504583,43.044572119613761],[-76.083742428614954,43.045056943332796],[-76.084154087882112,43.045268913080449],[-76.084671197685523,43.045600814623427],[-76.085989402601427,43.046439803996371],[-76.087513094443636,43.047409813938266],[-76.088916309629823,43.047984543548061],[-76.092790467667427,43.048135991000599],[-76.090291562956153,43.050770345758323],[-76.089436281465723,43.050818795176824],[-76.089473383683597,43.051280147835243],[-76.08954308396649,43.05210939558544],[-76.089606399922658,43.052961980317427],[-76.089677491695937,43.05380739504011],[-76.089743860127427,43.054589161260864],[-76.087579418857686,43.054785203341915],[-76.087572694967776,43.054785813137606],[-76.085752743236455,43.054524258146017],[-76.083566585194731,43.05436587645584],[-76.082501033249088,43.054614491160223],[-76.082796372365053,43.054989632905801],[-76.083115787228948,43.055420986560719],[-76.083155560138152,43.055489105706584],[-76.083164973584019,43.055554893272941],[-76.083176505257313,43.055643557309146],[-76.083176950821709,43.055668641939242],[-76.083177678457091,43.055709684719915],[-76.083181849334949,43.055944902356231],[-76.083210356472165,43.056285607317001],[-76.083224832822978,43.056368683163534],[-76.083241568436719,43.056463764784347],[-76.083275477143744,43.056703272250722],[-76.083307629644395,43.056881728469264],[-76.083354883723274,43.057108542632918],[-76.083406430850914,43.05734167551465],[-76.083506487902199,43.057701121895072],[-76.083636382495669,43.058106700737312],[-76.083708385160634,43.058303393842905],[-76.083743547915802,43.058397915869314],[-76.083778417820184,43.058491653399336],[-76.083827820669228,43.058608095567074],[-76.083860107917175,43.058684198398026],[-76.083957568837306,43.058894120479223],[-76.084170045554814,43.059328537428009],[-76.084262900812476,43.059493883298565],[-76.084378247189889,43.059689695073892],[-76.08450798367987,43.059913555142799],[-76.084622428148734,43.06009938062931],[-76.084684424479747,43.060191445823513],[-76.08478743698835,43.060344420629754],[-76.085001152482633,43.060636107541931],[-76.085104690505645,43.06076968651174],[-76.085198739624332,43.060890434503783],[-76.085319405824862,43.061031486586565],[-76.085462733825082,43.061182164105261],[-76.085680948082327,43.061446544416349],[-76.085816599978429,43.061607665048577],[-76.086077098834394,43.061941129488389],[-76.086439545695356,43.062399960251],[-76.086860082114143,43.062904713112289],[-76.08710286080283,43.063172269100562],[-76.087230590456457,43.063310732045807],[-76.0873907888177,43.063510664394776],[-76.087533998240289,43.063689069954613],[-76.088334829248097,43.064713194180491],[-76.088466718999797,43.064886271744292],[-76.08888646040954,43.065453077656421],[-76.089288504109916,43.065991394463659],[-76.089348127990263,43.06607425371341],[-76.089744477270031,43.06658903175007],[-76.089982147239695,43.066928274460572],[-76.090128185457104,43.067135826751297],[-76.090171097079931,43.067219815858415],[-76.090195321948187,43.06726722916143],[-76.090224521686508,43.067330656627995],[-76.090250643796651,43.067387401280818],[-76.090342125530242,43.067604446828959],[-76.090397211121783,43.067754278022498],[-76.090441875357698,43.067887299412448],[-76.090479145560522,43.067980182422986],[-76.090510039521476,43.068081039481505],[-76.09053916200466,43.068184687433678],[-76.09056753619123,43.068183156386866],[-76.090631604037284,43.068179697914104],[-76.090798866749921,43.068173497600327],[-76.091948701330438,43.0681208828466],[-76.092559782099102,43.068092647367841],[-76.092568499350605,43.068202096607926],[-76.093175071474874,43.068174840301722],[-76.09317034004826,43.06806403649653],[-76.093918931327352,43.068027624669455],[-76.093931060380314,43.068187970685699],[-76.094013000208946,43.069424996693272],[-76.09416419745105,43.069417900733136],[-76.095951117231067,43.069339446121297],[-76.096138766310773,43.069332013497913],[-76.096511747715056,43.069314392021369],[-76.096517533763802,43.069415807316481],[-76.096570104970866,43.070337185268535],[-76.096822704042225,43.070326115262645],[-76.097340627719291,43.070303415477355],[-76.098640907652012,43.070242954642559],[-76.099297492581371,43.070211457997459],[-76.0993092650032,43.070426182294334],[-76.099334769970739,43.070854188867031],[-76.099409969739796,43.070846015545762],[-76.100063990877345,43.07081001354544],[-76.10007094293934,43.071081984240827],[-76.10007427748566,43.071359321631007],[-76.100120536231231,43.071906692891197],[-76.100289592879477,43.07386957786661],[-76.100292293215233,43.073954671309401],[-76.10035824033686,43.074874020347494],[-76.100881863824398,43.075185236965716],[-76.102888477386927,43.076377822487586],[-76.105796658134921,43.076216499205422],[-76.105901750243376,43.076210834483803],[-76.106344142673024,43.076186984641865],[-76.106873999570325,43.076159624930597],[-76.107878700536915,43.076102405456631],[-76.108876205998072,43.076045481863027],[-76.110073404251935,43.075983218935718],[-76.11111087486178,43.075922677089125],[-76.112001448464781,43.075868836692059],[-76.112567753606413,43.075842680919266],[-76.113097150566276,43.075819255479203],[-76.113262599580366,43.07580759459367],[-76.114061810027394,43.075763193837233],[-76.114976875298296,43.075725214386516],[-76.115000317733944,43.075759481852202],[-76.115024530924131,43.075794874639151],[-76.115446624123308,43.07577074969781],[-76.115445464398277,43.075747835391162],[-76.115435048432559,43.075542127906743],[-76.115264879669979,43.073690110679102],[-76.115236061715649,43.07336171368415],[-76.115333013291007,43.073357033656762],[-76.118552255469041,43.073201585281872],[-76.119121620272537,43.073170080314135],[-76.121135634156374,43.073062688615536],[-76.123181742150379,43.072960424318936],[-76.123662742374322,43.072944164856224],[-76.123772988117551,43.072940438263913],[-76.12442521262453,43.072920212030986],[-76.124486210927273,43.072916661956647],[-76.124488802566859,43.072947730021667],[-76.124528655426133,43.073425570561326],[-76.125499524042482,43.073378286700212],[-76.125777702641585,43.073364737459343],[-76.12590163331987,43.074842784619335],[-76.126294843886043,43.079531818092001],[-76.12717150258527,43.079489037408415],[-76.133302243887968,43.079189669551447],[-76.134557044812794,43.079132569699688],[-76.135619744607396,43.079081164433937],[-76.136545662425235,43.079035974744073],[-76.136649619063178,43.079027181148845],[-76.136702889159537,43.079912828690482],[-76.136847080440731,43.080056083590428],[-76.136997094601597,43.080203040029531],[-76.137240379041785,43.080443520301877],[-76.137667312363718,43.080873678539831],[-76.137957936222747,43.081158896864792],[-76.138356078539843,43.081549627509986],[-76.139157908474218,43.082348455643775],[-76.139524583705224,43.082698440733417],[-76.140884927692781,43.081953433233892],[-76.142261583289297,43.081194179585957],[-76.142718302949419,43.081648461751492],[-76.144210450450416,43.083114261860459],[-76.144463489696278,43.083298591322247],[-76.144601595789737,43.083399196163704],[-76.14468870272789,43.083440634374554],[-76.144789598805659,43.083464223548631],[-76.145077277088888,43.083677306454234],[-76.145046719097849,43.083711530763445],[-76.14504124745946,43.083717659303588],[-76.145812030719327,43.084080259675979],[-76.146860822796683,43.084561951206496],[-76.146964749790214,43.084609084724505],[-76.147326684611457,43.084774067826046],[-76.14738618721924,43.084796039908525],[-76.147441010502718,43.084769250893672],[-76.14761202547831,43.08471517617653],[-76.148322355712807,43.08449137059641],[-76.148662893562289,43.084384074844138],[-76.148949341153568,43.084313705944204],[-76.149155211660485,43.084150142028456],[-76.149813754917176,43.083640793679969],[-76.149898964613456,43.083699807082958],[-76.150656196787253,43.084224234398214],[-76.150708730265066,43.084183185119898],[-76.151570256843357,43.083509997175298],[-76.152022114821165,43.083155514588803],[-76.152928002903124,43.082444826238458],[-76.154053384443287,43.08156339342689],[-76.155299108790516,43.082434274773568],[-76.155382660196778,43.082482221528736],[-76.155411466472984,43.082449836248131],[-76.156070528955908,43.081708862781859],[-76.15759160849727,43.082751483216043]]]},"properties":{"OBJECTID":55,"NAME":"Syracuse","MUNI_TYPE":"city","MUNITYCODE":1,"COUNTY":"Onondaga","GNIS_ID":"979539","FIPS_CODE":"3606773000","SWIS":"311500","POP1990":163860,"POP2000":147306,"POP2010":145170,"POP2020":148620,"DOS_LL":null,"DOSLL_DATE":null,"MAP_SYMBOL":"1","CALC_SQ_MI":25.646066019999999,"DATEMOD":1521763200000,"SHAPE.AREA":124407212.096681,"SHAPE.LEN":71656.205702009291}}]}