{"type":"FeatureCollection","features":[{"type":"Feature","id":3027,"geometry":{"type":"LineString","coordinates":[[-76.1426187305217,43.0444139477462],[-76.1426201655035,43.0442133081026],[-76.1426179223084,43.0436442903297],[-76.1426097790968,43.0427233489669]]},"properties":{"FID":3027,"FNODE_":1956,"TNODE_":2064,"LPOLY_":1154,"RPOLY_":1153,"LENGTH":616.155,"CITYST_":3206,"CITYST_ID":2933,"FNODE_1":1957,"TNODE_1":2065,"LPOLY_1":0,"RPOLY_1":0,"CITYST2_":2933,"CITYST2_ID":17402,"LTYPE":1,"GDT_ID2":13002423,"GDT_":22763,"RECNUM":0,"L_F_ADD":0,"L_T_ADD":0,"R_F_ADD":0,"R_T_ADD":0,"PREFIX":" ","NAME":"I 81","TYPE":" ","SUFFIX":" ","CFCC":"A15","TRACT90_L":"0032","TRACT90_R":"0032","BLOCK90_L":"233","BLOCK90_R":"233","L_F_IADD":0,"L_T_IADD":0,"R_F_IADD":0,"R_T_IADD":0,"FIPMCD90_L":"73000","FIPMCD90_R":"73000","FIPPLC90_L":"73000","FIPPLC90_R":"73000","FULLNAME":"I 81","PAVE2":0,"ST_FLAG":1,"LINECODE":1,"BLKSTREET":"    0 I 81","BG_L":"2","BG_R":"2","CTBNABG_L":"00322","CTBNABG_R":"00322","CITYST_I_1":2933,"BLK":" ","Status":" ","Start_Date":null,"End_Date":null,"ProposeEnd":null,"ProposeSrt":null,"ID":0,"FID_1":0,"GDT_ID2_1":0,"StreetName":" ","Intersecti":" ","Intersec_1":" ","Rationale":" ","Additions":" ","Interventi":"0","RepairEsti":0,"AvgDPWRati":" ","Rating":" ","PCI":" ","SewerConfl":" ","Engineerin":" ","NationalGr":" ","RoadRating":0,"RiskScore":0,"M___P_Rank":" ","F5_Year_Pla":" ","M_P_Rank":" ","Sheet1_Yea":0,"CAMP_Ratin":" ","Shape__Length":257.51275299582363,"CreationDate":1487687799250,"Creator":"sbartlett_syr","EditDate":1487862385237,"Editor":"sbartlett_syr","Intervention2":null,"Intervention2Intersection1":null,"Intervention2Intersection2b":null,"CurrentStatus":" ","TypeLastCityProject":null,"Sewer_Grant":null}},{"type":"Feature","id":3031,"geometry":{"type":"LineString","coordinates":[[-76.1428494073433,43.0427259854502],[-76.1426097790968,43.0427233489669]]},"properties":{"FID":3031,"FNODE_":2062,"TNODE_":2064,"LPOLY_":1153,"RPOLY_":1214,"LENGTH":64.0656,"CITYST_":3207,"CITYST_ID":2910,"FNODE_1":2063,"TNODE_1":2065,"LPOLY_1":0,"RPOLY_1":0,"CITYST2_":2910,"CITYST2_ID":17406,"LTYPE":1,"GDT_ID2":12577726,"GDT_":22722,"RECNUM":12577726,"L_F_ADD":651,"L_T_ADD":679,"R_F_ADD":652,"R_T_ADD":678,"PREFIX":"E","NAME":"ADAMS","TYPE":"ST","SUFFIX":" ","CFCC":"A40","TRACT90_L":"0032","TRACT90_R":"0042","BLOCK90_L":"233","BLOCK90_R":"101","L_F_IADD":0,"L_T_IADD":0,"R_F_IADD":0,"R_T_IADD":0,"FIPMCD90_L":"73000","FIPMCD90_R":"73000","FIPPLC90_L":"73000","FIPPLC90_R":"73000","FULLNAME":"E ADAMS ST","PAVE2":0,"ST_FLAG":1,"LINECODE":15,"BLKSTREET":"  600 E ADAMS ST","BG_L":"2","BG_R":"1","CTBNABG_L":"00322","CTBNABG_R":"00421","CITYST_I_1":2910,"BLK":"600","Status":"Completed","Start_Date":1420088400000,"End_Date":1451538000000,"ProposeEnd":null,"ProposeSrt":null,"ID":0,"FID_1":0,"GDT_ID2_1":0,"StreetName":"E Adams St","Intersecti":"S Salina St","Intersec_1":"Irving Ave","Rationale":" ","Additions":" ","Interventi":"0","RepairEsti":0,"AvgDPWRati":" ","Rating":" ","PCI":" ","SewerConfl":" ","Engineerin":" ","NationalGr":" ","RoadRating":0,"RiskScore":0,"M___P_Rank":" ","F5_Year_Pla":" ","M_P_Rank":" ","Sheet1_Yea":2015,"CAMP_Ratin":" ","Shape__Length":26.678316957376314,"CreationDate":1487687799250,"Creator":"sbartlett_syr","EditDate":1487862385237,"Editor":"sbartlett_syr","Intervention2":null,"Intervention2Intersection1":null,"Intervention2Intersection2b":null,"CurrentStatus":" ","TypeLastCityProject":null,"Sewer_Grant":null}},{"type":"Feature","id":3043,"geometry":{"type":"LineString","coordinates":[[-76.142405244754,43.0427174172188],[-76.1424079633463,43.0436445114163],[-76.1424101972341,43.0442145581061],[-76.1424134369464,43.0443826323356]]},"properties":{"FID":3043,"FNODE_":2066,"TNODE_":1959,"LPOLY_":1154,"RPOLY_":1156,"LENGTH":606.903,"CITYST_":3210,"CITYST_ID":2907,"FNODE_1":2067,"TNODE_1":1960,"LPOLY_1":0,"RPOLY_1":0,"CITYST2_":2907,"CITYST2_ID":17397,"LTYPE":1,"GDT_ID2":13002456,"GDT_":22803,"RECNUM":0,"L_F_ADD":0,"L_T_ADD":0,"R_F_ADD":0,"R_T_ADD":0,"PREFIX":" ","NAME":"I 81","TYPE":" ","SUFFIX":" ","CFCC":"A15","TRACT90_L":"0032","TRACT90_R":"0043","BLOCK90_L":"233","BLOCK90_R":"122","L_F_IADD":0,"L_T_IADD":0,"R_F_IADD":0,"R_T_IADD":0,"FIPMCD90_L":"73000","FIPMCD90_R":"73000","FIPPLC90_L":"73000","FIPPLC90_R":"73000","FULLNAME":"I 81","PAVE2":0,"ST_FLAG":1,"LINECODE":1,"BLKSTREET":"    0 I 81","BG_L":"2","BG_R":"1","CTBNABG_L":"00322","CTBNABG_R":"00431","CITYST_I_1":2907,"BLK":" ","Status":" ","Start_Date":null,"End_Date":null,"ProposeEnd":null,"ProposeSrt":null,"ID":0,"FID_1":0,"GDT_ID2_1":0,"StreetName":" ","Intersecti":" ","Intersec_1":" ","Rationale":" ","Additions":" ","Interventi":"0","RepairEsti":0,"AvgDPWRati":" ","Rating":" ","PCI":" ","SewerConfl":" ","Engineerin":" ","NationalGr":" ","RoadRating":0,"RiskScore":0,"M___P_Rank":" ","F5_Year_Pla":" ","M_P_Rank":" ","Sheet1_Yea":0,"CAMP_Ratin":" ","Shape__Length":253.64579524953584,"CreationDate":1487687799250,"Creator":"sbartlett_syr","EditDate":1487862385237,"Editor":"sbartlett_syr","Intervention2":null,"Intervention2Intersection1":null,"Intervention2Intersection2b":null,"CurrentStatus":" ","TypeLastCityProject":null,"Sewer_Grant":null}},{"type":"Feature","id":3046,"geometry":{"type":"LineString","coordinates":[[-76.1426097790968,43.0427233489669],[-76.142405244754,43.0427174172188]]},"properties":{"FID":3046,"FNODE_":2064,"TNODE_":2066,"LPOLY_":1154,"RPOLY_":1216,"LENGTH":54.7196,"CITYST_":3211,"CITYST_ID":2911,"FNODE_1":2065,"TNODE_1":2067,"LPOLY_1":0,"RPOLY_1":0,"CITYST2_":2911,"CITYST2_ID":17401,"LTYPE":1,"GDT_ID2":13002418,"GDT_":22724,"RECNUM":12577726,"L_F_ADD":681,"L_T_ADD":689,"R_F_ADD":680,"R_T_ADD":688,"PREFIX":"E","NAME":"ADAMS","TYPE":"ST","SUFFIX":" ","CFCC":"A40","TRACT90_L":"0032","TRACT90_R":"0043","BLOCK90_L":"233","BLOCK90_R":"302A","L_F_IADD":0,"L_T_IADD":0,"R_F_IADD":0,"R_T_IADD":0,"FIPMCD90_L":"73000","FIPMCD90_R":"73000","FIPPLC90_L":"73000","FIPPLC90_R":"73000","FULLNAME":"E ADAMS ST","PAVE2":0,"ST_FLAG":1,"LINECODE":15,"BLKSTREET":"  600 E ADAMS ST","BG_L":"2","BG_R":"3","CTBNABG_L":"00322","CTBNABG_R":"00433","CITYST_I_1":2911,"BLK":"600","Status":"Completed","Start_Date":1420088400000,"End_Date":1451538000000,"ProposeEnd":null,"ProposeSrt":null,"ID":0,"FID_1":0,"GDT_ID2_1":0,"StreetName":"E Adams St","Intersecti":"S Salina St","Intersec_1":"Irving Ave","Rationale":" ","Additions":" ","Interventi":"0","RepairEsti":0,"AvgDPWRati":" ","Rating":" ","PCI":" ","SewerConfl":" ","Engineerin":" ","NationalGr":" ","RoadRating":0,"RiskScore":0,"M___P_Rank":" ","F5_Year_Pla":" ","M_P_Rank":" ","Sheet1_Yea":2015,"CAMP_Ratin":" ","Shape__Length":22.786578109634963,"CreationDate":1487687799250,"Creator":"sbartlett_syr","EditDate":1487862385237,"Editor":"sbartlett_syr","Intervention2":null,"Intervention2Intersection1":null,"Intervention2Intersection2b":null,"CurrentStatus":" ","TypeLastCityProject":null,"Sewer_Grant":null}},{"type":"Feature","id":3060,"geometry":{"type":"LineString","coordinates":[[-76.142221664245,43.0443242729451],[-76.1421794399692,43.0427107172359]]},"properties":{"FID":3060,"FNODE_":1963,"TNODE_":2068,"LPOLY_":1160,"RPOLY_":1156,"LENGTH":588.176,"CITYST_":3214,"CITYST_ID":2939,"FNODE_1":1964,"TNODE_1":2069,"LPOLY_1":0,"RPOLY_1":0,"CITYST2_":2939,"CITYST2_ID":17378,"LTYPE":1,"GDT_ID2":12577739,"GDT_":20101,"RECNUM":12577739,"L_F_ADD":801,"L_T_ADD":899,"R_F_ADD":800,"R_T_ADD":898,"PREFIX":" ","NAME":"ALMOND","TYPE":"ST","SUFFIX":" ","CFCC":"A40","TRACT90_L":"0043","TRACT90_R":"0043","BLOCK90_L":"124","BLOCK90_R":"122","L_F_IADD":0,"L_T_IADD":0,"R_F_IADD":0,"R_T_IADD":0,"FIPMCD90_L":"73000","FIPMCD90_R":"73000","FIPPLC90_L":"73000","FIPPLC90_R":"73000","FULLNAME":"ALMOND ST","PAVE2":0,"ST_FLAG":1,"LINECODE":15,"BLKSTREET":"  800 ALMOND ST","BG_L":"1","BG_R":"1","CTBNABG_L":"00431","CTBNABG_R":"00431","CITYST_I_1":2939,"BLK":"800","Status":" ","Start_Date":null,"End_Date":null,"ProposeEnd":null,"ProposeSrt":null,"ID":0,"FID_1":0,"GDT_ID2_1":0,"StreetName":" ","Intersecti":" ","Intersec_1":" ","Rationale":" ","Additions":" ","Interventi":"0","RepairEsti":0,"AvgDPWRati":" ","Rating":" ","PCI":" ","SewerConfl":" ","Engineerin":" ","NationalGr":" ","RoadRating":0,"RiskScore":0,"M___P_Rank":" ","F5_Year_Pla":" ","M_P_Rank":" ","Sheet1_Yea":0,"CAMP_Ratin":" ","Shape__Length":245.8187192543561,"CreationDate":1487687799250,"Creator":"sbartlett_syr","EditDate":1487862385237,"Editor":"sbartlett_syr","Intervention2":null,"Intervention2Intersection1":null,"Intervention2Intersection2b":null,"CurrentStatus":" ","TypeLastCityProject":null,"Sewer_Grant":null}},{"type":"Feature","id":3062,"geometry":{"type":"LineString","coordinates":[[-76.142405244754,43.0427174172188],[-76.1421794399692,43.0427107172359]]},"properties":{"FID":3062,"FNODE_":2066,"TNODE_":2068,"LPOLY_":1156,"RPOLY_":1217,"LENGTH":60.4124,"CITYST_":3215,"CITYST_ID":2929,"FNODE_1":2067,"TNODE_1":2069,"LPOLY_1":0,"RPOLY_1":0,"CITYST2_":2929,"CITYST2_ID":17396,"LTYPE":1,"GDT_ID2":13001882,"GDT_":20098,"RECNUM":12577738,"L_F_ADD":691,"L_T_ADD":699,"R_F_ADD":690,"R_T_ADD":698,"PREFIX":"E","NAME":"ADAMS","TYPE":"ST","SUFFIX":" ","CFCC":"A40","TRACT90_L":"0043","TRACT90_R":"0043","BLOCK90_L":"124","BLOCK90_R":"302B","L_F_IADD":0,"L_T_IADD":0,"R_F_IADD":0,"R_T_IADD":0,"FIPMCD90_L":"73000","FIPMCD90_R":"73000","FIPPLC90_L":"73000","FIPPLC90_R":"73000","FULLNAME":"E ADAMS ST","PAVE2":0,"ST_FLAG":1,"LINECODE":15,"BLKSTREET":"  600 E ADAMS ST","BG_L":"1","BG_R":"3","CTBNABG_L":"00431","CTBNABG_R":"00433","CITYST_I_1":2929,"BLK":"600","Status":"Completed","Start_Date":1420088400000,"End_Date":1451538000000,"ProposeEnd":null,"ProposeSrt":null,"ID":0,"FID_1":0,"GDT_ID2_1":0,"StreetName":"E Adams St","Intersecti":"S Salina St","Intersec_1":"Irving Ave","Rationale":" ","Additions":" ","Interventi":"0","RepairEsti":0,"AvgDPWRati":" ","Rating":" ","PCI":" ","SewerConfl":" ","Engineerin":" ","NationalGr":" ","RoadRating":0,"RiskScore":0,"M___P_Rank":" ","F5_Year_Pla":" ","M_P_Rank":" ","Sheet1_Yea":2015,"CAMP_Ratin":" ","Shape__Length":25.15718107977117,"CreationDate":1487687799250,"Creator":"sbartlett_syr","EditDate":1487862385237,"Editor":"sbartlett_syr","Intervention2":null,"Intervention2Intersection1":null,"Intervention2Intersection2b":null,"CurrentStatus":" ","TypeLastCityProject":null,"Sewer_Grant":null}},{"type":"Feature","id":3081,"geometry":{"type":"LineString","coordinates":[[-76.1405483398853,43.0426917344746],[-76.1405678702916,43.0442362634466]]},"properties":{"FID":3081,"FNODE_":2070,"TNODE_":1976,"LPOLY_":1160,"RPOLY_":1167,"LENGTH":562.935,"CITYST_":3219,"CITYST_ID":3652,"FNODE_1":2071,"TNODE_1":1977,"LPOLY_1":0,"RPOLY_1":0,"CITYST2_":3652,"CITYST2_ID":17369,"LTYPE":1,"GDT_ID2":12577747,"GDT_":20261,"RECNUM":12577747,"L_F_ADD":101,"L_T_ADD":199,"R_F_ADD":100,"R_T_ADD":198,"PREFIX":" ","NAME":"CD","TYPE":"RD","SUFFIX":" ","CFCC":"A40","TRACT90_L":"0043","TRACT90_R":"0043","BLOCK90_L":"124","BLOCK90_R":"124","L_F_IADD":0,"L_T_IADD":0,"R_F_IADD":0,"R_T_IADD":0,"FIPMCD90_L":"73000","FIPMCD90_R":"73000","FIPPLC90_L":"73000","FIPPLC90_R":"73000","FULLNAME":"CD RD","PAVE2":0,"ST_FLAG":1,"LINECODE":15,"BLKSTREET":"  100 CD RD","BG_L":"1","BG_R":"1","CTBNABG_L":"00431","CTBNABG_R":"00431","CITYST_I_1":3652,"BLK":"100","Status":" ","Start_Date":null,"End_Date":null,"ProposeEnd":null,"ProposeSrt":null,"ID":0,"FID_1":0,"GDT_ID2_1":0,"StreetName":" ","Intersecti":" ","Intersec_1":" ","Rationale":" ","Additions":" ","Interventi":"0","RepairEsti":0,"AvgDPWRati":" ","Rating":" ","PCI":" ","SewerConfl":" ","Engineerin":" ","NationalGr":" ","RoadRating":0,"RiskScore":0,"M___P_Rank":" ","F5_Year_Pla":" ","M_P_Rank":" ","Sheet1_Yea":0,"CAMP_Ratin":" ","Shape__Length":235.26959380861373,"CreationDate":1487687799250,"Creator":"sbartlett_syr","EditDate":1487862385237,"Editor":"sbartlett_syr","Intervention2":null,"Intervention2Intersection1":null,"Intervention2Intersection2b":null,"CurrentStatus":" ","TypeLastCityProject":null,"Sewer_Grant":null}},{"type":"Feature","id":3085,"geometry":{"type":"LineString","coordinates":[[-76.1421794399692,43.0427107172359],[-76.1405483398853,43.0426917344746]]},"properties":{"FID":3085,"FNODE_":2068,"TNODE_":2070,"LPOLY_":1160,"RPOLY_":1218,"LENGTH":436.087,"CITYST_":3220,"CITYST_ID":3654,"FNODE_1":2069,"TNODE_1":2071,"LPOLY_1":0,"RPOLY_1":0,"CITYST2_":3654,"CITYST2_ID":17377,"LTYPE":1,"GDT_ID2":12577738,"GDT_":23015,"RECNUM":12577738,"L_F_ADD":703,"L_T_ADD":749,"R_F_ADD":702,"R_T_ADD":748,"PREFIX":"E","NAME":"ADAMS","TYPE":"ST","SUFFIX":" ","CFCC":"A40","TRACT90_L":"0043","TRACT90_R":"0043","BLOCK90_L":"124","BLOCK90_R":"302","L_F_IADD":0,"L_T_IADD":0,"R_F_IADD":0,"R_T_IADD":0,"FIPMCD90_L":"73000","FIPMCD90_R":"73000","FIPPLC90_L":"73000","FIPPLC90_R":"73000","FULLNAME":"E ADAMS ST","PAVE2":0,"ST_FLAG":1,"LINECODE":15,"BLKSTREET":"  700 E ADAMS ST","BG_L":"1","BG_R":"3","CTBNABG_L":"00431","CTBNABG_R":"00433","CITYST_I_1":3654,"BLK":"700","Status":"Completed","Start_Date":1420088400000,"End_Date":1451538000000,"ProposeEnd":null,"ProposeSrt":null,"ID":0,"FID_1":0,"GDT_ID2_1":0,"StreetName":"E Adams St","Intersecti":"S Salina St","Intersec_1":"Irving Ave","Rationale":" ","Additions":" ","Interventi":"0","RepairEsti":0,"AvgDPWRati":" ","Rating":" ","PCI":" ","SewerConfl":" ","Engineerin":" ","NationalGr":" ","RoadRating":0,"RiskScore":0,"M___P_Rank":" ","F5_Year_Pla":" ","M_P_Rank":" ","Sheet1_Yea":2015,"CAMP_Ratin":" ","Shape__Length":181.59625054774605,"CreationDate":1487687799250,"Creator":"sbartlett_syr","EditDate":1487862385237,"Editor":"sbartlett_syr","Intervention2":null,"Intervention2Intersection1":null,"Intervention2Intersection2b":null,"CurrentStatus":" ","TypeLastCityProject":null,"Sewer_Grant":null}},{"type":"Feature","id":3241,"geometry":{"type":"LineString","coordinates":[[-76.1391293430053,43.0442234922544],[-76.1391207021381,43.0434112745192],[-76.1391026332605,43.0426744764313]]},"properties":{"FID":3241,"FNODE_":1979,"TNODE_":2073,"LPOLY_":1168,"RPOLY_":1167,"LENGTH":564.598,"CITYST_":3226,"CITYST_ID":3653,"FNODE_1":1980,"TNODE_1":2074,"LPOLY_1":0,"RPOLY_1":0,"CITYST2_":3653,"CITYST2_ID":17375,"LTYPE":1,"GDT_ID2":12577752,"GDT_":20096,"RECNUM":12577752,"L_F_ADD":101,"L_T_ADD":199,"R_F_ADD":100,"R_T_ADD":198,"PREFIX":" ","NAME":"ELIZ.BLACKWELL","TYPE":"ST","SUFFIX":" ","CFCC":"A40","TRACT90_L":"0043","TRACT90_R":"0043","BLOCK90_L":"124","BLOCK90_R":"124","L_F_IADD":0,"L_T_IADD":0,"R_F_IADD":0,"R_T_IADD":0,"FIPMCD90_L":"73000","FIPMCD90_R":"73000","FIPPLC90_L":"73000","FIPPLC90_R":"73000","FULLNAME":"ELIZ.BLACKWELL ST","PAVE2":0,"ST_FLAG":1,"LINECODE":15,"BLKSTREET":"  100 ELIZ.BLACKWELL ST","BG_L":"1","BG_R":"1","CTBNABG_L":"00431","CTBNABG_R":"00431","CITYST_I_1":3653,"BLK":"100","Status":" ","Start_Date":null,"End_Date":null,"ProposeEnd":null,"ProposeSrt":null,"ID":0,"FID_1":0,"GDT_ID2_1":0,"StreetName":" ","Intersecti":" ","Intersec_1":" ","Rationale":" ","Additions":" ","Interventi":"0","RepairEsti":0,"AvgDPWRati":" ","Rating":" ","PCI":" ","SewerConfl":" ","Engineerin":" ","NationalGr":" ","RoadRating":0,"RiskScore":0,"M___P_Rank":" ","F5_Year_Pla":" ","M_P_Rank":" ","Sheet1_Yea":0,"CAMP_Ratin":" ","Shape__Length":235.96468155386432,"CreationDate":1487687799250,"Creator":"sbartlett_syr","EditDate":1487862385237,"Editor":"sbartlett_syr","Intervention2":null,"Intervention2Intersection1":null,"Intervention2Intersection2b":null,"CurrentStatus":" ","TypeLastCityProject":null,"Sewer_Grant":null}},{"type":"Feature","id":3246,"geometry":{"type":"LineString","coordinates":[[-76.1405483398853,43.0426917344746],[-76.1391026332605,43.0426744764313]]},"properties":{"FID":3246,"FNODE_":2070,"TNODE_":2073,"LPOLY_":1167,"RPOLY_":1218,"LENGTH":386.523,"CITYST_":3227,"CITYST_ID":3655,"FNODE_1":2071,"TNODE_1":2074,"LPOLY_1":0,"RPOLY_1":0,"CITYST2_":3655,"CITYST2_ID":17376,"LTYPE":1,"GDT_ID2":12577751,"GDT_":23019,"RECNUM":12577751,"L_F_ADD":751,"L_T_ADD":799,"R_F_ADD":750,"R_T_ADD":798,"PREFIX":"E","NAME":"ADAMS","TYPE":"ST","SUFFIX":" ","CFCC":"A40","TRACT90_L":"0043","TRACT90_R":"0043","BLOCK90_L":"124","BLOCK90_R":"302","L_F_IADD":1,"L_T_IADD":0,"R_F_IADD":0,"R_T_IADD":0,"FIPMCD90_L":"73000","FIPMCD90_R":"73000","FIPPLC90_L":"73000","FIPPLC90_R":"73000","FULLNAME":"E ADAMS ST","PAVE2":0,"ST_FLAG":1,"LINECODE":15,"BLKSTREET":"  700 E ADAMS ST","BG_L":"1","BG_R":"3","CTBNABG_L":"00431","CTBNABG_R":"00433","CITYST_I_1":3655,"BLK":"700","Status":"Completed","Start_Date":1420088400000,"End_Date":1451538000000,"ProposeEnd":null,"ProposeSrt":null,"ID":0,"FID_1":0,"GDT_ID2_1":0,"StreetName":"E Adams St","Intersecti":"S Salina St","Intersec_1":"Irving Ave","Rationale":" ","Additions":" ","Interventi":"0","RepairEsti":0,"AvgDPWRati":" ","Rating":" ","PCI":" ","SewerConfl":" ","Engineerin":" ","NationalGr":" ","RoadRating":0,"RiskScore":0,"M___P_Rank":" ","F5_Year_Pla":" ","M_P_Rank":" ","Sheet1_Yea":2015,"CAMP_Ratin":" ","Shape__Length":160.9567919515018,"CreationDate":1487687799250,"Creator":"sbartlett_syr","EditDate":1487862385237,"Editor":"sbartlett_syr","Intervention2":null,"Intervention2Intersection1":null,"Intervention2Intersection2b":null,"CurrentStatus":" ","TypeLastCityProject":null,"Sewer_Grant":null}},{"type":"Feature","id":3311,"geometry":{"type":"LineString","coordinates":[[-76.1421713865535,43.0416148545349],[-76.1421794399692,43.0427107172359]]},"properties":{"FID":3311,"FNODE_":2149,"TNODE_":2068,"LPOLY_":1217,"RPOLY_":1218,"LENGTH":399.398,"CITYST_":3339,"CITYST_ID":2930,"FNODE_1":2150,"TNODE_1":2069,"LPOLY_1":0,"RPOLY_1":0,"CITYST2_":2930,"CITYST2_ID":17659,"LTYPE":1,"GDT_ID2":13001883,"GDT_":23562,"RECNUM":0,"L_F_ADD":101,"L_T_ADD":101,"R_F_ADD":100,"R_T_ADD":100,"PREFIX":" ","NAME":"MONROE","TYPE":"ST","SUFFIX":" ","CFCC":"A41","TRACT90_L":"0043","TRACT90_R":"0043","BLOCK90_L":"302","BLOCK90_R":"302","L_F_IADD":0,"L_T_IADD":0,"R_F_IADD":0,"R_T_IADD":0,"FIPMCD90_L":"73000","FIPMCD90_R":"73000","FIPPLC90_L":"73000","FIPPLC90_R":"73000","FULLNAME":"MONROE ST","PAVE2":0,"ST_FLAG":1,"LINECODE":15,"BLKSTREET":"  100 MONROE ST","BG_L":"3","BG_R":"3","CTBNABG_L":"00433","CTBNABG_R":"00433","CITYST_I_1":2930,"BLK":"100","Status":" ","Start_Date":null,"End_Date":null,"ProposeEnd":null,"ProposeSrt":null,"ID":0,"FID_1":0,"GDT_ID2_1":0,"StreetName":" ","Intersecti":" ","Intersec_1":" ","Rationale":" ","Additions":" ","Interventi":"0","RepairEsti":0,"AvgDPWRati":" ","Rating":" ","PCI":" ","SewerConfl":" ","Engineerin":" ","NationalGr":" ","RoadRating":0,"RiskScore":0,"M___P_Rank":" ","F5_Year_Pla":" ","M_P_Rank":" ","Sheet1_Yea":0,"CAMP_Ratin":" ","Shape__Length":166.9184709450082,"CreationDate":1487687799250,"Creator":"sbartlett_syr","EditDate":1487862385237,"Editor":"sbartlett_syr","Intervention2":null,"Intervention2Intersection1":null,"Intervention2Intersection2b":null,"CurrentStatus":" ","TypeLastCityProject":null,"Sewer_Grant":null}},{"type":"Feature","id":3423,"geometry":{"type":"LineString","coordinates":[[-76.1422452527549,43.0404081804171],[-76.1422874987328,43.0411694232178],[-76.1423196384941,43.0415461426741],[-76.142405244754,43.0427174172188]]},"properties":{"FID":3423,"FNODE_":2220,"TNODE_":2066,"LPOLY_":1216,"RPOLY_":1217,"LENGTH":842.722,"CITYST_":3447,"CITYST_ID":2922,"FNODE_1":2221,"TNODE_1":2067,"LPOLY_1":0,"RPOLY_1":0,"CITYST2_":2922,"CITYST2_ID":17943,"LTYPE":1,"GDT_ID2":13002421,"GDT_":23569,"RECNUM":0,"L_F_ADD":0,"L_T_ADD":0,"R_F_ADD":0,"R_T_ADD":0,"PREFIX":" ","NAME":"I 81","TYPE":" ","SUFFIX":" ","CFCC":"A15","TRACT90_L":"0043","TRACT90_R":"0043","BLOCK90_L":"310","BLOCK90_R":"310","L_F_IADD":0,"L_T_IADD":0,"R_F_IADD":0,"R_T_IADD":0,"FIPMCD90_L":"73000","FIPMCD90_R":"73000","FIPPLC90_L":"73000","FIPPLC90_R":"73000","FULLNAME":"I 81","PAVE2":0,"ST_FLAG":1,"LINECODE":1,"BLKSTREET":"    0 I 81","BG_L":"3","BG_R":"3","CTBNABG_L":"00433","CTBNABG_R":"00433","CITYST_I_1":2922,"BLK":" ","Status":" ","Start_Date":null,"End_Date":null,"ProposeEnd":null,"ProposeSrt":null,"ID":0,"FID_1":0,"GDT_ID2_1":0,"StreetName":" ","Intersecti":" ","Intersec_1":" ","Rationale":" ","Additions":" ","Interventi":"0","RepairEsti":0,"AvgDPWRati":" ","Rating":" ","PCI":" ","SewerConfl":" ","Engineerin":" ","NationalGr":" ","RoadRating":0,"RiskScore":0,"M___P_Rank":" ","F5_Year_Pla":" ","M_P_Rank":" ","Sheet1_Yea":0,"CAMP_Ratin":" ","Shape__Length":352.1885164168176,"CreationDate":1487687799250,"Creator":"sbartlett_syr","EditDate":1487862385237,"Editor":"sbartlett_syr","Intervention2":null,"Intervention2Intersection1":null,"Intervention2Intersection2b":null,"CurrentStatus":" ","TypeLastCityProject":null,"Sewer_Grant":null}},{"type":"Feature","id":3542,"geometry":{"type":"LineString","coordinates":[[-76.1426097790968,43.0427233489669],[-76.1426126877951,43.0426108616387],[-76.1425939615074,43.0419601502642],[-76.1425330662213,43.0411580209067],[-76.1424576145809,43.0403973363839]]},"properties":{"FID":3542,"FNODE_":2064,"TNODE_":2223,"LPOLY_":1216,"RPOLY_":1214,"LENGTH":848.971,"CITYST_":3452,"CITYST_ID":2912,"FNODE_1":2065,"TNODE_1":2224,"LPOLY_1":0,"RPOLY_1":0,"CITYST2_":2912,"CITYST2_ID":17947,"LTYPE":1,"GDT_ID2":13002419,"GDT_":22802,"RECNUM":0,"L_F_ADD":0,"L_T_ADD":0,"R_F_ADD":0,"R_T_ADD":0,"PREFIX":" ","NAME":"I 81","TYPE":" ","SUFFIX":" ","CFCC":"A15","TRACT90_L":"0043","TRACT90_R":"0042","BLOCK90_L":"302A","BLOCK90_R":"101","L_F_IADD":0,"L_T_IADD":0,"R_F_IADD":0,"R_T_IADD":0,"FIPMCD90_L":"73000","FIPMCD90_R":"73000","FIPPLC90_L":"73000","FIPPLC90_R":"73000","FULLNAME":"I 81","PAVE2":0,"ST_FLAG":1,"LINECODE":1,"BLKSTREET":"    0 I 81","BG_L":"3","BG_R":"1","CTBNABG_L":"00433","CTBNABG_R":"00421","CITYST_I_1":2912,"BLK":" ","Status":" ","Start_Date":null,"End_Date":null,"ProposeEnd":null,"ProposeSrt":null,"ID":0,"FID_1":0,"GDT_ID2_1":0,"StreetName":" ","Intersecti":" ","Intersec_1":" ","Rationale":" ","Additions":" ","Interventi":"0","RepairEsti":0,"AvgDPWRati":" ","Rating":" ","PCI":" ","SewerConfl":" ","Engineerin":" ","NationalGr":" ","RoadRating":0,"RiskScore":0,"M___P_Rank":" ","F5_Year_Pla":" ","M_P_Rank":" ","Sheet1_Yea":0,"CAMP_Ratin":" ","Shape__Length":354.79951173069213,"CreationDate":1487687799250,"Creator":"sbartlett_syr","EditDate":1487862385237,"Editor":"sbartlett_syr","Intervention2":null,"Intervention2Intersection1":null,"Intervention2Intersection2b":null,"CurrentStatus":" ","TypeLastCityProject":null,"Sewer_Grant":null}},{"type":"Feature","id":3678,"geometry":{"type":"LineString","coordinates":[[-76.142609617494,43.0469629631083],[-76.1426187305217,43.0444139477462]]},"properties":{"FID":3678,"FNODE_":1818,"TNODE_":1956,"LPOLY_":1062,"RPOLY_":1089,"LENGTH":929.003,"CITYST_":3039,"CITYST_ID":2937,"FNODE_1":1819,"TNODE_1":1957,"LPOLY_1":0,"RPOLY_1":0,"CITYST2_":2937,"CITYST2_ID":17035,"LTYPE":1,"GDT_ID2":13002431,"GDT_":22775,"RECNUM":0,"L_F_ADD":0,"L_T_ADD":0,"R_F_ADD":0,"R_T_ADD":0,"PREFIX":" ","NAME":"I 81","TYPE":" ","SUFFIX":" ","CFCC":"A15","TRACT90_L":"0032","TRACT90_R":"0032","BLOCK90_L":"229","BLOCK90_R":"232","L_F_IADD":0,"L_T_IADD":0,"R_F_IADD":0,"R_T_IADD":0,"FIPMCD90_L":"73000","FIPMCD90_R":"73000","FIPPLC90_L":"73000","FIPPLC90_R":"73000","FULLNAME":"I 81","PAVE2":0,"ST_FLAG":1,"LINECODE":1,"BLKSTREET":"    0 I 81","BG_L":"2","BG_R":"2","CTBNABG_L":"00322","CTBNABG_R":"00322","CITYST_I_1":2937,"BLK":" ","Status":" ","Start_Date":null,"End_Date":null,"ProposeEnd":null,"ProposeSrt":null,"ID":0,"FID_1":0,"GDT_ID2_1":0,"StreetName":" ","Intersecti":" ","Intersec_1":" ","Rationale":" ","Additions":" ","Interventi":"0","RepairEsti":0,"AvgDPWRati":" ","Rating":" ","PCI":" ","SewerConfl":" ","Engineerin":" ","NationalGr":" ","RoadRating":0,"RiskScore":0,"M___P_Rank":" ","F5_Year_Pla":" ","M_P_Rank":" ","Sheet1_Yea":0,"CAMP_Ratin":" ","Shape__Length":388.2762999477399,"CreationDate":1487687799250,"Creator":"sbartlett_syr","EditDate":1487862385237,"Editor":"sbartlett_syr","Intervention2":null,"Intervention2Intersection1":null,"Intervention2Intersection2b":null,"CurrentStatus":" ","TypeLastCityProject":null,"Sewer_Grant":null}},{"type":"Feature","id":3705,"geometry":{"type":"LineString","coordinates":[[-76.1432789398785,43.0443904188134],[-76.1426187305217,43.0444139477462]]},"properties":{"FID":3705,"FNODE_":1958,"TNODE_":1956,"LPOLY_":1089,"RPOLY_":1153,"LENGTH":176.693,"CITYST_":3043,"CITYST_ID":2934,"FNODE_1":1959,"TNODE_1":1957,"LPOLY_1":0,"RPOLY_1":0,"CITYST2_":2934,"CITYST2_ID":17036,"LTYPE":1,"GDT_ID2":13002428,"GDT_":22726,"RECNUM":12577675,"L_F_ADD":551,"L_T_ADD":599,"R_F_ADD":550,"R_T_ADD":598,"PREFIX":" ","NAME":"HARRISON","TYPE":"ST","SUFFIX":" ","CFCC":"A40","TRACT90_L":"0032","TRACT90_R":"0032","BLOCK90_L":"232","BLOCK90_R":"233","L_F_IADD":0,"L_T_IADD":0,"R_F_IADD":0,"R_T_IADD":0,"FIPMCD90_L":"73000","FIPMCD90_R":"73000","FIPPLC90_L":"73000","FIPPLC90_R":"73000","FULLNAME":"HARRISON ST","PAVE2":0,"ST_FLAG":1,"LINECODE":15,"BLKSTREET":"  500 HARRISON ST","BG_L":"2","BG_R":"2","CTBNABG_L":"00322","CTBNABG_R":"00322","CITYST_I_1":2934,"BLK":"500","Status":" ","Start_Date":null,"End_Date":null,"ProposeEnd":null,"ProposeSrt":null,"ID":0,"FID_1":0,"GDT_ID2_1":0,"StreetName":" ","Intersecti":" ","Intersec_1":" ","Rationale":" ","Additions":" ","Interventi":"0","RepairEsti":0,"AvgDPWRati":" ","Rating":" ","PCI":" ","SewerConfl":" ","Engineerin":" ","NationalGr":" ","RoadRating":0,"RiskScore":0,"M___P_Rank":" ","F5_Year_Pla":" ","M_P_Rank":" ","Sheet1_Yea":0,"CAMP_Ratin":" ","Shape__Length":73.58150259886443,"CreationDate":1487687799250,"Creator":"sbartlett_syr","EditDate":1487862385237,"Editor":"sbartlett_syr","Intervention2":null,"Intervention2Intersection1":null,"Intervention2Intersection2b":null,"CurrentStatus":" ","TypeLastCityProject":null,"Sewer_Grant":null}},{"type":"Feature","id":3715,"geometry":{"type":"LineString","coordinates":[[-76.1424134369464,43.0443826323356],[-76.1424221155238,43.0472215368146]]},"properties":{"FID":3715,"FNODE_":1959,"TNODE_":1787,"LPOLY_":1062,"RPOLY_":1071,"LENGTH":1034.65,"CITYST_":3045,"CITYST_ID":2945,"FNODE_1":1960,"TNODE_1":1788,"LPOLY_1":0,"RPOLY_1":0,"CITYST2_":2945,"CITYST2_ID":17027,"LTYPE":1,"GDT_ID2":13002432,"GDT_":22764,"RECNUM":0,"L_F_ADD":0,"L_T_ADD":0,"R_F_ADD":0,"R_T_ADD":0,"PREFIX":" ","NAME":"I 81","TYPE":" ","SUFFIX":" ","CFCC":"A15","TRACT90_L":"0032","TRACT90_R":"0043","BLOCK90_L":"229","BLOCK90_R":"117","L_F_IADD":0,"L_T_IADD":0,"R_F_IADD":0,"R_T_IADD":0,"FIPMCD90_L":"73000","FIPMCD90_R":"73000","FIPPLC90_L":"73000","FIPPLC90_R":"73000","FULLNAME":"I 81","PAVE2":0,"ST_FLAG":1,"LINECODE":1,"BLKSTREET":"    0 I 81","BG_L":"2","BG_R":"1","CTBNABG_L":"00322","CTBNABG_R":"00431","CITYST_I_1":2945,"BLK":" ","Status":" ","Start_Date":null,"End_Date":null,"ProposeEnd":null,"ProposeSrt":null,"ID":0,"FID_1":0,"GDT_ID2_1":0,"StreetName":" ","Intersecti":" ","Intersec_1":" ","Rationale":" ","Additions":" ","Interventi":"0","RepairEsti":0,"AvgDPWRati":" ","Rating":" ","PCI":" ","SewerConfl":" ","Engineerin":" ","NationalGr":" ","RoadRating":0,"RiskScore":0,"M___P_Rank":" ","F5_Year_Pla":" ","M_P_Rank":" ","Sheet1_Yea":0,"CAMP_Ratin":" ","Shape__Length":432.43378355865013,"CreationDate":1487687799250,"Creator":"sbartlett_syr","EditDate":1487862385237,"Editor":"sbartlett_syr","Intervention2":null,"Intervention2Intersection1":null,"Intervention2Intersection2b":null,"CurrentStatus":" ","TypeLastCityProject":null,"Sewer_Grant":null}},{"type":"Feature","id":3723,"geometry":{"type":"LineString","coordinates":[[-76.1426187305217,43.0444139477462],[-76.1424134369464,43.0443826323356]]},"properties":{"FID":3723,"FNODE_":1956,"TNODE_":1959,"LPOLY_":1062,"RPOLY_":1154,"LENGTH":56.0526,"CITYST_":3046,"CITYST_ID":2935,"FNODE_1":1957,"TNODE_1":1960,"LPOLY_1":0,"RPOLY_1":0,"CITYST2_":2935,"CITYST2_ID":17034,"LTYPE":1,"GDT_ID2":13002429,"GDT_":22748,"RECNUM":12577675,"L_F_ADD":601,"L_T_ADD":649,"R_F_ADD":600,"R_T_ADD":648,"PREFIX":" ","NAME":"HARRISON","TYPE":"ST","SUFFIX":" ","CFCC":"A40","TRACT90_L":"0032","TRACT90_R":"0032","BLOCK90_L":"229","BLOCK90_R":"233","L_F_IADD":0,"L_T_IADD":0,"R_F_IADD":0,"R_T_IADD":0,"FIPMCD90_L":"73000","FIPMCD90_R":"73000","FIPPLC90_L":"73000","FIPPLC90_R":"73000","FULLNAME":"HARRISON ST","PAVE2":0,"ST_FLAG":1,"LINECODE":15,"BLKSTREET":"  600 HARRISON ST","BG_L":"2","BG_R":"2","CTBNABG_L":"00322","CTBNABG_R":"00322","CITYST_I_1":2935,"BLK":"600","Status":" ","Start_Date":null,"End_Date":null,"ProposeEnd":null,"ProposeSrt":null,"ID":0,"FID_1":0,"GDT_ID2_1":0,"StreetName":" ","Intersecti":" ","Intersec_1":" ","Rationale":" ","Additions":" ","Interventi":"0","RepairEsti":0,"AvgDPWRati":" ","Rating":" ","PCI":" ","SewerConfl":" ","Engineerin":" ","NationalGr":" ","RoadRating":0,"RiskScore":0,"M___P_Rank":" ","F5_Year_Pla":" ","M_P_Rank":" ","Sheet1_Yea":0,"CAMP_Ratin":" ","Shape__Length":23.345670004542107,"CreationDate":1487687799250,"Creator":"sbartlett_syr","EditDate":1487862385237,"Editor":"sbartlett_syr","Intervention2":null,"Intervention2Intersection1":null,"Intervention2Intersection2b":null,"CurrentStatus":" ","TypeLastCityProject":null,"Sewer_Grant":null}},{"type":"Feature","id":3895,"geometry":{"type":"LineString","coordinates":[[-76.1421979700269,43.045413153218],[-76.142221664245,43.0443242729451]]},"properties":{"FID":3895,"FNODE_":1903,"TNODE_":1963,"LPOLY_":1131,"RPOLY_":1071,"LENGTH":396.898,"CITYST_":3051,"CITYST_ID":2938,"FNODE_1":1904,"TNODE_1":1964,"LPOLY_1":0,"RPOLY_1":0,"CITYST2_":2938,"CITYST2_ID":17024,"LTYPE":1,"GDT_ID2":12577770,"GDT_":20103,"RECNUM":12577770,"L_F_ADD":701,"L_T_ADD":799,"R_F_ADD":700,"R_T_ADD":798,"PREFIX":" ","NAME":"ALMOND","TYPE":"ST","SUFFIX":" ","CFCC":"A40","TRACT90_L":"0043","TRACT90_R":"0043","BLOCK90_L":"116","BLOCK90_R":"117","L_F_IADD":0,"L_T_IADD":0,"R_F_IADD":0,"R_T_IADD":0,"FIPMCD90_L":"73000","FIPMCD90_R":"73000","FIPPLC90_L":"73000","FIPPLC90_R":"73000","FULLNAME":"ALMOND ST","PAVE2":0,"ST_FLAG":1,"LINECODE":15,"BLKSTREET":"  700 ALMOND ST","BG_L":"1","BG_R":"1","CTBNABG_L":"00431","CTBNABG_R":"00431","CITYST_I_1":2938,"BLK":"700","Status":" ","Start_Date":null,"End_Date":null,"ProposeEnd":null,"ProposeSrt":null,"ID":0,"FID_1":0,"GDT_ID2_1":0,"StreetName":" ","Intersecti":" ","Intersec_1":" ","Rationale":" ","Additions":" ","Interventi":"0","RepairEsti":0,"AvgDPWRati":" ","Rating":" ","PCI":" ","SewerConfl":" ","Engineerin":" ","NationalGr":" ","RoadRating":0,"RiskScore":0,"M___P_Rank":" ","F5_Year_Pla":" ","M_P_Rank":" ","Sheet1_Yea":0,"CAMP_Ratin":" ","Shape__Length":165.88082347811277,"CreationDate":1487687799250,"Creator":"sbartlett_syr","EditDate":1487862385237,"Editor":"sbartlett_syr","Intervention2":null,"Intervention2Intersection1":null,"Intervention2Intersection2b":null,"CurrentStatus":" ","TypeLastCityProject":null,"Sewer_Grant":null}},{"type":"Feature","id":3896,"geometry":{"type":"LineString","coordinates":[[-76.1424134369464,43.0443826323356],[-76.142221664245,43.0443242729451]]},"properties":{"FID":3896,"FNODE_":1959,"TNODE_":1963,"LPOLY_":1071,"RPOLY_":1156,"LENGTH":55.5013,"CITYST_":3052,"CITYST_ID":2940,"FNODE_1":1960,"TNODE_1":1964,"LPOLY_1":0,"RPOLY_1":0,"CITYST2_":2940,"CITYST2_ID":17026,"LTYPE":1,"GDT_ID2":12577744,"GDT_":20104,"RECNUM":12577744,"L_F_ADD":651,"L_T_ADD":699,"R_F_ADD":650,"R_T_ADD":698,"PREFIX":" ","NAME":"HARRISON","TYPE":"ST","SUFFIX":" ","CFCC":"A40","TRACT90_L":"0043","TRACT90_R":"0043","BLOCK90_L":"117","BLOCK90_R":"122","L_F_IADD":0,"L_T_IADD":0,"R_F_IADD":0,"R_T_IADD":0,"FIPMCD90_L":"73000","FIPMCD90_R":"73000","FIPPLC90_L":"73000","FIPPLC90_R":"73000","FULLNAME":"HARRISON ST","PAVE2":0,"ST_FLAG":1,"LINECODE":15,"BLKSTREET":"  600 HARRISON ST","BG_L":"1","BG_R":"1","CTBNABG_L":"00431","CTBNABG_R":"00431","CITYST_I_1":2940,"BLK":"600","Status":" ","Start_Date":null,"End_Date":null,"ProposeEnd":null,"ProposeSrt":null,"ID":0,"FID_1":0,"GDT_ID2_1":0,"StreetName":" ","Intersecti":" ","Intersec_1":" ","Rationale":" ","Additions":" ","Interventi":"0","RepairEsti":0,"AvgDPWRati":" ","Rating":" ","PCI":" ","SewerConfl":" ","Engineerin":" ","NationalGr":" ","RoadRating":0,"RiskScore":0,"M___P_Rank":" ","F5_Year_Pla":" ","M_P_Rank":" ","Sheet1_Yea":0,"CAMP_Ratin":" ","Shape__Length":23.124850080679934,"CreationDate":1487687799250,"Creator":"sbartlett_syr","EditDate":1487862385237,"Editor":"sbartlett_syr","Intervention2":null,"Intervention2Intersection1":null,"Intervention2Intersection2b":null,"CurrentStatus":" ","TypeLastCityProject":null,"Sewer_Grant":null}},{"type":"Feature","id":3945,"geometry":{"type":"LineString","coordinates":[[-76.142221664245,43.0443242729451],[-76.1419991431128,43.0442500175608],[-76.1405678702916,43.0442362634466]]},"properties":{"FID":3945,"FNODE_":1963,"TNODE_":1976,"LPOLY_":1131,"RPOLY_":1160,"LENGTH":447.987,"CITYST_":3073,"CITYST_ID":3651,"FNODE_1":1964,"TNODE_1":1977,"LPOLY_1":0,"RPOLY_1":0,"CITYST2_":3651,"CITYST2_ID":17031,"LTYPE":1,"GDT_ID2":12577749,"GDT_":20100,"RECNUM":12577749,"L_F_ADD":701,"L_T_ADD":729,"R_F_ADD":700,"R_T_ADD":728,"PREFIX":" ","NAME":"HARRISON","TYPE":"ST","SUFFIX":" ","CFCC":"A40","TRACT90_L":"0043","TRACT90_R":"0043","BLOCK90_L":"116","BLOCK90_R":"124","L_F_IADD":0,"L_T_IADD":0,"R_F_IADD":0,"R_T_IADD":0,"FIPMCD90_L":"73000","FIPMCD90_R":"73000","FIPPLC90_L":"73000","FIPPLC90_R":"73000","FULLNAME":"HARRISON ST","PAVE2":0,"ST_FLAG":1,"LINECODE":15,"BLKSTREET":"  700 HARRISON ST","BG_L":"1","BG_R":"1","CTBNABG_L":"00431","CTBNABG_R":"00431","CITYST_I_1":3651,"BLK":"700","Status":"Completed","Start_Date":1293858000000,"End_Date":1325307600000,"ProposeEnd":null,"ProposeSrt":null,"ID":0,"FID_1":0,"GDT_ID2_1":0,"StreetName":"Harrison St","Intersecti":"Almond St","Intersec_1":"Sarah Lougen St","Rationale":" ","Additions":" ","Interventi":"0","RepairEsti":0,"AvgDPWRati":" ","Rating":" ","PCI":" ","SewerConfl":" ","Engineerin":" ","NationalGr":" ","RoadRating":0,"RiskScore":0,"M___P_Rank":"2011","F5_Year_Pla":" ","M_P_Rank":" ","Sheet1_Yea":0,"CAMP_Ratin":" ","Shape__Length":186.57335955185414,"CreationDate":1487687799250,"Creator":"sbartlett_syr","EditDate":1490117406476,"Editor":"sbartlett_syr","Intervention2":null,"Intervention2Intersection1":null,"Intervention2Intersection2b":null,"CurrentStatus":"Mill & Pave","TypeLastCityProject":null,"Sewer_Grant":null}},{"type":"Feature","id":3950,"geometry":{"type":"LineString","coordinates":[[-76.1405678702916,43.0442362634466],[-76.1391293430053,43.0442234922544]]},"properties":{"FID":3950,"FNODE_":1976,"TNODE_":1979,"LPOLY_":1131,"RPOLY_":1167,"LENGTH":384.571,"CITYST_":3078,"CITYST_ID":3650,"FNODE_1":1977,"TNODE_1":1980,"LPOLY_1":0,"RPOLY_1":0,"CITYST2_":3650,"CITYST2_ID":17043,"LTYPE":1,"GDT_ID2":12577761,"GDT_":20099,"RECNUM":12577761,"L_F_ADD":731,"L_T_ADD":759,"R_F_ADD":730,"R_T_ADD":758,"PREFIX":" ","NAME":"HARRISON","TYPE":"ST","SUFFIX":" ","CFCC":"A40","TRACT90_L":"0043","TRACT90_R":"0043","BLOCK90_L":"116","BLOCK90_R":"124","L_F_IADD":1,"L_T_IADD":0,"R_F_IADD":0,"R_T_IADD":0,"FIPMCD90_L":"73000","FIPMCD90_R":"73000","FIPPLC90_L":"73000","FIPPLC90_R":"73000","FULLNAME":"HARRISON ST","PAVE2":0,"ST_FLAG":1,"LINECODE":15,"BLKSTREET":"  700 HARRISON ST","BG_L":"1","BG_R":"1","CTBNABG_L":"00431","CTBNABG_R":"00431","CITYST_I_1":3650,"BLK":"700","Status":" ","Start_Date":null,"End_Date":null,"ProposeEnd":null,"ProposeSrt":null,"ID":0,"FID_1":0,"GDT_ID2_1":0,"StreetName":" ","Intersecti":" ","Intersec_1":" ","Rationale":" ","Additions":" ","Interventi":"0","RepairEsti":0,"AvgDPWRati":" ","Rating":" ","PCI":" ","SewerConfl":" ","Engineerin":" ","NationalGr":" ","RoadRating":0,"RiskScore":0,"M___P_Rank":" ","F5_Year_Pla":" ","M_P_Rank":" ","Sheet1_Yea":0,"CAMP_Ratin":" ","Shape__Length":160.14794019797358,"CreationDate":1487687799250,"Creator":"sbartlett_syr","EditDate":1487862385237,"Editor":"sbartlett_syr","Intervention2":null,"Intervention2Intersection1":null,"Intervention2Intersection2b":null,"CurrentStatus":" ","TypeLastCityProject":null,"Sewer_Grant":null}},{"type":"Feature","id":3953,"geometry":{"type":"LineString","coordinates":[[-76.1391293430053,43.0442234922544],[-76.1378028270411,43.0442083947682]]},"properties":{"FID":3953,"FNODE_":1979,"TNODE_":1981,"LPOLY_":1131,"RPOLY_":1168,"LENGTH":354.644,"CITYST_":3081,"CITYST_ID":3649,"FNODE_1":1980,"TNODE_1":1982,"LPOLY_1":0,"RPOLY_1":0,"CITYST2_":3649,"CITYST2_ID":17045,"LTYPE":1,"GDT_ID2":12577762,"GDT_":20102,"RECNUM":12577762,"L_F_ADD":761,"L_T_ADD":799,"R_F_ADD":760,"R_T_ADD":798,"PREFIX":" ","NAME":"HARRISON","TYPE":"ST","SUFFIX":" ","CFCC":"A40","TRACT90_L":"0043","TRACT90_R":"0043","BLOCK90_L":"116","BLOCK90_R":"124","L_F_IADD":1,"L_T_IADD":0,"R_F_IADD":0,"R_T_IADD":0,"FIPMCD90_L":"73000","FIPMCD90_R":"73000","FIPPLC90_L":"73000","FIPPLC90_R":"73000","FULLNAME":"HARRISON ST","PAVE2":0,"ST_FLAG":1,"LINECODE":15,"BLKSTREET":"  700 HARRISON ST","BG_L":"1","BG_R":"1","CTBNABG_L":"00431","CTBNABG_R":"00431","CITYST_I_1":3649,"BLK":"700","Status":" ","Start_Date":null,"End_Date":null,"ProposeEnd":null,"ProposeSrt":null,"ID":0,"FID_1":0,"GDT_ID2_1":0,"StreetName":" ","Intersecti":" ","Intersec_1":" ","Rationale":" ","Additions":" ","Interventi":"0","RepairEsti":0,"AvgDPWRati":" ","Rating":" ","PCI":" ","SewerConfl":" ","Engineerin":" ","NationalGr":" ","RoadRating":0,"RiskScore":0,"M___P_Rank":" ","F5_Year_Pla":" ","M_P_Rank":" ","Sheet1_Yea":0,"CAMP_Ratin":" ","Shape__Length":147.68498699070764,"CreationDate":1487687799250,"Creator":"sbartlett_syr","EditDate":1487862385237,"Editor":"sbartlett_syr","Intervention2":null,"Intervention2Intersection1":null,"Intervention2Intersection2b":null,"CurrentStatus":" ","TypeLastCityProject":null,"Sewer_Grant":null}}]}