{"type":"FeatureCollection","features":[{"type":"Feature","id":18331,"geometry":{"type":"Polygon","coordinates":[[[-76.204476000105672,43.045378999824806],[-76.20447399955755,43.044997999729375],[-76.204401999587517,43.04449900017805],[-76.204144999669566,43.04345399971205],[-76.204057999630919,43.042724000059017],[-76.203994999881729,43.041637000000222],[-76.203989000033957,43.041566000321716],[-76.203985999660901,43.041538000129968],[-76.202577000222604,43.041589000282009],[-76.20130299960519,43.041634000265134],[-76.200726000020097,43.04165499972072],[-76.19916000022296,43.041720999744925],[-76.198868000144927,43.041735999710681],[-76.197751999711258,43.041789000173104],[-76.196493000060798,43.041854000145037],[-76.196171999670398,43.041865999698032],[-76.195513000069568,43.041898999933792],[-76.194930999563283,43.041921999769308],[-76.194948000180034,43.042220000226699],[-76.194820999958424,43.042224999737336],[-76.193512000079238,43.042282000038597],[-76.190442000409249,43.042413999980148],[-76.189675999779951,43.042465000060503],[-76.189054999813933,43.040310999720013],[-76.188354000380272,43.038314999973728],[-76.188157999663375,43.037779000201056],[-76.188032999989915,43.037428000253058],[-76.187993999631843,43.037222000033289],[-76.188088000241507,43.037213000180024],[-76.188211000265142,43.037198999749101],[-76.188828000033212,43.037115999708071],[-76.188706999659374,43.036446999953483],[-76.188900999828135,43.036434999997326],[-76.189183999685355,43.036392000135045],[-76.188908000399152,43.035659999827011],[-76.188048000058529,43.033459000131309],[-76.187626000284141,43.03238400018612],[-76.194076999968757,43.03215599996782],[-76.194175999702964,43.032117000001158],[-76.195359000083769,43.031639999767613],[-76.195667999880257,43.031516000243691],[-76.195807999622346,43.031458999790743],[-76.19573800020045,43.030713999889059],[-76.195730999629461,43.030633999886412],[-76.195693999819525,43.030598999975545],[-76.195626000047469,43.029710000145322],[-76.195558000275398,43.02868800015964],[-76.195599000283295,43.028599999807263],[-76.195507000221767,43.026992999958821],[-76.195641000116083,43.02696900028706],[-76.19649899990857,43.026803000002175],[-76.196720999666411,43.026759999957996],[-76.196982999607229,43.02835400030196],[-76.197764000305128,43.028257999747119],[-76.198653999884669,43.028191999688929],[-76.199181999964281,43.028165000092457],[-76.199556000058095,43.028163999961251],[-76.199694000150359,43.028173999959272],[-76.199659999815154,43.027498999718979],[-76.200884000203857,43.027434000301284],[-76.200868000310322,43.026643000204658],[-76.201597000231388,43.026611999957602],[-76.20160300007916,43.02663199980104],[-76.201632000391484,43.026682999864768],[-76.201695000140674,43.026732999731642],[-76.201767000110692,43.026758999803874],[-76.201866999669804,43.026771999835923],[-76.202881999821116,43.02674999972961],[-76.203316000189403,43.026739000001868],[-76.203593000198822,43.0267320002338],[-76.20363699968145,43.026728000272115],[-76.203506000160203,43.02484600024259],[-76.203455000106558,43.024105000327793],[-76.203433000365266,43.023802000200426],[-76.203379999763499,43.023070000120583],[-76.203346000326619,43.022604999886234],[-76.203141000287218,43.022612999689805],[-76.202430999734403,43.022637999972332],[-76.201808000118575,43.023040999812039],[-76.2011479997945,43.02346800002649],[-76.200288000352188,43.022714999885402],[-76.200033000084062,43.022722999674691],[-76.199855999633741,43.022728000117098],[-76.19967999990665,43.022732999902338],[-76.198207999820838,43.022783999921657],[-76.198191000102383,43.022783999921657],[-76.197482000272828,43.022812000133136],[-76.197476000425041,43.022460999959542],[-76.194568000238448,43.022459999735389],[-76.194205000015288,43.022459999735389],[-76.194312000145402,43.023606999847708],[-76.194277999810211,43.023754999868963],[-76.193764999799228,43.025394000166649],[-76.193713999745597,43.025548999723853],[-76.186067999984601,43.025832999837469],[-76.185304999728359,43.02587700004279],[-76.185271000291493,43.025465000169177],[-76.185262000070651,43.025360000071629],[-76.184365999745026,43.025015999982664],[-76.182938999865073,43.024472000076756],[-76.182768000160834,43.024408999808813],[-76.182442999572501,43.024463999858696],[-76.182428000402197,43.024285000124536],[-76.182389999869059,43.023851999786942],[-76.182120000430629,43.023887000261333],[-76.181147999937011,43.023975999689128],[-76.181107999754033,43.02375400032264],[-76.180725000337716,43.021936000226098],[-76.1777259999145,43.018687000199819],[-76.177658000142458,43.018630999942268],[-76.177639999700787,43.018620999703238],[-76.17758500034752,43.018579000126508],[-76.177447000255242,43.01843100010673],[-76.17644899982237,43.018856999918192],[-76.175811000137912,43.019127000164843],[-76.175243999700243,43.019082999719124],[-76.175138000293359,43.019073999833033],[-76.174855000436153,43.018416999988759],[-76.174843999667175,43.018391999957814],[-76.175150999813837,43.018117000259195],[-76.175307000347743,43.018010999776614],[-76.175406999906869,43.017950000041814],[-76.175517000410039,43.017884999708528],[-76.175990000238059,43.017504999970349],[-76.174893999895886,43.017099000296085],[-76.17318699963343,43.016470000157277],[-76.171326000283514,43.016435999717686],[-76.170990999649433,43.016433000064382],[-76.170843000409747,43.014452000156403],[-76.17074399977723,43.01303500022118],[-76.170747000150286,43.012865999872631],[-76.170584999768579,43.011188000007245],[-76.170496999905026,43.009922999917549],[-76.170491999882159,43.009818999945459],[-76.170359999637682,43.009894999740297],[-76.169607000325485,43.01036999994006],[-76.168197000163971,43.011313000273667],[-76.167659999863531,43.011632999875289],[-76.167534000365151,43.01083800014117],[-76.167309000234241,43.009813999765541],[-76.166190000325855,43.010100999713814],[-76.165945000103477,43.010822999848955],[-76.165747999561674,43.011095000111659],[-76.165618999690238,43.0112740002021],[-76.165002999747088,43.011405999839155],[-76.164558000406487,43.011444000080175],[-76.164534000117044,43.011195999984629],[-76.161389999928858,43.011066999811803],[-76.161317000133934,43.010870000226795],[-76.161223000422595,43.010626000138188],[-76.160619999999923,43.009041999811366],[-76.159717999826512,43.006547999815723],[-76.159700000283181,43.0042339998366],[-76.159874000360446,43.003957999936169],[-76.160080000224767,43.003652999841655],[-76.160588000212897,43.0039179999239],[-76.161080000307479,43.004141999788594],[-76.161732000235631,43.004424999860511],[-76.162475000400391,43.004725000126619],[-76.163313999926288,43.005026999943979],[-76.164483999888333,43.005437999818348],[-76.164678999882,43.005491000094302],[-76.165016999990797,43.005540000296328],[-76.165215000357492,43.005550999880491],[-76.165618999690238,43.005532000239207],[-76.16541899967369,43.003008999719029],[-76.165057000173761,42.998224999680097],[-76.164156999650189,42.9982630001914],[-76.164113999992466,42.997575999958414],[-76.164069999611527,42.99671899984714],[-76.1644119999183,42.996705000035888],[-76.164945000020765,42.99668300032608],[-76.163674999601326,42.984166000300277],[-76.162724999747326,42.984204000304871],[-76.157376000252668,42.984420999759983],[-76.150481999978922,42.984688999874137],[-76.150011999625647,42.984706999864464],[-76.149577000330794,42.984723000143489],[-76.146859000114972,42.984812999992613],[-76.143540000024629,42.984940999916141],[-76.142380000108361,42.984988999900864],[-76.142212999703787,42.98499199977546],[-76.142175000068946,42.984862000256648],[-76.142166999673023,42.984735999874303],[-76.142104999748753,42.984548999842552],[-76.139868999581779,42.984633000162617],[-76.138009999881689,42.984698000198563],[-76.137275000112837,42.984730000099979],[-76.13684400011762,42.984748000078305],[-76.136803000109737,42.984744000010565],[-76.136028999982841,42.984770000117663],[-76.135357999788113,42.984792000149106],[-76.135601000360666,42.987760000198946],[-76.1338709996337,42.987832999948303],[-76.133248999842763,42.987856000328478],[-76.130410000151429,42.987963999884286],[-76.130006999745305,42.987979999972659],[-76.129836000041095,42.988004999897157],[-76.127869000385942,42.988070000310259],[-76.127100000281928,42.988078000012678],[-76.125290999912224,42.988174999770941],[-76.125147999797093,42.988180999866152],[-76.124866999589685,42.988189000211207],[-76.125007000230099,42.990017000168585],[-76.125290000087318,42.99365099979866],[-76.125566000271832,42.996917000121158],[-76.125783999831711,42.999616999856613],[-76.125901999832493,43.001225000031319],[-76.126157999925539,43.004698000064131],[-76.124762999832626,43.006940999981758],[-76.124386000264067,43.00757600001301],[-76.124242000324017,43.007794999990097],[-76.12398500040608,43.008168000121266],[-76.122533000411764,43.01002599994375],[-76.122231000287968,43.010416000244206],[-76.122904999957427,43.010870999982863],[-76.124091999637898,43.011778999718473],[-76.125266999622781,43.013396999912068],[-76.124560000341347,43.01342699989231],[-76.122634999620701,43.013513999949218],[-76.117774999847555,43.013745999936326],[-76.112908000401731,43.014014999962257],[-76.110739000181937,43.014134999901437],[-76.110248999737152,43.014158000289932],[-76.110667000211905,43.018904000058662],[-76.110867000228438,43.02106000029837],[-76.110888999969745,43.021156999877121],[-76.110985000229235,43.02243900027851],[-76.111017999841195,43.023116000106256],[-76.111068999894812,43.023573000076404],[-76.111202999789114,43.024988000119635],[-76.111269999736265,43.02587700004279],[-76.111314999942095,43.026444999861454],[-76.11137600004146,43.027203999788284],[-76.111427000095105,43.02767000013165],[-76.111571999860061,43.029274999760254],[-76.11120500033725,43.029292999823774],[-76.110350000019494,43.029334999951374],[-76.109236999958895,43.029387999961969],[-76.108732000343821,43.029413000112136],[-76.108122000248457,43.029443000147552],[-76.10754800013811,43.029469999838597],[-76.107870000353373,43.03215399983543],[-76.107876000201173,43.032207000038355],[-76.107935999577307,43.032773000267838],[-76.106816999668908,43.032829000101913],[-76.106333999795154,43.032856000273348],[-76.105024000091049,43.032916000246935],[-76.103408999890107,43.032991999691575],[-76.098919000012842,43.033213999793958],[-76.098489999667436,43.033241999844506],[-76.096880000387685,43.033296999859644],[-76.096673999625054,43.033312999962263],[-76.096416999707088,43.033325999919441],[-76.094985999629159,43.033407999787883],[-76.09300399990542,43.033468999923294],[-76.093009999753193,43.03352100025991],[-76.09311199986044,43.034472999898306],[-76.093330000318659,43.037079000239011],[-76.093240999731876,43.037079000239011],[-76.093120000256377,43.037084000168569],[-76.093028000194849,43.037088000111922],[-76.08383099980702,43.037474999964097],[-76.0838149999135,43.037240999719131],[-76.083458000436437,43.037018999739381],[-76.082307999667577,43.036304000322964],[-76.079248999868241,43.036456999915195],[-76.078369000334447,43.036501999722674],[-76.077577999590787,43.037753000200766],[-76.077430000351114,43.037677000086397],[-76.077021000097204,43.037467000127577],[-76.076333000184036,43.037131000143091],[-76.075820000173039,43.036930000181528],[-76.075201999681767,43.036741000116827],[-76.074986999596589,43.036683999920555],[-76.074256000025727,43.036534000222282],[-76.074312000102225,43.037456999673864],[-76.074601999632137,43.041511999752942],[-76.075737000332367,43.041475000308459],[-76.07691200031725,43.039137999800893],[-76.079202000012572,43.039829999725178],[-76.07963600038083,43.039960999750704],[-76.079622999962055,43.040010000024196],[-76.079585000327228,43.04014899980983],[-76.079932999583448,43.040300999729858],[-76.081233000140131,43.040867000154584],[-76.081776000288329,43.04122899988559],[-76.08179700020473,43.041575000193006],[-76.082073000389258,43.044064000233732],[-76.082100000153432,43.044314999790188],[-76.082112999673924,43.044448999684839],[-76.082124000442889,43.044566000289244],[-76.082358999721222,43.044558000064256],[-76.082753999731423,43.044543000131938],[-76.082756000279545,43.044572000129072],[-76.084153000022283,43.045268999738703],[-76.084809999973317,43.045693000059806],[-76.087334000020377,43.047295000241725],[-76.087513000120524,43.047409999721843],[-76.088915999711034,43.047984999796711],[-76.089200000291498,43.04799600031189],[-76.089990000311914,43.048025999797112],[-76.092789999645177,43.048136000191207],[-76.092678000390492,43.048254999935857],[-76.092099000257264,43.048864000189603],[-76.09029200043571,43.050769999812836],[-76.09013599990179,43.050779000303244],[-76.089436000293048,43.050818999986888],[-76.089462000232302,43.051122999750021],[-76.089474999752795,43.051277999971298],[-76.089513000285933,43.051733000158045],[-76.089608999647083,43.052979999689704],[-76.089613999669979,43.053034999735857],[-76.089685999639983,43.053829000133788],[-76.089743000439711,43.054588999785935],[-76.089582999707815,43.054603999887256],[-76.087579000242769,43.054784999857908],[-76.08576700039832,43.054526000239278],[-76.083569999691107,43.05436599985989],[-76.082487999592644,43.054621000041415],[-76.082535000346624,43.054686999900248],[-76.082613999989348,43.054780999755501],[-76.082812000356071,43.055023999921801],[-76.083084000342609,43.055413000222963],[-76.08315100028976,43.055441999675786],[-76.083200999620161,43.055520000127835],[-76.083244000176194,43.055591000066002],[-76.083270999940382,43.055665999966848],[-76.083343999735305,43.056263999806859],[-76.083369999674588,43.056554999864289],[-76.083392000314191,43.056952999883556],[-76.08356200019351,43.057638999829905],[-76.083671999798369,43.058062999970005],[-76.083686999866984,43.058112999867596],[-76.083747999966349,43.05829200004618],[-76.083838000378037,43.058490000027376],[-76.083927999891401,43.058691000239392],[-76.084189000007299,43.059271999942602],[-76.084230999840088,43.05935500020091],[-76.084572000321955,43.059907000222843],[-76.084837999562424,43.060300999745927],[-76.084952000263556,43.060465000123806],[-76.08518599971697,43.060801000296365],[-76.086045000232687,43.061781999710547],[-76.086164000058361,43.061936000319967],[-76.086396999686869,43.062235000257985],[-76.086483999725488,43.062436000006905],[-76.087542000432833,43.063688999729983],[-76.087600000159171,43.063758000295486],[-76.087852000054241,43.064063999983944],[-76.088703999998927,43.065186000212549],[-76.089165000131402,43.065803999945196],[-76.089454999661285,43.06617599988342],[-76.089805000363981,43.06667199978952],[-76.090136999726681,43.067181999773901],[-76.090239999658849,43.067388999942793],[-76.090269999796092,43.067449999760946],[-76.090350000162019,43.067619000112735],[-76.090519000216418,43.068073000323267],[-76.090552999653298,43.068185999947012],[-76.090811000294465,43.068173000157721],[-76.091924000355093,43.068117999908019],[-76.093169999586777,43.068068000294453],[-76.093935000391141,43.068029000186932],[-76.09393100019318,43.068188000217212],[-76.094013000208946,43.069424999974444],[-76.095225000003765,43.069367999960321],[-76.095962000320739,43.069336000182389],[-76.096133999849869,43.069327999907195],[-76.096466000110894,43.069312000009873],[-76.096512000141644,43.069309999776351],[-76.096569999867967,43.070316000075039],[-76.096896000281205,43.070323000121064],[-76.097286000268539,43.070305000282424],[-76.098626999934794,43.070240999719594],[-76.099297000304617,43.070210999945424],[-76.099327000441832,43.070850000163041],[-76.099410000282518,43.070845999796262],[-76.100063999860495,43.070809999764656],[-76.100071000431512,43.071081999990255],[-76.100074999731149,43.071417000295611],[-76.100239999587586,43.07319000001776],[-76.100372999656997,43.075091000013764],[-76.100393999573384,43.075103000282077],[-76.100683000176701,43.075272999893635],[-76.100945999942425,43.075429000110411],[-76.102408999807409,43.076299000143528],[-76.102572999838927,43.076396999677911],[-76.105804000065731,43.076213999851291],[-76.106877999768287,43.076159000255572],[-76.107876000201173,43.076102999948354],[-76.108865000413218,43.07604200021165],[-76.110063999789233,43.075985999797503],[-76.11111199955252,43.075924999944334],[-76.111597999799343,43.075893000309037],[-76.111899000098205,43.075852999921182],[-76.111955999999608,43.07586700005993],[-76.112074999825296,43.075870000089225],[-76.113263000228983,43.075806000088299],[-76.114063000295147,43.075768999677898],[-76.114968999768209,43.075716999719567],[-76.114974999615995,43.075796999990516],[-76.115449999992151,43.075773999734672],[-76.115425999702694,43.075539999921837],[-76.115260000021337,43.073687999691018],[-76.11523900010495,43.073361999787885],[-76.118557000370387,43.073197999788896],[-76.123173999570952,43.072960999811194],[-76.124424999723828,43.072920000076444],[-76.124485999823193,43.072916999902731],[-76.124493000394196,43.072988000037661],[-76.124529000379198,43.073428999865257],[-76.125018000100738,43.073400999783082],[-76.125777999983939,43.073364999939812],[-76.126291999819841,43.079503999923212],[-76.126311999911323,43.079502999972796],[-76.126481999790627,43.079493999761866],[-76.131241000179728,43.079277000254606],[-76.134552999699082,43.079125999775165],[-76.135596000337813,43.079074999998468],[-76.136649000123967,43.079012000022715],[-76.136701999827395,43.079900999958198],[-76.13700399995119,43.080203000005731],[-76.137046999608899,43.080245999993593],[-76.137674000321013,43.080867999814089],[-76.138353999838259,43.081538999781721],[-76.13915899992729,43.082341000322245],[-76.13952200015045,43.082701000184308],[-76.142261000282673,43.081193999809784],[-76.14272200041512,43.081620000240932],[-76.144210000394452,43.083115999860887],[-76.144279999816334,43.083164999773061],[-76.144602000031611,43.083398999991672],[-76.144675999651454,43.083434999845061],[-76.144689000070258,43.083440999818549],[-76.144790000352586,43.083463999820871],[-76.145077000407781,43.083677000059836],[-76.145432000235004,43.083901000192924],[-76.146957999849178,43.084601999707679],[-76.147327999745031,43.084774000249887],[-76.147386000369679,43.084795999887724],[-76.147440999722946,43.084769000271471],[-76.147527999761564,43.084741000122271],[-76.147612000325466,43.084714999691101],[-76.147634999891693,43.084707999976871],[-76.148676999807194,43.084379999911249],[-76.14894899979376,43.084313999869849],[-76.149794000065754,43.083655999902845],[-76.150656000056216,43.084224000175901],[-76.15178699966016,43.083340000076895],[-76.153908000199408,43.081677999928857],[-76.15405299996435,43.08156299975888],[-76.155387999782818,43.082478000158261],[-76.156069000023308,43.081712000308606],[-76.15756799987328,43.082741000038432],[-76.157889000263651,43.082960000187335],[-76.159542000099421,43.084091999685803],[-76.16245500030891,43.086102000017405],[-76.162725999572245,43.085809999968745],[-76.163079999574578,43.085463999920158],[-76.164052000068196,43.084370999760694],[-76.164447999903317,43.083866999715802],[-76.16486700020296,43.083376999852199],[-76.165263999863001,43.082792999940935],[-76.16557699985745,43.082396000274045],[-76.16630199958054,43.081624999820278],[-76.166419999581308,43.081523999709269],[-76.166745999994561,43.081309000016297],[-76.166862000345503,43.081225999957383],[-76.166966999927482,43.081142999786024],[-76.167173999616736,43.080944000213705],[-76.167385000402234,43.080762000118028],[-76.167566999977097,43.080607000288047],[-76.167684999977894,43.08048200007606],[-76.167828000093024,43.080363999820371],[-76.167946999918712,43.080270999759001],[-76.168059999896613,43.080152999753075],[-76.168182999920262,43.080006999831575],[-76.168315000164739,43.079891999805731],[-76.168450999708867,43.079752000253222],[-76.168593999823997,43.079581999944722],[-76.168762000053491,43.079380000037951],[-76.168936000130756,43.07916699995085],[-76.168977999963559,43.079127999688374],[-76.169040999712749,43.079069000253504],[-76.169184999652785,43.078912000157267],[-76.169274000239568,43.078788999692179],[-76.169394999715067,43.078622999851937],[-76.169767999983975,43.078164999818398],[-76.170019000054154,43.077836000177143],[-76.170226999568285,43.077635999725345],[-76.171274000404978,43.0769150000501],[-76.171664000392326,43.0770710000238],[-76.17195899994509,43.077186000094969],[-76.17226000024398,43.077310999813442],[-76.174739999910102,43.078302999776263],[-76.174862999933737,43.078354000195525],[-76.174893000070981,43.078313000131985],[-76.175502000341424,43.078583999899315],[-76.175895999628423,43.078759000165427],[-76.176247999980916,43.079033999761229],[-76.176407999814487,43.078925000293381],[-76.176637000143344,43.078768999790583],[-76.176787999756073,43.078664999672192],[-76.176883000190642,43.078600000000655],[-76.176925000023431,43.078570999690911],[-76.177002999841235,43.078511999719751],[-76.177074999811268,43.078467999859932],[-76.177248999888548,43.078346999754523],[-76.177303000315206,43.07831100019218],[-76.17735000017089,43.07827999980487],[-76.17764800009671,43.078074000303772],[-76.177859999808803,43.077929999973655],[-76.178006000297003,43.077830000310854],[-76.178182000024094,43.077709000257897],[-76.17832699978905,43.077609000234425],[-76.178505000064277,43.077476999927278],[-76.182392000417181,43.074563999692515],[-76.185999000387625,43.071867000292087],[-76.186684999752657,43.071328000114931],[-76.193524999599703,43.066292000220997],[-76.194632999637463,43.065489000111256],[-76.195566999597915,43.065104000157874],[-76.195938000216998,43.064937999999579],[-76.196143000256413,43.064856999802693],[-76.197667000220761,43.064275000320713],[-76.199024999605442,43.063767999743199],[-76.19919000036019,43.063698000293279],[-76.199186000162243,43.063667999941977],[-76.199274999850701,43.063669000150824],[-76.199429999661405,43.063610000271289],[-76.199647000294675,43.063526999866383],[-76.199700999823037,43.063542999961093],[-76.199939000372723,43.063598999931557],[-76.199992000076179,43.063609000061525],[-76.200191000267807,43.06364700014678],[-76.200377999865566,43.063675000090903],[-76.200281999606091,43.063538999773698],[-76.200050999627422,43.063212000145761],[-76.199894000166893,43.062990999859032],[-76.199407000095178,43.062529999797214],[-76.199263000155128,43.062308000102576],[-76.198253000026682,43.060966000246118],[-76.197300999624545,43.059630000230186],[-76.197401000081982,43.059515000033841],[-76.197438999716823,43.059513999757222],[-76.197565000113514,43.059508999686649],[-76.197935999834272,43.059606000195622],[-76.199581999997349,43.060033000009192],[-76.199628000028099,43.059943000094442],[-76.200038000106929,43.060048999703056],[-76.200068000244173,43.060056999876622],[-76.20004200030489,43.059745000210832],[-76.19986900005253,43.057647000317878],[-76.19986999987745,43.057627999731494],[-76.199877000448453,43.057392000248299],[-76.199742999655825,43.056014999926731],[-76.199720000089613,43.055698000316696],[-76.199643999921634,43.05464700011364],[-76.199093000275809,43.05465100022473],[-76.198915000000568,43.054431000289988],[-76.198863000122046,43.05436599985989],[-76.198494999876004,43.053847000215406],[-76.197694999809855,43.052719999937601],[-76.19764600030436,43.052648999957583],[-76.197335999784656,43.052171999819222],[-76.196944000147496,43.051626999958792],[-76.19684500041329,43.0514889996726],[-76.1962620000821,43.05067799990271],[-76.196206999830522,43.050593999949861],[-76.195976999676745,43.050242000021655],[-76.195867999896791,43.050077000098398],[-76.195683999773792,43.049795999911652],[-76.195621999849507,43.049700999856363],[-76.195594000260414,43.04938500021678],[-76.195583000389746,43.049358000097314],[-76.19555400007745,43.049303000036005],[-76.19550100037398,43.048482000275904],[-76.195237999709946,43.048585999749115],[-76.195164999915008,43.048466000189826],[-76.193912999937226,43.046670000267731],[-76.194909999646882,43.046281000312312],[-76.193972000386779,43.04494099998206],[-76.193143000008291,43.043785999704227],[-76.1923050003073,43.04252300003607],[-76.1948550002936,43.04240700003016],[-76.195082999899256,43.042394999926479],[-76.195086000272298,43.042422999727052],[-76.195631000070335,43.042400999978582],[-76.195621999849507,43.042291999705917],[-76.195723000131849,43.042243999843656],[-76.195792999553731,43.042202000015415],[-76.195860000399193,43.042162999867841],[-76.195928000171264,43.042129999774069],[-76.196012999661747,43.042098000223227],[-76.196099999700394,43.042072999988093],[-76.196189000287148,43.042053999828823],[-76.196278999800526,43.04204300021771],[-76.19637000003712,43.042038000035689],[-76.196508999954304,43.04203100004279],[-76.199078000207194,43.041905999941747],[-76.199136999758423,43.041903000219811],[-76.199746999853801,43.041876999997413],[-76.199523000446121,43.042229999904123],[-76.199454999775753,43.042693000055962],[-76.199511999677156,43.043936999930878],[-76.199465999646392,43.043946999984925],[-76.199483000263143,43.044204999765718],[-76.199509000202426,43.044425000273932],[-76.199557999707906,43.044425000273932],[-76.199690999777289,43.044422999884958],[-76.199838999915315,43.044427999872553],[-76.199961000114044,43.044461000043277],[-76.200047000327771,43.044506999754255],[-76.200153999559589,43.044610000195085],[-76.200762999830019,43.045343999788969],[-76.200803999837902,43.04542600001038],[-76.200858000264589,43.04558399972754],[-76.200890999876535,43.045721000324647],[-76.200922999663604,43.046023999911675],[-76.200885000028762,43.04634200012412],[-76.200837000348187,43.046501999772801],[-76.200628000110811,43.046929000238698],[-76.200524000353738,43.047190999892571],[-76.201783000004212,43.047097000220639],[-76.202556000306203,43.047037000326782],[-76.203096000081359,43.046996000321833],[-76.203548999817883,43.046985000283804],[-76.203860999987441,43.047004000228867],[-76.204148999867513,43.047035000022937],[-76.204119999555203,43.046832000027855],[-76.204123999753165,43.046531000156783],[-76.20417399998189,43.046302000146738],[-76.204221999662465,43.046174000043891],[-76.204389000067039,43.045825999726993],[-76.204446999793348,43.045655000008132],[-76.204476000105672,43.045378999824806]]]},"properties":{"MTFCC":"G4110","OID":"278901392190551","GEOID":"3673000","STATE":"36","PLACE":"73000","PLACENS":"00979539","BASENAME":"Syracuse","NAME":"Syracuse city","LSADC":"25","FUNCSTAT":"A","PLACECC":"C5","POP100":148620,"HU100":66791,"AREALAND":64903077,"AREAWATER":1507055,"UR":"M","CBSAPCI":"Y","NECTAPCI":"N","OBJECTID":18331,"CENTLAT":"+43.0406803","CENTLON":"-076.1437249","INTPTLAT":"+43.0409981","INTPTLON":"-076.1435544"}}]}